name,jurisdiction code,Display community,address,lat,lng,Additional description,id,Notes,Check / manual updates for launch
P1001 - Johnson Rd just off 1209,BCO,Bastrop County,"115 Co Rd 246, Bastrop, TX 78602",30.13537,-97.429787,,747,,
P1002 - E Riverside Dr/Tahitian Dr,BCO,Bastrop County,"3000 Riverside Dr, Bastrop, TX 78602",30.072571,-97.283447,,748,,
P1003 - Riverwood Dr ,BCO,Bastrop County,"217 Riverwood Dr, Bastrop, TX 78602",30.12042,-97.329033,Low water crossing COB1001,749,,
P1004 - Green Valley Dr,BCO,Bastrop County,"419 Green Valley Dr, Bastrop, TX 78602",30.17705,-97.293823,,750,,
P1005 - 712 Shilo Road,BCO,Bastrop County,"712 Shiloah Rd, Bastrop, TX 78602",30.097076,-97.403717,.2 West of N Gaines,751,Road is damaged,Convert to Longterm Closure status
P1006 - Lovers Ln,BCO,Bastrop County,"1275 Lovers Ln, Bastrop, TX 78602",30.09199,-97.327667,,752,,
P1007 - Keanahalululu Ln/ Haiimaile,BCO,Bastrop County,"469 Keanahalululu Ln, Bastrop, TX 78602",30.09164,-97.326958,,753,,
P1008 - Woodlands Dr,BCO,Bastrop County,"373 Woodlands Dr, Bastrop, TX 78602",30.11804,-97.402878,,754,,
P1009 - Tucker Hill Ln,BCO,Bastrop County,"5000 Tucker Hill Ln, Cedar Creek, TX 78612",30.18111,-97.523064,,755,,
P1010 - 236 Over Hill Rd,BCO,Bastrop County,"236 Overhill Rd, Bastrop, TX 78602",30.18976,-97.301392,near Creekside Dr,756,,
P1011 - 170 Tiger Woods Dr,BCO,Bastrop County,"170 Tiger Woods Dr, Bastrop, TX 78602",30.179899,-97.280937,,757,,
P1012 - Manawianui Dr ,BCO,Bastrop County,"100 Manawianui Dr, Bastrop, TX 78602",30.08757,-97.276688,just off Kaanapali ln,758,,
P1013 - Kaanapali,BCO,Bastrop County,"366 Kaanapali Ln, Bastrop, TX 78602",30.088461,-97.277298,"Low water crossing, between Manawianui Dr and Koali Dr",759,,
P1014 - Old McDade Rd ,BCO,Bastrop County,"377 Old McDade Rd, Bastrop, TX 78602",30.14341,-97.309441,Low water crossing,760,,
P1015 - Greenfields Dr,BCO,Bastrop County,"111 Greenfields Dr, Bastrop, TX 78602",30.126659,-97.427696,,761,,
P1016 - E Riverside Dr,BCO,Bastrop County,"548 Riverside Dr, Bastrop, TX 78602",30.069189,-97.298019,from Akaloa Dr to Kahana Ln,762,,
P2001 - Friendship Rd. (East),BCO,Bastrop County,"387 Friendship Cemetery Rd, Paige, TX 78659",30.187429,-97.086777,FM 151,763,,
P2002 - Friendship Rd. (West),BCO,Bastrop County,"200Friendship Cemetery Rd, Paige, TX 78659",30.18733,-97.103958,,764,Convert to Caution status,Convert to Caution status
P2003 - Saint Delight Rd,BCO,Bastrop County,"400 St Delight Rd, Paige, TX 78659",30.184549,-97.112297,,765,,
P2004 - Gotier Trace Rd,BCO,Bastrop County,"1600 Gotier Trace Rd, Paige, TX 78659",30.131001,-97.132156,,766,,
P2005 - Gotier Trace Rd.,BCO,Bastrop County,"1250 Gotier Trace Rd, Paige, TX 78659",30.123619,-97.157066,,767,,
P2006 - Bowie Dr.,BCO,Bastrop County,"126 Bowie Dr, Paige, TX 78659",30.17696,-97.201424,,768,,
P2007 - Cardinal Dr.,BCO,Bastrop County,"718 Cardinal Dr, Paige, TX 78659",30.19125,-97.202263,,769,,
P2008 - Cardinal Dr.,BCO,Bastrop County,"700 Cardinal Dr, Paige, TX 78659",30.190281,-97.204323,,770,,
P2010 - 250 Blk League line Rd,BCO,Bastrop County,"250 League Line Rd, Smithville, TX 78957",30.07605,-97.068138,,772,,
P2011 - Zack Rd,BCO,Bastrop County,"292 Zack Ln, Smithville, TX 78957",30.056141,-97.042831,,773,,
P2012 - Center Union Rd.,BCO,Bastrop County,"200 Center Union Rd, Smithville, TX 78957",30.040739,-97.060402,,774,,
P2013 - Krchnak Rd.,BCO,Bastrop County,"459 Krchnak Rd, Smithville, TX 78957",30.0508,-97.07489,,775,,
P2014 - Barton Oak Rd.,BCO,Bastrop County,"210 Barton Oaks Dr, Smithville, TX 78957",29.95023,-97.138802,,776,,
P2015 - Vyvjala Rd.,BCO,Bastrop County,"300 Vyvjala Rd., Smithville, TX 78957",29.94005,-97.200989,,777,,
P2016 - Patterson Rd.,BCO,Bastrop County,"300 Patterson Rd., Smithville, TX 78957",29.921841,-97.23922,,778,,
P2017 - Patterson Rd.,BCO,Bastrop County,"500 Patterson Rd., Smithville, TX 78957",29.90966,-97.239449,at Hickory Creek,779,,
P2018 - Patterson Rd.,BCO,Bastrop County,"1600 Patterson Rd., Smithville, TX 78957",29.862989,-97.269234,,780,,
P2019 - Henry Ln.,BCO,Bastrop County,"200 Henry Ln, Rosanky, TX 78953",29.844379,-97.315308,,781,,
P2020 - McReynolds Rd.,BCO,Bastrop County,"450 McReynolds Rd., Rosanky, TX 78953",29.927019,-97.356071,,782,,
P2021 - McReynolds Rd.,BCO,Bastrop County,"300 McReynolds Rd., Rosanky, TX 78953",29.91769,-97.349197,,783,Road is open but damaged,Convert to Caution status
Johns Rd,BCO,Bastrop County,"280 John's Rd, Smithville, TX 78957",29.98064,-97.284241,County Rd 284,784,,
P2023 - Hidden Shore Loop,BCO,Bastrop County,"205 Hidden Shores Loop, Smithville, TX 78957",30.04944,-97.20118,,785,,
P2024 - O Grady Rd,BCO,Bastrop County,"255 O'Grady Rd, Smithville, TX 78957",30.07065,-97.199753,,786,,<< found the point that was in China! just needed the (-) in the GPS coords
P3001 - Wilhelm Way ,BCO,Bastrop County,"300 Wilhelm Way, Red Rock, TX 78662",29.970921,-97.368439,,787,,
P3002 - Watterson Rd.,BCO,Bastrop County,"1250 Watterson Rd, Red Rock, TX 78662",29.97965,-97.37867,near intersection w/ Wilhelm Way,788,,
P3003 - Watterson Rd. /Possum Way,BCO,Bastrop County,"900 Watterson Rd, Red Rock, TX 78602",29.9998,-97.365471,at Possum Way,789,,
P3004 - Watterson Rd.,BCO,Bastrop County,"674 Watterson Rd, Red Rock, TX 78602",30.014771,-97.355232,near intersection w/ Willy Rd,790,,
P3005 - Watterson Rd.,BCO,Bastrop County,"350 Watterson Rd, Red Rock, TX 78602",30.028339,-97.340431,@ Cedar Creek,791,,
P3006 - Glass Ln,BCO,Bastrop County,"317 Glass Lane, Bastrop, TX 78602",30.0208,-97.329071,,792,,
P3007 - Lee Rd.,BCO,Bastrop County,"613 Lee Rd, Bastrop, TX 78602",29.99102,-97.383202,,793,,
P3008 - Watterson School Rd.,BCO,Bastrop County,"362 Watterson School Rd, Red Rock, TX 78662",29.98814,-97.403709,,794,,
P3009 - Lee Rd.,BCO,Bastrop County,"525 Lee Rd, Bastrop, TX 78602",29.995131,-97.386101,,795,,
P3010 - Lower Red Rock Rd.,BCO,Bastrop County,"919 Lower Red Rock Rd., Bastrop, TX 78602",30.02825,-97.378906,,796,,
P3011 - Lower Red Rock Rd.,BCO,Bastrop County,"500 Lower Red Rock Rd., Bastrop, TX 78602",30.057091,-97.371429,,797,,
Lone Star Rd,BCO,Bastrop County,"400 Lone Star Rd, Bastrop, TX 78602",30.042351,-97.402077,,798,,
P3013 - Lower Red Rock Rd.,BCO,Bastrop County,"110 Lower Red Rock Rd., Bastrop, TX 78602",30.02284,-97.384911,,799,,
P3014 - Lower Red Rock Rd.,BCO,Bastrop County,"1110 Lower Red Rock Rd., Bastrop, TX 78602",30.02429,-97.389847,,800,,
P3015 - Lower Red Rock Rd.,BCO,Bastrop County,"1300 Lower Red Rock Rd., Bastrop, TX 78602",30.017309,-97.401161,,801,,
P3016 - Lower Red Rock Rd.,BCO,Bastrop County,"1550 Lower Red Rock Rd., Bastrop, TX 78602",30.00198,-97.412987,,802,,
P3017 - Lehman Ln,BCO,Bastrop County,"300 Lehman Ln, Bastrop, TX 78602",30.009251,-97.420563,,803,,
P3018 - Pleasant Chapel Rd,BCO,Bastrop County,"270 Pleasant Chapel Rd, Cedar Creek, TX 78612",30.03093,-97.431862,,804,,
P3019 - Earl Callahan Rd,BCO,Bastrop County,"400 Earl Callahan Rd, Cedar Creek, TX 78612",30.065701,-97.438698,,805,,
P3020 - N Cedar Creek Dr.,BCO,Bastrop County,"100 N Cedar Creek Dr, Cedar Creek, TX 78612",30.065929,-97.483467,,806,,
P3021 - Mt. Pleasant Rd.,BCO,Bastrop County,"600 Mt Pleasant Rd, Cedar Creek, TX 78612",30.032209,-97.503822,,807,,
P3022 - John Craft Rd.,BCO,Bastrop County,"200 John Craft Rd, Red Rock, TX 78662",29.95764,-97.38443,,808,,
P3023 - Watterson Rd,BCO,Bastrop County,"1750 Watterson Rd, Red Rock, TX 78662",29.95488,-97.398422,at Bridge,809,,
P3024 - Goertz Rd. / Watterson Rd,BCO,Bastrop County,"400 Goertz Rd., Red Rock, TX 78662",29.970671,-97.42926,at Watterson Rd,810,,
P3025 - Goertz Rd ,BCO,Bastrop County,"300 Goertz Rd., Red Rock, TX 78662",29.97324,-97.433632,,811,,
P3026 - Sand Hills Rd.,BCO,Bastrop County,"100 Sand Hills Rd, Red Rock, TX 78662",29.956791,-97.443336,,812,,
P3027 - Sand Hills Rd.,BCO,Bastrop County,"600 Sand Hills Rd, Red Rock, TX 78662",29.939159,-97.408028,,813,,
P3028 - Klaus Ln,BCO,Bastrop County,"200 Klaus Ln, Red Rock, TX 78662",29.929939,-97.432663,@ Lower Elm Creek,814,,
P3029 - Pettytown Rd.,BCO,Bastrop County,"500 Pettytown Rd, Lockhart, TX 78644",29.93409,-97.44381,,815,,
P3030 - Pettytown Rd.,BCO,Bastrop County,"825 Pettytown Rd, Lockhart, TX 78644",29.912729,-97.456734,,816,,
P3031 - Bateman Rd.,BCO,Bastrop County,"300 Bateman Rd., Red Rock, TX 78662",29.946751,-97.466217,,817,,
P3032 - Alexander Rd.,BCO,Bastrop County,"100 Alexander Rd, Red Rock, TX 78662",29.960199,-97.474892,,818,,
P3033 - Wilson Rd.,BCO,Bastrop County,"200 Wilson Rd, Red Rock, TX 78662",29.9618,-97.473328,,819,,
P3034 - Boyd Rd.,BCO,Bastrop County,"100 Boyd Rd, Red Rock, TX 78662",29.985609,-97.49675,,820,,
P3035 - Boyd Rd.,BCO,Bastrop County,"400 Boyd Rd, Red Rock, TX 78662",29.97143,-97.512878,,821,,
P3036 - Hollow Rd.,BCO,Bastrop County,"200 Hollow Rd, Red Rock, TX 78662",29.991619,-97.49221,,822,,
P3037 - High Grove Rd.,BCO,Bastrop County,"575 High Grove Rd, Cedar Creek, TX 78612",30.0103,-97.478378,,823,,
P3038 - High Grove Rd.,BCO,Bastrop County,"300 High Grove Rd, Cedar Creek, TX 78612",30.02281,-97.468384,,824,,
P3039 - Artesian Rd.,BCO,Bastrop County,"100 Artesian Rd, Cedar Creek, TX 78612",30.0163,-97.533348,,825,,
P3040 - Rianna Woods Dr.,BCO,Bastrop County,"150 Rianna Woods Dr, Dale, TX 78616",30.00519,-97.570396,,826,,
P3041 - Blue Jay Rd.,BCO,Bastrop County,"200 Blue Jay Rd, Dale, TX 78616",30.003019,-97.559219,,827,,
P3042 - Watts Ln.,BCO,Bastrop County,"1600 Watts Ln, Cedar Creek, TX 78612",30.08292,-97.53553,,828,,
P3043 - Legend Oaks Dr.,BCO,Bastrop County,"200 Legend Oaks Dr, Dale, TX 78616",30.06827,-97.59903,,829,,
P3044 - Caldwell Rd.,BCO,Bastrop County,"150 Caldwell Rd, Dale, TX 78616",30.054649,-97.618813,,830,,
P3045 - McDowell Rd.,BCO,Bastrop County,"140 McDowell Rd, Del Valle, TX 78617",30.097561,-97.578369,,831,,
P3046 - Jacobson Rd.,BCO,Bastrop County,"197 Jacobson Rd, Del Valle, TX 78617",30.11647,-97.590134,,832,,
P3047 - Privada Rd,BCO,Bastrop County,"134 Privada Rd, Del Valle, TX 78617",30.108709,-97.570686,,833,,
P3048 - Reeves Ln,BCO,Bastrop County,"158 Reeves Ln, Cedar Creek, TX 78617",30.112391,-97.54113,,834,,
P3049 - Shady Oaks Loop,BCO,Bastrop County,"215 Shady Oaks Loop, Cedar Creek, TX 78612",30.099409,-97.530983,,835,,
P3050 - Thousand Oaks Dr,BCO,Bastrop County,"100 Thousand Oaks Dr, Cedar Creek, TX 78612",30.106079,-97.511833,,836,,
P3051 - Jenkins Rd,BCO,Bastrop County,"300 Jenkins Rd, Cedar Creek, TX 78612",30.107201,-97.494537,,837,,
P3052 - Pope Bend South,BCO,Bastrop County,"400 Pope Bend South, Cedar Creek, TX 78612",30.12546,-97.478432,,838,,
P3053 - Simpson Ave.,BCO,Bastrop County,"170 Simpson Ave, Cedar Creek, TX 78612",30.12892,-97.480377,,839,,
P3054 - Cedar Ln,BCO,Bastrop County,"323 Cedar Ln, Cedar Creek, TX 78612",30.127621,-97.46994,,840,,
P3055 - Tuck St,BCO,Bastrop County,"171 Tuck St, Cedar Creek, TX 78612",30.12088,-97.470108,,841,,
P3056 - Lake View Dr,BCO,Bastrop County,"248 Lake View Dr, Cedar Creek, TX 78612",30.11911,-97.469452,,842,,
P3057 - Marjess Dr.,BCO,Bastrop County,"150 Marjess Dr, Cedar Creek, TX 78612",30.11125,-97.462334,,843,,
P3058 - Leisure Ln,BCO,Bastrop County,"639 Leisure Ln, Cedar Creek, TX 78612",30.13228,-97.466087,,844,,
P3059 - Stoney Brook,BCO,Bastrop County,"139 Stoney Brook, Cedar Creek, TX 78612",30.128151,-97.449188,,845,,
P3060 - Leisure Ln.,BCO,Bastrop County,"363 Leisure Ln, Cedar Creek, TX 78612",30.123039,-97.44606,,846,,
P3061 - Shiloh Rd.,BCO,Bastrop County,"1150 Shiloh Rd, Cedar Creek, TX 78612",30.095131,-97.439507,,847,,
P3062 - Mt. Olive Rd.,BCO,Bastrop County,"398 Mt Olive Rd, Cedar Creek, TX 78612",30.100849,-97.441528,,848,,
P4001 - Monkey Rd,BCO,Bastrop County,"576 Monkey Rd, Elgin, TX 78621",30.326191,-97.417313,,849,,
P4002 - North Gates on Upper Elgin River Road @ Willbarger,BCO,Bastrop County,"1134 Upper Elgin River Rd, Elgin, TX 78621",30.28779,-97.438942,,850,,
P4003 - 1685 Upper Elgin River Rd,BCO,Bastrop County,"1685 Upper Elgin River Rd, Elgin, TX 78621",30.25691,-97.441978,,851,,
P4004 - 1831 Upper Elgin River Rd,BCO,Bastrop County,"1831 Upper Elgin River Rd, Elgin, TX 78621",30.248369,-97.447441,,852,,
P4005 - Dry Willow Rd / Elbow Bend Rd.,BCO,Bastrop County,"192 Dry Willow Rd, Elgin, TX 78621",30.246441,-97.44429,,853,,
P4006 - Watersedge Terrace Dr.,BCO,Bastrop County,"123 Watersedge Terrace Dr., Elgin, TX 78621",30.21368,-97.481857,,854,,
P4007 - 209 Old Sayers Rd,BCO,Bastrop County,"209 Old Sayers Rd, Elgin, TX 78621",30.32074,-97.365662,,855,,
P4008 - Beaver Rd,BCO,Bastrop County,"197 Beaver Rd, Elgin, TX 78621",30.30175,-97.37719,,856,Roadway is open but damaged,Convert to Caution status
P4009 - Arbuckle Rd,BCO,Bastrop County,"175 Arbuckle Rd, Elgin, TX 78621",30.287029,97.380966,,857,,
P4010 - 1333 Old Sayers Rd,BCO,Bastrop County,"1333 Old Sayers Rd, Elgin, TX 78621",30.252769,-97.350853,,858,,
P4011 - 1800 Old Sayers Rd,BCO,Bastrop County,"1800 Old Sayers Rd, Elgin, TX 78621",30.233141,-97.329559,,859,,
P4012 -  Marlin Rd. / Paint Creek,BCO,Bastrop County,"299 Marlin Rd, McDade, TX 78650",30.29125,-97.223778,,860,,
Marlin St,BCO,Bastrop County,"755 Marlin St, McDade, TX 78650",30.297279,-97.197731,,861,,
P4014 - Paint Creek Rd,BCO,Bastrop County,"1084 Paint Creek Rd, Paige, TX 78659",30.280331,-97.161926,,862,,
Stockade Ranch Rd,BCO,Bastrop County,"1300 Stockade Ranch Rd, Paige, TX 78659",30.287149,-97.15789,,863,,
P4016 - 270 Stockade Ranch Rd,BCO,Bastrop County,"270 Stockade Ranch Rd, Paige, TX 78659",30.22871,-97.119392,,864,,
P4017 - Longhorn Trail,BCO,Bastrop County,"181 Longhorn Trail, Paige, TX 78659",30.259159,-97.114113,,865,,
P4018 - Longhorn Trail ,BCO,Bastrop County,"292 Longhorn Trail, Paige, TX 78659",30.26951,-97.11808,,866,,
P4019 - Lee County Rd.,BCO,Bastrop County,"214 Lee County Rd, Paige, TX 78659",30.270861,-97.107979,,867,,
P4020 - Edgewood Trail,BCO,Bastrop County,"290 Edgewood Trail, Paige, TX 78659",30.246771,-97.099297,,868,,
P4021 - Lincoln Lake Rd,BCO,Bastrop County,"209 Lincoln Lake Rd, Paige, TX 78659",30.23698,-97.08577,,869,Crossing is open but very muddy,Convert to Caution status
COB1001 - Riverwood Drive,BCO,Bastrop County,"217 Riverwood Drive, Bastrop, TX 78602",30.120541,-97.32901,0.2 Miles West of Carter,870,,
COB1002 - Fishermans Park Willow St,BCO,Bastrop County,"1473 Willow St, Bastrop, TX 78602",30.11484,-97.325172,Willow and Cedar going to Fishermans Park,871,,
COB1003 - Fishermans Park Farm Street,BCO,Bastrop County,"500 Farm St, Bastrop, TX 78602",30.11261,-97.321907,Farm St near Wilson going to Fishermans Park,872,,
COB1004 - Fishermans Park Boat Ramp Area,BCO,Bastrop County,"1200 Willow St, Bastrop, TX 78602",30.111919,-97.325073,Fishermans Park Boat Ramp Area,873,,
COE1001 - Hwy 290 and 1880 County Line Road,BCO,Bastrop County,"18800 Highway 290 E, Elgin, TX 78621",30.352619,-97.411682,,874,Road may flood rapidly,Convert to Caution status
COE1002 - Hwy 290 at 800 Martin Luther King Blvd,BCO,Bastrop County,"800 Martin Luther King Blvd, Elgin, TX 78621",30.33559,-97.362091,,875,,
COE1003 - \Q.S. Goins Ln.,BCO,Bastrop County,"100 Q.S. Goins Ln, Elgin, TX 78621",30.3528,-97.361588,,876,,
COE1004 - N Avenue C,BCO,Bastrop County,"907 N Avenue C, Elgin, TX 78621",30.352461,-97.37722,,877,,
COE1005 - West Brenham St in the 600 block,BCO,Bastrop County,"600 West Brenham St, Elgin, TX 78621",30.342939,-97.376389,,878,Road may flood rapidly,Convert to Caution status
COS1001 - Old Upton Rd & Uptown Dr,BCO,Bastrop County,"1501 Pecan Shores Dr, Smithville, TX 78957",30.01469,-97.170128,,879,,
COS1002 - Loop 230 River Bridge Boat Ramp,BCO,Bastrop County,"569 TX-230 TX Loop, Smithville, TX 78957",30.01755,-97.160187,,880,,
COS1003 - The drive at Riverbend Park,BCO,Bastrop County,"107 TX-71, Smithville, TX 78957",30.01865,-97.145233,,881,,
COS1004 - Loop Around at Riverbend Park Under 71,BCO,Bastrop County,"Riverbend Park @ TX-71, Smithville, TX 78957",30.017929,-97.148682,,882,,
P4022 Arbuckle at the Bridge,BCO,Bastrop County,"145 Arbuckle Rd, Elgin, TX 78621",30.287445,-97.381363,,886,,
TX1001 Park Road 1C at Alum Creek,BCO,Bastrop County,"Park Road 1C at Alum Creek, Smithville, TX 78957",30.096329,-97.220116,Buescher State Park,888,,
P4023 - Raccoon Rd Crossing,BCO,Bastrop County,"130 Raccoon Rd, Elgin, TX 78621",30.366083,-97.307426,100 Yard of Old Lexington Rd,891,,
COB1005 Jasper and MLK,BCO,Bastrop County,"300 Martin Luther King Dr, Bastrop, TX 78602",30.103134,-97.311081,,894,,
WCID1001 - Kokomo,BCO,Bastrop County,"100 Kokomo, Bastrop, TX 78602",30.090548,-97.327065,,895,,
TX1003 - FM 535 / AJ Rod Road,BCO,Bastrop County,"100 AJ Rod Road, Smithville, TX 78957",29.972275,-97.197372,,899,,
TX1004 - FM 153 @ Park Rd 1C,BCO,Bastrop County,"187 Park Rd 1C, Smithville, TC 78957",30.038132,-97.15831,Buescher State Park,905,,
P2026 - Kovar Rd,BCO,Bastrop County," 400 Kovar Rd, Smithville, TX 78957",29.936741,-97.220016,South of Vyvjalla,906,,
TX1005 - 1600 FM 2104,BCO,Bastrop County,"1600 FM 2104, Paige, TX 78659",30.14747,-97.078934,,907,,
P2027 - Hector Rd / Gravelly Creek,BCO,Bastrop County,"300 Hector Rd, Smithville, TX 78957",30.057676,-97.090775,,908,,
P2028 - 400 Old Lake Rd,BCO,Bastrop County,"400 Old Lake Rd, Smithville, TX 78957",29.98201,-97.134331,,909,,
Farris Ln,BCO,Bastrop County,"300 Farris Ln, Smithville, TX 78957",29.988424,-97.283272,,910,,
P2030 - Pine Valley Loop ,BCO,Bastrop County,"789 Pine Valley Loop, Smithville, TX 78957",29.960033,-97.315735,at Foster Lake Overflow,911,,
P2033 - Serbin Rd,BCO,Bastrop County,"400 Serbin Rd, Smithville, TX 78957",30.064812,-97.03701, at Long Prarie Branch Creek,914,,
COS1005 - Woodress St,BCO,Bastrop County,"1900 Woodress St, Smithville, TX 78757",29.995094,-97.134933,,915,,
TX1019 - FM 535 @ Watterson Road,BCO,Bastrop County,"3299 FM 535, Red Rock, TX 78662",29.97106,-97.384438,,916,,
P2034 - Barton Creek at Zapalac Rd,BCO,Bastrop County,"500 Zapalac Rd, Smithville, TX 78957",29.945227,-97.14534,,917,,
P2035 - Karisch Rd at Pin Oak Creek,BCO,Bastrop County,"100 Karisch Rd, Smithville, TX 78957",30.028528,-97.068565,,918,,
P4024 - Pleasant Grove RV Park & Camp,BCO,Bastrop County,"568 Pleasant Grove Rd, Elgin, TX 78621",30.383915,-97.327621,,927,,
COE1006 - Kennedy,BCO,Bastrop County,"200 Kennedy St, Elgin, TX 78621",30.343157,-97.375458,,928,,
COE1007 - East 1st @ Avenue G,BCO,Bastrop County,"408 E 1st St, Elgin, TX 78621",30.349821,-97.366875,,929,,
TX1006 - FM 3000,BCO,Bastrop County,"100 Mundine Rd, Elgin, TX 78621",30.362949,-97.32119,,930,,?? can 930 & 931 be meged?
P4025 - Mundine Road,BCO,Bastrop County,"124 Mundine Rd, Elgin, TX 78621",30.361727,-97.320808,,931,,?? can 930 & 931 be meged?
P4026 - Pleasant Grove Loop off FM 3000,BCO,Bastrop County,"Pleasant Grove Loop at FM 3000, Elgin, TX 78621",30.363451,-97.32061,,933,,
TX1007 - FM 696 @ Big Sandy Creek,BCO,Bastrop County,"300 FM 696 Elgin, TX 78621",30.321651,-97.290596,,935,,
P4027 - McDade Road @ Big Sandy Creek,BCO,Bastrop County,"138 McDade Rd, Elgin, TX 78621",30.312466,-97.291664,,938,,
P4028 - Lower Elgin Rd @ Wilbarger Creek,BCO,Bastrop County,"1100 Lower Elgin Rd, Elgin, TX 78621",30.222675,-97.409508,,941,,
P4029 - Upper Elgin River Rd @ Willbarger Creek,BCO,Bastrop County,"2000 Upper Elgin River Rd, Elgin, TX 78621",30.281666,-97.441185,South gates,942,,
P2036 -Gonzales St @ Hwy 21 W,BCO,Bastrop County,"200 Gonzales St, Paige, TX 78659",30.217197,-97.113991,,944,,
P2037 - N Main @ Hwy 21 W,BCO,Bastrop County,"200 Main St, Paige, TX 78659",30.217411,-97.112526,,945,,
TX1008 - RR Bridge @ Hwy 21 W,BCO,Bastrop County,"2600 TX-21, Paige, TX 78659",30.216251,-97.12513,,946,,
TX1009 - Hwy 21 near Orts Lane,BCO,Bastrop County,"Orts Lane & TX-21, Paige, TX 78659",30.22744,-97.084602,,948,,
P2039 - August-Anna Rd @ Hwy 21,BCO,Bastrop County,"158 August-Anna Rd, Paige, TX 78659",30.227921,-97.074516,,950,,
TX1010 - FM 2104 @ Turner Creek,BCO,Bastrop County,"300 FM 2104, Paige, TX 78659",30.189865,-97.098907,,951,Road is open but damaged,
P2040 - Old Pin Oak @ Long Branch,BCO,Bastrop County,"843 Old Pin Oak Rd, Paige, TX 78659",30.165682,-97.131683,,952,,
P2041 - 200 Lois Ln,BCO,Bastrop County,"200 Lois Ln, Paige, TX 78659",30.164679,-97.139793,,953,,
P2042 - 200 Kinsey,BCO,Bastrop County,"200 Kinsey, Paige, TX 78659",30.161934,-97.191849,,954,,
P4030 - Littig near Central Ave,BCO,Bastrop County,"101 LIttig Rd, Elgin, TX 78621",30.342543,-97.390938,,956,,
P4031 - Pleasant Grove at Roemer Rd,BCO,Bastrop County,"600 Roemer Rd, Elgin, TX 78621",30.373798,-97.334602,,957,,
P4032- Old McDade at Pistol Hill Ln,BCO,Bastrop County,"914 Old McDade Rd, Elgin, TX 78621",30.343025,-97.356964,,958,,
COE1008 - Old McDade at East Alamo,BCO,Bastrop County,"601 Old McDade Rd, Elgin, TX 78621",30.345583,-97.362442,,959,,
TX1011 - US 290 @ FM 1704,BCO,Bastrop County,"800 FM 1704, Elgin, TX 78621",30.33629,-97.366959,,960,,
COE1009 - Monterrey @ Monterrey Cove,BCO,Bastrop County,"200 Monterrey Cove, Elgin, TX 78621",30.335878,-97.370682,,961,,
P2043 - 200 Blk Frerich Rd near Nink Rd,BCO,Bastrop County,"200 Frerich Rd, Smithville, TX 78957",30.133135,-97.098808,,964,,
P2044 - 200 Mustang Dr,BCO,Bastrop County,"200 Mustang Dr, Paige, TX 78659",30.151155,-97.203239,at Alum Creek,965,,
P4033 - 500 Mundine Road,BCO,Bastrop County,"500 Mundine Rd, Elgin, TX 78621",30.346506,-97.291496,,967,,
P2045 - Antioch @ Rabbs Creek,BCO,Bastrop County,"1300 Co Rd 153, Paige, TX 78659",30.174931,-97.139549,,968,,
TX1012 - 2104 @ Old Pin Oak Creek,BCO,Bastrop County,"FM2104 and Circle Rd, Smithville, TX 78957",30.081264,-97.087181,,969,Road is open but damaged,
TX1013 - FM 812 @ County Line,BCO,Bastrop County,"16112 FM812, Del Valle, TX 78617",30.102629,-97.60965,,1020,,
P4034 - 2100 Blk Upper Elgin River Rd,BCO,Bastrop County," 2100 Upper Elgin River Rd, Elgin, TX 78621",30.227066,-97.461067,,1023,,
TX1018 - FM 1704 @ Youngs Prairie,BCO,Bastrop County,"1856 FM 1704, Elgin, TX 78621",30.289129,-97.396027,,1026,,
P4035 - 30070 N. County Line Rd.,BCO,Bastrop County,"30070 County Line Rd, Elgin, TX, 78621",30.418858,-97.369957,,1034,,
P2055 - 200 blk Hofferek Rd,BCO,Bastrop County,"200 Hofferek Rd, Rosanky, TX 78953",29.91787,-97.313454,,1054,,
P2047 - 500 Blk St. Delight Rd,BCO,Bastrop County,"500 St. Delight Rd, Paige, TX 78659",30.178963,-97.110825,,1072,,
TX1014 - Hwy 535 East of Meduna,BCO,Bastrop County,"FM 535 East and Meduna Rd, Smithville, TX 78957",29.934404,-97.258881,East of Meduna,1087,,
P2048 - 300 Block of Pine Valley,BCO,Bastrop County,"300 Pine Valley Loop, Smithville, TX 78957",29.949093,-97.308968,FM 270,1099,,
P4036 - Comanche Trl @ FM 969,BCO,Bastrop County,"171 Co Rd 127, Elgin, TX 78621",30.226383,-97.464035,just N of FM 969,1100,,
P2049 - 100 Blk Kellar Rd,BCO,Bastrop County,"100 Kellar Rd, Smithville, TX 78957",30.051336,-97.188866,,1102,,
TX1015 - 1704 Bridge at Wilbarger Creek,BCO,Bastrop County,"2900 FM 1704, Elgin, TX 78621",30.232073,-97.432655,,1153,,
TX1017 - FM 2571 @ Wolf Creek,BCO,Bastrop County,"FM 2571 and Rutherford Ln, Smithville, TX 78957",30.020525,-97.220116,just W of Rutherford Ln,1165,Roadway open but damaged,
Easley Rd @ Little Piney Creek ,BCO,Bastrop County,"300 Easley Rd, Smithville, TX 78957",29.963112,-97.279053,,1168,,
P2050 100 Blk Peace Haven Ln,BCO,Bastrop County,"100 Peace Haven Ln, Bastrop, TX, 78602",30.096045,-97.257645,,1170,Roadway is open but damaged,
P2052 - 480 Blk Kelley Rd E,BCO,Bastrop County,"480 Kelley Rd E, Bastrop, TX 78602",30.150024,-97.235573,,1172,,
P4037 - Paint Creek and Railroad Track Rd,BCO,Bastrop County,"Paint Creek S Rd and Railroad Track Rd, Paige, TX 78659",30.218374,-97.142967,,1173,,
P4038 - Lincoln Lake Subdivision,BCO,Bastrop County,"300 Lincoln Lake Rd, Paige, TX 78659",30.249611,-97.091125,,1174,,
P1017 - Shiloh Rd at S Fitzwilliams Ln,BCO,Bastrop County,"Shiloh Rd & S Fitzwilliams Ln, Bastrop, TX 78602",30.092052,-97.358566,,1177,Roadway is damaged,
P2054 - KLBJ Rd 65-278 Blk ,BCO,Bastrop County,"65 KLBJ Rd, Smithville, TX 78957",30.038326,-97.158798,Buescher State Park entrance,1188,,
P2055 - KLBJ Rd 65-278 Blk,BCO,Bastrop County,"240 KLBJ Rd, Smithville, TX 78957",30.041939,-97.16803,,1189,,
P2056 - Alum Creek Rd @ Gotier Trace,BCO,Bastrop County,"560 Alum Creek Rd, Smithville, TX 78957",30.099607,-97.220306,,1190,,
P2059 - Meduna Rd North of High Crossing Rd,BCO,Bastrop County,"142 Co Rd 306, Smithville, TX 78957",29.927925,-97.25,,1191,,
900 Blk of Nink Road,BCO,Bastrop County,"900 Nink Road, Smithville, TX 78957",30.120358,-97.100548,,1197,,
P2060 - 1000 Blk Saint Delight Rd,BCO,Bastrop County,"1020 St Delight Rd, Paige, TX 78659",30.145144,-97.113388,,1200,Roadway is very rough,
P3063 Sand Hills @ Sandy Creek,BCO,Bastrop County,"1117 Co Rd 245, Rosanky, TX 78953",29.93049,-97.3787,,1339,,
TX1018 Park Road 1A @ Copperas Creek,BCO,Bastrop County,"Park Road 1A, Bastrop, TX 78602",30.100201,-97.272743,Bastrop State Park,1476,,
TX1020 Hwy 71 at Berdoll,BCO,Bastrop County,"2600 Hwy 71 W, Cedar Creek, TX 78612",30.166477,-97.511711,,1556,,
TX1021 1704 at 969,BCO,Bastrop County,"FM 969 & FM 1704, Elgin, TX 78621",30.211784,-97.445938,,1561,,
TX1022 1704 @ VFW,BCO,Bastrop County,"800 FM 1704 Elgin, TX 78621",30.335829,-97.367043,,1563,,
COE1010 Williams St,BCO,Bastrop County,"400 Williams St, Elgin, TX 78621",30.343109,-97.374283,,1565,,
TX1023 200 Blk Hwy 95,BCO,Bastrop County,"115 TX-95, Elgin, TX 78621",30.333887,-97.361771,,1569,,
P4040 Lower Elgin @ 969,BCO,Bastrop County,"1527 Co Rd 55, Elgin, TX 78621",30.196119,-97.42704,,1570,,
P3064 S Pope Bend @ Lois Ln,BCO,Bastrop County,"103 Lois Ln, Cedar Creek, TX 78612",30.135187,-97.478523,,1571,,
TX1024 1209 @ Bluebonnet Elem,BCO,Bastrop County,"458 FM1209, Bastrop, TX 78602",30.133759,-97.428055,,1574,,
TX1025 812 @ Hwy 21,BCO,Bastrop County,"15000 FM812, Del Valle, TX 78617",30.071671,-97.572433,,1576,,
TX1026 Hwy 21 @ Mt. Olive,BCO,Bastrop County,"141 TX-21, Bastrop, TX 78602",30.110399,-97.418625,,1577,,
P4041 Hillcrest off 969,BCO,Bastrop County,"126 Hillcrest Dr, Elgin, TX 78621",30.233458,-97.470131,,1580,,
TX1027 FM 535 at Maha Creek,BCO,Bastrop County,"5484 FM535, Cedar Creek, TX, 78612",30.079931,-97.498329,,1582,,
TX1028 812 @ Old San Antonio,BCO,Bastrop County,"1891 FM812, Dale, TX 78616",30.049198,-97.545784,,1587,,
P4042 Upper Elgin River Rd @ Old Austin Trl,BCO,Bastrop County,"100 Old Austin Trail, Elgin, TX 78621",30.242487,-97.45118,,1594,,
TX1029 290 @ Big Sandy Creek,BCO,Bastrop County,"US-290 Elgin, TX 78621",30.304695,-97.297005,,1597,,
TX1030 Hwy 21 West @ Maha,BCO,Bastrop County,"1219 TX-21 Cedar Creek, TX 78612",30.086143,-97.505463,,1607,,
TX1031 FM 969 @ Colorado River,BCO,Bastrop County,"1115 FM 969, Bastrop, TX 78602",30.16853,-97.403946,,1619,,
P1018 300 Block Reids Bend,BCO,Bastrop County,"300 Reids Bend, Bastrop, TX 78602",30.127987,-97.33046,,1634,,
P1019 Al Jones St,BCO,Bastrop County,"100 Al Jones St, Bastrop, TX 78602",30.120579,-97.332298,,1636,,
P1020 Lower Wood Ln,BCO,Bastrop County,"198 Lower Wood Ln, Bastrop, TX 78602",30.123716,-97.340408,,1637,,
P1021 Shoreline Drive,BCO,Bastrop County,"133 Shoreline Drive, Bastrop, TX 78602",30.11878,-97.335197,,1638,Debris in road,
Fagerquest/Wolf,BCO,Bastrop County,"8316 Wolf Ln, Del Valle, TX 78617",30.1322,-97.572929,,1639,,
P2051 170 Blk Cassel Way,BCO,Bastrop County,"170 Cassel Way, Bastrop, TX 78602",30.155321,-97.237305,,1787,CAUTION! Roadway washed out but passable,
Oak Hill Cemetery Rd West of Herron Tr,BCO,Bastrop County,"312 Oak Hill Cemetery Rd, Bastrop, TX 78602",30.222258,-97.263367,West of Herron Tr,1794,,
Herron Trail,BCO,Bastrop County,"616 Herron Trail, McDade, TX 78650",30.223463,-97.258026,,1795,,
391 Porter Road,BCO,Bastrop County,"391 Porter Road, Bastrop, TX 78602",30.158215,-97.259186,,1797,,
1100 Blk Lower Elgin Rd,BCO,Bastrop County,"1100 Lower Elgin Rd, Elgin, TX 78621",30.222834,-97.409477,,1806,,
Pine Valley Loop,BCO,Bastrop County,"192 Pine Valley Loop, Smithville, TX 78957",29.953863,-97.303185,,1807,,
East side of Tahitian Dr at Kaanapali,BCO,Bastrop County,"281 Kaanapali Ln, Bastrop, TX 78602",30.08843,-97.284248,,1808,,
500 Blk Lower Elgin Rd,BCO,Bastrop County,"500 Lower Elgin Rd, Elgin, TX 78621",30.277292,-97.398445,,1809,,
304 South of 535,BCO,Bastrop County,"3110 TX-304, Rosanky, TX 78953",29.931849,-97.310127,South of 535,1810,,
200 Blk FM 2571 ,BCO,Bastrop County,"200 FM 2571, Smithville, TX 78957",30.013432,-97.171227,,1812,Open but damaged,
800 Blk Stockade Ranch Rd,BCO,Bastrop County,"800 Stockade Ranch Rd, Paige, TX 78659",30.26141,-97.147392,,1814,,
Turkey Ridge Rd Riddle Rd,BCO,Bastrop County,"Turkey Ridge Rd & Riddle Rd, Cedar Creek, TX 78612",30.015995,-97.539978,,1815,,
1200 Blk Old McDade Rd,BCO,Bastrop County,"1200 Old McDade Rd, Elgin, TX 78621",30.334721,-97.329803,,1817,,
Old Pin Oak,BCO,Bastrop County,"650 Old Pin Oak Rd, Paige, TX 78659",30.176414,-97.131813,near Antioch Rd,1818,Debris on road removed,
100 Blk Winfield Thicket,BCO,Bastrop County,"100 Winfield Thicket Rd, Bastrop, TX 78602",30.053019,-97.242683,,1821,,
Paint Creek Bridge on Paint Creek Rd,BCO,Bastrop County,"679 Paint Creek Rd, McDade, TX 78650",30.277124,-97.187004,,1822,,
300 Community Center Road,BCO,Bastrop County,"300 Community Center Road, Rosanky, TX 78953",29.898951,-97.379982,,1823,,
Stockade Ranch Rd,BCO,Bastrop County,1300-1400 Stockade Ranch Rd,30.270452,-97.151466,,1834,,
P1028 Kolekokle Ln,BCO,Bastrop County,"1507 Kolekokle Ln, Bastrop, TX 78602",30.074764,-97.298325,Low water crossing,1835,,
P1029 Koele Ct,BCO,Bastrop County,"100 Koele Ct, Bastrop, TX 78602",30.087278,-97.322655,,1844,,
200 Blk Littig Rd,BCO,Bastrop County,"200 Littig Rd, Elgin, TX 78621",30.341646,-97.402588,,1846,,
P1030 Kamakoa Ln ,BCO,Bastrop County,"174 Kamakoa Ln, Bastrop, TX 78602",30.093925,-97.293259,,1847,,
200 Blk Lone Star Rd,BCO,Bastrop County,"200 Lone Star Rd, Bastrop, TX 78602",30.043024,-97.411018,,1848,,
100 Blk Big Bow,BCO,Bastrop County,"100 Big Bow, Smithville, TX 78957",30.044622,-97.092758,,1849,,
Gotier Trace at Alum Creek,BCO,Bastrop County,"455 Gotier Trace Rd, Smithville, TX 78957",30.104731,-97.213692,,1851,,
190 Pine Canyon Dr,BCO,Bastrop County,"190 Pine Canyon Dr, Smithville, TX 78957",29.956299,-97.31929,,1864,,
Wilbarger Creek Dr,BCO,Bastrop County,"203 Wilbarger Creek Dr, Elgin, TX 78621",30.227524,-97.416107,,1865,,
Longhorn Dr Culvert,BCO,Bastrop County,"140 Longhorn Dr, Bastrop, TX 78602",30.156879,-97.226059,,1875,,
Raven Rd,BCO,Bastrop County,"Raven Rd & Park Rd 1C, Smithville, TX 78957",30.074966,-97.182098,just outside NW corner of Buescher State Park,1877,,
Agget Rd,BCO,Bastrop County,"145 Agget Rd, Smithville, TX 78957",30.078941,-97.177376,,1878,,
200 Blk The Forest Rd,BCO,Bastrop County,"200 The Forest Rd, Dale, TX 78616",30.036097,-97.568375,,1921,,
200 Block FM 2239,BCO,Bastrop County,"200 FM2239 Smithville, TX 78957",30.137945,-97.067429,,1932,,
774 Old Sayers,BCO,Bastrop County,"774 Old Sayers Rd, Elgin, TX 78621",30.285519,-97.36776,,1937,,
FM 153 @ Karisch Rd,BCO,Bastrop County,"1371 FM 153, Smithville, TX 78957",30.028387,-97.071083,,1945,,
1300 Park Road 1C,BCO,Bastrop County,"1300 Park Road 1C, Smithville, TX 78957",30.083752,-97.182175,,1949,Road is washed out,
Woodland Ct.,BCO,Bastrop County,"101 Woodland Ct, Bastrop, TX 78602",30.079109,-97.268494,,1956,,
1060 FM 1441,BCO,Bastrop County,"1060 FM 1441, Bastrop, TX 78602",30.168653,-97.245819,,1964,,
Dry Willow at Old Austin Trail,BCO,Bastrop County,"Dry Willow Rd & Old Austin Trail, Elgin, TX 78621",30.240887,-97.447853,,1970,,
Pine Shadows Rd,BCO,Bastrop County,"100 Pine Shadows Ln, Bastrop, TX 78602",30.087967,-97.263367,,1973,,
160 Lakeside Drive ,BCO,Bastrop County,"160 Lakeside Drive, Bastrop, TX 78602",30.082396,-97.260963,,1980,,
Cattlemens between Shorthorn and Herford,BCO,Bastrop County,"224 Cattlemens Dr, Bastrop, TX 78602",30.163534,-97.232414,,1981,,
P1020 Aloha Ln,BCO,Bastrop County,"151 Aloha Ln, Bastrop, TX 78602",30.099625,-97.278473,,1985,Closed due to washout,
P1021 Kahalulu Dr,BCO,Bastrop County,"200 Kahalulu Dr, Bastrop, TX 78602",30.079685,-97.276222,,1986,Closed due to damage,
P1022 Upolu Ct,BCO,Bastrop County,"1500 Upolu Ct, Bastrop, TX 78602",30.090881,-97.282806,,1987,Closed due to damage,
P1023 Koae Ct,BCO,Bastrop County,"108 Koae Ct, Bastrop, TX 78602",30.083399,-97.292572,,1988,Closed due to damage,
P1024 Alele Dr,BCO,Bastrop County,"103 Alele Dr, Bastrop, TX 78602",30.087898,-97.280731,,1989,Road is closed due to washout,
P1026 - Pahalawe Ln,BCO,Bastrop County,"129 Pahalawe Ln, Bastrop, TX 78602",30.088188,-97.281349,,1991,Road is closed due to washout,
P1026 East Keamuku Ct,BCO,Bastrop County,"800 Keamuku Ct, Bastrop, TX 78602",30.092957,-97.28418,,1992,Road is closed due to washout,
P1027 Honopu Dr,BCO,Bastrop County,"150 Honopu Dr, Bastrop, TX 78602",30.095243,-97.279228,,1993,Road is closed due to washout,
Forest Ln,BCO,Bastrop County,"162 Forest Ln, Bastrop, TX 78602",30.093979,-97.257881,,1994,Road is damaged,
Pine Hill Loop,BCO,Bastrop County,"190 Pine Hill Loop, Bastrop, TX 78602",30.09848,-97.260101,,1995,Road is open but damaged,
Lisa Ln,BCO,Bastrop County,"180 Lisa Ln, Bastrop, TX 78602",30.144388,-97.252975,,1996,,
FM 1441 Betw Daisy Ln and Old Firetower TD,BCO,Bastrop County,"884 FM1441, Bastrop, TX 78602",30.174446,-97.260147,,1998,,
Park Road 1C Near Wilderness Ridge,BCO,Bastrop County,"855 Park Rd 1C, Smithville, TX 78957",30.094656,-97.211525,,1999,Road is temporarily repaired,
Riverside just East of Keanehalululu Ln,BCO,Bastrop County,"130 Riverside Dr, Bastrop, TX 78602",30.082581,-97.327705,just East of Keanehalululu Ln,2001,Road is closed due to washout,
Kaanapali at Tall Forest,BCO,Bastrop County,"454 Kaanapali Ln, Bastrop, TX 78602",30.086445,-97.270645,,2002,Road is closed due to repair,
300 Blk Sayers Rd,BCO,Bastrop County,"300 Sayers Rd, Bastrop, TX 78602",30.156507,-97.336166,,2003,,
650 Sayers Road,BCO,Bastrop County,"300 Sayers Rd, Bastrop, TX 78602",30.168179,-97.348183,,2004,,
Riverside West of Kaala,BCO,Bastrop County,"348 Riverside Dr, Bastrop, TX 78602",30.076395,-97.312096,,2009,Road is completely washed out,
260 Block of Joe Cole Ln,BCO,Bastrop County,"260 Joe Cole Ln, Smithville, TX 78957",29.964888,-97.145363,,2028,Road is closed due to washout,
200 Blk Jacobson Rd,BCO,Bastrop County,"200 Jacobson Rd, Del Valle, TX 78617",30.111088,-97.584259,,2064,,
290 @ County Line Rd,BCO,Bastrop County,"18800 US-290, Elgin, TX 78621",30.352276,-97.411942,,2081,,
East Austin @ RR Tracks,BCO,Bastrop County,"205 E Austin St, Elgin, TX 78621",30.346672,-97.368919,,2082,Roadway may flood rapidly,
TX1032 - Park Rd 1C @ Harmon Rd,BCO,Bastrop County,"300 Park Rd 1C, Smithville, TX 78957",30.109261,-97.249626,Buescher State Park entrance,2098,,
TX1033 Park Rd 1A @ Park Rd 1C,BCO,Bastrop County,"100 Park Rd 1A, Bastrop, TX, 78602",30.1129,-97.26786,Bastrop State Park,2099,,
TX1034 Park Rd 1C @ Park Rd 1E,BCO,Bastrop County,"2100 Park Rd 1C, Smithville, TX 78957",30.049189,-97.162743,Buescher State Park,2101,Roadway Closed around the entire Lake,
TX1035 Park Rd 1A @ refectory,BCO,Bastrop County,"100 Park Rd 1A, Bastrop, TX 78602",30.109131,-97.283119,Bastrop State Park entrance,2102,,
P3070 - Old San Antonio Rd @ Tributary in the 600 Blk,BCO,Bastrop County,"600 Old San Antonio Rd, Dale, TX 78616",30.027033,-97.584282,,2104,,
P2063 - Mark Young Rd @ Tributary,BCO,Bastrop County,"100 Mark Young Rd, Smithville, TX 78957",29.959169,-97.159309,,2107,Crossing is Open Pass with Caution,
P2064 - Mark Young Rd @ Tributary,BCO,Bastrop County,"200 Mark Young Rd, Smithville, TX 78957",29.9527,-97.159142,,2108,Crossing is Open Pass with Caution,
P2065 - Mark Young Rd,BCO,Bastrop County,"300 Mark Young Rd, Smithville, TX 78957",29.948175,-97.159027,,2109,Crossing is Open Pass with Caution,
P3071 - 3800 FM 535,BCO,Bastrop County,"3800 FM535, Cedar Creek, TX 78612",29.984707,-97.422379,,2110,,
COS1006 - SE Martin Luther King Dr,BCO,Bastrop County,"1000 SE Martin Luther King Dr, Smithville, TX 78957",30.000147,-97.152786,,2113,,
P2068 - Crafts Prairie Rd @ Mesa Pinto Dr,BCO,Bastrop County,"250 Crafts Prairie Rd, Bastrop, TX 78602",30.052687,-97.250786,,2114,,
P3072 - 300 FM 672,BCO,Bastrop County,"300 FM672 Dale, TX 78616",29.989796,-97.527908,,2115,,
P3073 - 500 FM 672,BCO,Bastrop County,"500 FM672 Dale, TX 78616",29.976933,-97.539192,,2116,,
P4045 - 2500 FM 1704 south of Woody Ln,BCO,Bastrop County,"2500 FM1704 Elgin, TX 78621",30.247625,-97.422241,,2131,,
P2069 - Powell Rd @ Tribuary West of Kellar Rd,BCO,Bastrop County,"5001 Powell Rd, Elgin, TX 78621",30.060041,-97.191025,,2144,,
P2074 - Big Bow (spillway) @ Indian Lake,BCO,Bastrop County,"300 Big Bow, Smithville, TX 78957",30.044922,-97.086548,,2151,,
P2075 - Circle Rd @ Pin Oak Creek,BCO,Bastrop County,"200 Circle Rd, Smithville, TX 78957",30.071442,-97.08223,,2152,,
Stockade Ranch Rd,BCO,Bastrop County,"2800 TX-21, Paige, TX 78659",30.217712,-97.114967,SH 21 to End of Road,2156,Road is flooded,
Lehman Ln,BCO,Bastrop County,"410 Lehman Ln, Bastrop, TX, 78602",30.012465,-97.415581,South of Humble Ln,2161,,
Lower Red Rock Rd,BCO,Bastrop County,"452 Humble Ln, Bastrop, TX 78602",30.007839,-97.406937,South of Humble Ln,2162,,
Post Oak Trl,BCO,Bastrop County,"203 Post Oak Trail, Cedar Creek, TX, 78612",30.104044,-97.550423,,2168,,
Turkey Ridge Rd,BCO,Bastrop County,"200 Turkey Ridge Rd, Cedar Creek, TX, 78612",30.015539,-97.537231,,2169,,
FM 812,BCO,Bastrop County,"100 Cam Del Sol, Del Valle, TX, 78617",30.093203,-97.597824,At Camino Del Sol,2170,,
Ponderosa Rd,BCO,Bastrop County,"120 Ponderosa Rd, Bastrop, TX, 78602",30.070633,-97.231033,,2172,,
Brody Ln,BCO,Bastrop County,"Brody Ln & Ponderosa Rd, Bastrop, TX, 78602",30.047083,-97.23764,,2173,Road is flooded,
Arbuckle Rd,BCO,Bastrop County,"145 Arbuckle Rd, Elgin, TX, 78621",30.286285,-97.379517,,2174,,
Whitehead St,BCO,Bastrop County,"144 Whitehead St, Smithville, TX 78957",30.002733,-97.148468,at NE 2nd St,2175,,
NE 1st St @ Marburger St,BCO,Bastrop County,"Marburger & NE 1st St, Smithville, TX 78957",30.001461,-97.147995,,2178,,
NE 6th St,BCO,Bastrop County,"Wilkes Cir & NE 6th St, Smithville, TX 78957",30.006235,-97.147057,Between Wilkes St and Whitehead St,2179,,
Faulkner Rd,BCO,Bastrop County,"1232 Faulkner Rd, Smithville, TX 78957",30.001434,-97.13916,At Oak Meadows Dr,2180,,
St Hwy 71,BCO,Bastrop County,"271 FM1209, Cedar Creek, TX, 78612",30.12224,-97.43293,East bound lane,2182,,
Sand Hiils Rd,BCO,Bastrop County,"300 Sand Hiils Rd, Red Rock, TX 78662",29.951818,-97.433235,,2184,"County Road is Open, Private 600 Blk Closed.",
Red Rock Ranch Rd,BCO,Bastrop County,"300 Red Rock Ranch Rd, Red Rock, TX 78662",29.917456,-97.406647,,2185,,
NE 8th St,BCO,Bastrop County,"800 Mills St, Smithville, TX 78957",30.010195,-97.151398,at Mills St,2187,,
FM 2104,BCO,Bastrop County,"369 FM 2104, Smithville, TX 78957",30.061934,-97.101898,,2188,,
Bateman Rd,BCO,Bastrop County,"Co Rd 265, Red Rock,TX 78662",29.934719,-97.458839,,2189,,
Jacobson Rd,BCO,Bastrop County,"16100 Jacobson Rd, Del Valle, TX 78617",30.123293,-97.598267,Maha Creek,2191,,
Cardinal Dr,BCO,Bastrop County,"627 Cardinal Dr, Paige, TX, 78659",30.187729,-97.208893,,2192,,
Pine St,BCO,Bastrop County,"1570 Pine St, Bastrop, TX 78602",30.10952,-97.309715,,2193,,
Hill St aka Dorothy Nichols Ln,BCO,Bastrop County,"1800 TX-230 Loop, Smithville, TX 78957",29.997864,-97.134712,at NE Loop 230,2195,,
Lamaloa Ln,BCO,Bastrop County,"380 Lamaloa Ln, Bastrop, TX 78602",30.090956,-97.318756,West of Rail Road,2196,,
Cleveland St,BCO,Bastrop County,"100 Cleveland St, Smithville, TX 78957",30.008085,-97.162231,Between 1st St and 2nd St,2197,,
NW 1st St,BCO,Bastrop County,"100 Gazley St, Smithville, TX 78957",30.00868,-97.16468,at Gazley St,2198,,
FM 969,BCO,Bastrop County,"1704 FM 969, Bastrop, TX 78602",30.200489,-97.434471,,2199,,
St Hwy 21,BCO,Bastrop County,"TX-21 & Co Rd 158, Paige, TX 78659",30.182495,-97.170166,West bound lanes,2200,,
FM 1704,BCO,Bastrop County,"2709 FM 1704, Elgin, TX, 78621",30.238482,-97.428207,,2201,,
S St Hwy 95,BCO,Bastrop County,"290 TX-95, Elgin, TX 78621",30.321922,-97.35791,Northbound Lane,2202,,
FM 535,BCO,Bastrop County,"2400 FM 535, Del Valle, TX 78617",29.93886,-97.321266,,2203,,
Shiloh Rd,BCO,Bastrop County,"250 Shiloh Rd, Bastrop, TX, 78602",30.092615,-97.367714,Between St Hwy 304 and FM 20,2204,,
Lone Star Rd,BCO,Bastrop County,"600 Lone Star Rd, Bastrop, TX, 78602",30.045609,-97.379707,,2205,,
McAllister Rd,BCO,Bastrop County,"339 McAllister Rd, Bastrop, TX 78602",30.076195,-97.262566,,2206,,
St Hwy 71,BCO,Bastrop County,"1981 Co Rd 427, Smithville, TX 78957",30.049154,-97.188927,West bound lanes at Kellar Rd,2207,,
FM 812,BCO,Bastrop County,"2200 FM812, Cedar Creek, TX 78612",30.069399,-97.569672,,2208,,
N Main St,BCO,Bastrop County,"2600 Main St, Bastrop, TX, 78602",30.131464,-97.320747,Bridge at Main St,2209,,
Old Sayers Rd,BCO,Bastrop County,"Old Sayers Rd & Smith Rd, Bastrop, TX 78602",30.152042,-97.329903,,2211,,
B J Mayes Rd,BCO,Bastrop County,"244 B J Mayes Rd, Bastrop, TX 78602",30.15362,-97.321091,,2212,,
FM 20,BCO,Bastrop County,"136 FM 20, Bastrop, TX 78602",30.109968,-97.373215,at TX-71,2213,,
FM 20,BCO,Bastrop County,"FM 20 & FM 535, Cedar Creek, TX 78612",30.004057,-97.43325,,2214,,
FM 20,BCO,Bastrop County,"1381 FM 20, Cedar Creek, TX 78612",30.028053,-97.426445,,2217,,
Jenkins Rd,BCO,Bastrop County,"200 Jenkins Rd, Cedar Creek, TX 78612",30.103542,-97.498566,,2220,,
Gotier Trace Rd,BCO,Bastrop County,"700 Gotier Trace Rd, Smithville, TX 78957",30.110912,-97.195282,,2223,,
Lower Red Rock Bridge @ SH-304 ,BCO,Bastrop County,"100 Lower Red Rock Rd, Bastrop, TX 78602",30.076603,-97.357605,,2224,,
462 Kelley Rd,BCO,Bastrop County,"462 Kelley Rd, Bastrop, TX 78602",30.150255,-97.235603,,2225,"Road is Open, Sink Hole repaired on one side of road",
Jones St,BCO,Bastrop County,"900 Jones St, Smithville, TX 78957",29.996708,-97.160217,,2226,,
Prim Rd,BCO,Bastrop County,"692 Old Lake Rd, Smithville, TX 78957",29.968996,-97.124237,"100 ft, from Old Lake Rd",2227,,
Hillcrest Dr,BCO,Bastrop County,"115 Hillcrest Dr, Bastrop, TX 78602",30.13723,-97.252853,,2228,,
Cardinal Dr,BCO,Bastrop County,"600 Cardinal Dr, Paige, TX 78659",30.178679,-97.218605,,2231,,
Riverwood Dr,BCO,Bastrop County,"111 Riverwood Dr, Bastrop, TX 78602",30.120583,-97.329819,,2232,,
FM 20,BCO,Bastrop County,"1300 FM-20, Cedar Creek, TX 78612",30.035187,-97.423286,,2233,,
Park Road 1C,BCO,Bastrop County,"Park Road 1C, Smithville, TX 78957",30.089668,-97.192421,"Bridge at Park Road 1C, TXDOT",2236,,
NE 7th St,BCO,Bastrop County,"NE 7th St & Whitehead St, Smithville, TX 78957",30.006868,-97.146088,,2239,,
Woodress St.,BCO,Bastrop County,"1500 Woodress St, Smithville, TX 78957",30.000746,-97.148308,,2266,,
Community Center Rd,BCO,Bastrop County,"200 Community Center Rd, Rosanky, TX 78953",29.886925,-97.35675,,2271,,
County Line Rd,BCO,Bastrop County,"300 Co Rd 299, Smithville, TX 78957",30.091393,-97.058067,,2285,,
Alum Creek East,BCO,Bastrop County,"135 Alum Creek E, Smithville, TX 78957",30.069551,-97.222382,Off SH 71,2289,,
FM 20 & Humble Ln,BCO,Bastrop County,"FM 20 & Humble Ln, Bastrop, TX 78602",30.021744,-97.428169,,2293,,
Pine Valley Loop,BCO,Bastrop County,"600 Pine Valley Loop, Smithville, TX 78957",29.959761,-97.322014,,2294,,
Norma Jean Blvd,BCO,Bastrop County,"200 Norma Jean Blvd, Smithville, TX 78957",30.045273,-97.18644,,2302,,
Old Sayers Rd,BCO,Bastrop County,"1750 Old Sayers Rd, Elgin, TX 78621",30.238274,-97.339493,,2305,,
Wolf Rd & Marlin St,BCO,Bastrop County,"100 Wolf Rd, McDade, TX 78650",30.297363,-97.205132,,2306,,
Wolf Rd & Knobbs Rd,BCO,Bastrop County,"400 Wolf Rd, McDade, TX 78650",30.31596,-97.224083,,2307,,
Easley Rd,BCO,Bastrop County,"500 Easley Rd, Smithville, TX 78957",29.952106,-97.291084,,2312,,
Easley Rd,BCO,Bastrop County,"200 Easley Rd, Smithville, TX 78957",29.983295,-97.275032,,2313,,
Maunalua Dr,BCO,Bastrop County,"100 Maunalua Dr, Bastrop, TX 78602",30.089396,-97.315506,,2316,,
Bateman Rd,BCO,Bastrop County,"800 Bateman Rd, Red Rock, TX 78662",29.923016,-97.441055,,2317,,
Martin Luther King @ Bunte St,BCO,Bastrop County,"MLK @ Bunte St, Smithville, TX 78957",29.99795,-97.147629,,2320,,
SE 2nd St @ Bunte,BCO,Bastrop County,"SE 2nd @ Bunte St, Smithville, TX 78957",29.998795,-97.147171,,2321,,
SE 1st St @ Bunte St,BCO,Bastrop County,"SE 1st St @ Bunte St, Smithville, TX 78957",29.999577,-97.146683,,2322,,
Martin Luther King @ Miller St,BCO,Bastrop County,"Martin Luther King Dr @ Miller St, Smithville, TX 78957",29.998751,-97.149483,,2323,,
2nd Ave @ Hickory St,BCO,Bastrop County,"102 2nd Ave, Smithville, TX, 78957",30.011484,-97.171509,,2324,,
TX1002 - FM 535 @ Watterson School Rd,BCO,Bastrop County,"3672 FM 535, Red Rock, TX 78662",29.97855,-97.414001,,2325,,
Marburger St between 5th & 6th,BCO,Bastrop County,"500 Marburger St, Smithville, TX, 78957",30.005213,-97.145821,,2326,,
Turney St @ 4th St,BCO,Bastrop County,"NE 4th St & Turney St, Smithville, TX 78957",30.005539,-97.150436,,2327,,
Byrne St @ 4th St,BCO,Bastrop County,"398 Byrne St, Smithville, TX, 78957",30.005022,-97.149529,,2328,,
Hill Rd @ SH 71,BCO,Bastrop County,"400 Hill Rd, Smithville, TX, 78957",30.005501,-97.134911,,2329,,
Crafts Prairie Rd,BCO,Bastrop County,"200 Crafts Prairie Rd, Smithville, TX 78957",30.052462,-97.247444,,2330,,
Akaloa Dr,BCO,Bastrop County,Akaloa Dr at Wahane Ln,30.08073,-97.290314,,2331,,
Blue Jay Rd,BCO,Bastrop County,100 blk Blue Jay Rd,30.006632,-97.563454,,2332,,
Karisch Rd,BCO,Bastrop County,300 blk Karish Rd,30.042641,-97.069099,,2333,,
Ponderosa Rd,BCO,Bastrop County,700 blk Ponderosa Rd,30.034109,-97.220215,,2334,,
Hidden Shores Rd,BCO,Bastrop County,"100 Hidden Shores Rd, Bastrop, TX 78602",30.025503,-97.198914,,2335,,
Hidden Shores Loop,BCO,Bastrop County,"100 Hidden Shores Loop, Smithville, TX 78957",30.043644,-97.200676,,2336,,
Post Oak Trl,BCO,Bastrop County,"109 Post Oak Trail, Cedar Creek, TX 78612",30.10821,-97.54258,Entire Road,2337,,
FM 2571,BCO,Bastrop County,"1200 FM 2571, Smithville, TX 78957",30.009134,-97.246002,TXDOT; Bend in Colorado River Area,2345,,
SH 71 Eastbound,BCO,Bastrop County,"300 TX-71, Smithville, TX 78957",29.997698,-97.129143,Eastbound,2357,,Do we need to combine crossing 2357 & crossing 2358?
E SH 71,BCO,Bastrop County,"300 TX-71, Smithville, TX 78957",29.994781,-97.128181,,2358,,
Lower Red Rock Rd,BCO,Bastrop County,"400 Lower Red Rock Rd, Bastrop, TX 78602",30.024183,-97.380119,,2359,,
Ott Lane,BCO,Bastrop County,"300-400 Ott Lane, Elgin, TX 78621",29.862024,-97.393967,,2361,,
Circle Rd,BCO,Bastrop County,"Pin Oak Circle & Pin Oak Circle, Elgin, TX 78621",30.073074,-97.08194,,2378,,
West Ridge Dr,BCO,Bastrop County,"100 West Ridge Dr, Cedar Creek, TX 78612",30.100183,-97.437729,,2379,,
FM 2571,BCO,Bastrop County,"FM 2571 Smithville, TX 78957",30.020102,-97.215591,"3.5 miles west of St Hwy 95, just east of Rutherford Ln",2382,Road is closed due to damage,
Reids Bend @ Sink Hole,BCO,Bastrop County,"180-350 Reids Bend, Bastrop, TX 78602",30.128698,-97.335648,,2384,Reids Bend is Closed Between Smith Rd & Carter St,
Foothill Rd,BCO,Bastrop County,"202-261 Foothill Rd, Bastrop, TX 78602",30.187031,-97.294701,,2385,Road Opened - Temporarily,