communityId,legacyId,name,humanAddress,latitude,longitude,description
9001,118,Big Sandy @ Long Hollow,"22700 Big Sandy Drive, Leander, tx",30.570244,-97.948425,
9001,192,CR 273 at Mason Creek,"Leander, TX",30.576651,-97.845581,
9001,193,Ridgmar Road at Brushy Creek,"Leander, TX",30.583527,-97.812286,Northern entrance to Ridgmar Landing subdivision
9001,194,RM 2243 at Brushy Creek,"Leander, TX",30.582233,-97.841347,RM 2243 at Brushy Creek
9001,195,Broade Way at Brushy Creek,"Leander, TX",30.579414,-97.858871,Broade Way at Brushy Creek
9001,196,High Lonesome Street at Brown Hollow Creek,"Leander, TX",30.547123,-97.901329,
9001,197,CR 177 at Brushy Creek,"Leander, TX",30.57383,-97.789864,
9001,198,Maplecreek Drive at Brushy Creek (Devine Lake Park Entrance),"Leander, TX",30.579679,-97.882156,Devine Lake Park
9001,716,Barton Springs Road,2000 W Barton Springs Road ,30.264969,-97.764992,
9001,920,Ramp from NB 183 to MoPac,Ramp from NB 183 to MoPac,30.378557,-97.738068,
9001,1097,Old San Antonio @ 1626,Old San Antonio @ 1626,30.142878,-97.801559,
9001,1143,River Rd at Loma Vista,River Rd at Loma Vista,29.993029,-98.100533,
9001,1169,Convict Hill near Latta,Convict Hill near Latta,30.217197,-97.850754,
9001,1437,Journey Parkway,2900 Journey Parkway,30.561832,-97.797203,
9001,1550,Hero Way and CR 270,Hero Way and CR 270,30.589802,-97.830788,
9001,1573,Union Street,1730 Union St.,30.558001,-97.841156,
9003,121,2400 Sumac Lane,"Cedar Park, TX",30.537243,-97.841324,
9003,122,2348 Cypress Lane,"Cedar Park, TX",30.537674,-97.840584,
9003,123,2402 Peach Tree Lane,"Cedar Park, TX",30.538385,-97.839897,
9003,170,805 Cedar Park Drive,"Cedar Park, TX",30.511259,-97.835342,
9003,716,Barton Springs Road,2000 W Barton Springs Road ,30.264969,-97.764992,
9003,920,Ramp from NB 183 to MoPac,Ramp from NB 183 to MoPac,30.378557,-97.738068,
9003,1097,Old San Antonio @ 1626,Old San Antonio @ 1626,30.142878,-97.801559,
9003,1143,River Rd at Loma Vista,River Rd at Loma Vista,29.993029,-98.100533,
9003,1169,Convict Hill near Latta,Convict Hill near Latta,30.217197,-97.850754,
9004,202,Nash St W @ Lake Creek Trib,"Round Rock, TX",30.503847,-97.679184,
9004,203,A W Grimes Blvd (NB) @ Brushy Creek,"Round Rock, TX",30.513983,-97.655251,
9004,204,Chisholm Trail Rd @ Brushy Creek,"Round Rock, TX",30.513075,-97.68943,
9004,205,Park Ln @ Lake Creek Park,"Round Rock, TX",30.50844,-97.669762,
9004,206,Summit St @ Brushy Creek/Memorial PARK,"Round Rock, TX",30.512756,-97.684502,
9004,207,Harrell Pkwy @ Old Settlers Park,"Round Rock, TX",30.529694,-97.633507,
9004,208,Old Bowman Rd @ Onion Branch Trib,"Round Rock, TX",30.524473,-97.683846,
9004,209,Greenlawn Blvd @ Dry Branch Trib,"Round Rock, TX",30.495581,-97.665146,
9004,210,Frontier Trail @ Lake Creek Trib,"Round Rock, TX",30.492105,-97.685608,
9004,211,Twin Ridge Pkwy @ Forest Creek Dr,"Round Rock, TX",30.518242,-97.601158,
9004,212,Burnet St S @ Lake Creek,"Round Rock, TX",30.506256,-97.674141,
9004,213,Oak Ridge Dr @ Lake Creek,"Round Rock, TX",30.497847,-97.703018,
9004,214,Round Rock West Dr @ Lake Creek,"Round Rock, TX",30.504223,-97.694565,
9004,215,Deep Wood Dr @ Lake Creek,"Round Rock, TX",30.501507,-97.698441,
9004,216,Kenny Fort Blvd under US 79 (N),"Round Rock, TX",30.523151,-97.640671,
9004,219,A W Grimes Blvd (SB) @ Brushy Creek,"Round Rock, TX",30.514009,-97.655548,
9004,220,Kenny Fort Blvd under US 79 (S),"Round Rock, TX",30.520712,-97.639351,
9004,716,Barton Springs Road,2000 W Barton Springs Road ,30.264969,-97.764992,
9004,920,Ramp from NB 183 to MoPac,Ramp from NB 183 to MoPac,30.378557,-97.738068,
9004,1097,Old San Antonio @ 1626,Old San Antonio @ 1626,30.142878,-97.801559,
9004,1143,River Rd at Loma Vista,River Rd at Loma Vista,29.993029,-98.100533,
9004,1169,Convict Hill near Latta,Convict Hill near Latta,30.217197,-97.850754,
9005,716,Barton Springs Road,2000 W Barton Springs Road ,30.264969,-97.764992,
9005,920,Ramp from NB 183 to MoPac,Ramp from NB 183 to MoPac,30.378557,-97.738068,
9005,1097,Old San Antonio @ 1626,Old San Antonio @ 1626,30.142878,-97.801559,
9005,1143,River Rd at Loma Vista,River Rd at Loma Vista,29.993029,-98.100533,
9005,1169,Convict Hill near Latta,Convict Hill near Latta,30.217197,-97.850754,
9005,1399,Redbud Trail East of Westlake Dr,96 Redbud Trail,30.291903,-97.79792,
9005,1400,Laurel Valley Rd at Westlake Dr,101 Laurel Valley Rd,30.291838,-97.799545,
9005,1401,Laurel Valley Rd West of Westlake Dr,106 Laurel Valley Rd,30.292801,-97.801224,
9005,1402,Laurel Valley Rd at Ledgeway St,400 Laurel Valley Rd,30.29388,-97.805611,
9005,1403,Laurel Valley Rd West of Double Fork Rd,607 Laurel Valley Rd,30.294653,-97.808762,
9005,1404,Laurel Valley Rd North of Yaupon Valley Rd,705 Laurel Valley Rd ,30.294134,-97.809998,
9005,1405,Yaupon Valley Rd at Allegro Ln,1200 Yaupon Valley Rd,30.296549,-97.817253,
9005,1406,Eanes Creek at Sundown Pkwy,1 Sundown Pkwy,30.289833,-97.820404,
9005,1407,Eanes Creek at Camp Craft Rd,301 Camp Craft Rd,30.280071,-97.811913,
9005,1408,Eanes Creek at Eanes School Rd,301 Eanes School Rd,30.281258,-97.812881,
9005,1409,Westlake Dr at Hull Cir,1506 Westlake Dr,30.296299,-97.794174,
9005,1410,Westlake Dr at Terrace Mountain Dr,1628 Westlake Dr.,30.300865,-97.796349,
9005,1411,Bee Creek at Westlake Dr.,1803 Westlake Dr.,30.302979,-97.795525,
9005,1412,Terrace Mountain Dr at Spurlock Valley,600 Terrace Mountain Dr,30.302811,-97.799545,
9005,1413,Spurlock Valley,605 Spurlock Valley,30.303293,-97.800575,
9005,1414,Bay West Blvd @ Dry Branch of Pecan Creek,403 Bay West Blvd,30.532116,-98.400703,
9005,1415,Broken Hills Dr West of Buffalo Peak Dr,100 Broken Hills Dr,30.54719,-98.407494,
9005,1416,Douglas Dr East of Apache Tears,3511 Douglas Dr,30.555742,-98.399536,
9005,1417,Hi Circle N @ Slickrock Creek,617 Hi Cir N,30.545195,-98.367409,
9005,1418,Hi Stirrup @ Slickrock Creek,810 Hi Stirrup,30.54207,-98.367561,
9005,1419,Hi Circle S @ Slickrock Creek,899 Hi Circle S,30.537415,-98.366119,
9005,1420,Hi Mesa @ Slickrock Creek,Hi Mesa West of Purple Sage,30.523552,-98.368713,
9005,1421,Apache Tears ,Apache Tears West of Black Hawk,30.554749,-98.409851,
9005,1422,Buntline Special @ Tiger Creek,Buntline Special South of Dew Drop,30.53941,-98.336769,
9005,1423,Dew Drop @ Tiger Creek,Dew Drop near Thanksgiving Mountain Rd,30.540316,-98.335136,
9005,1424,Thanksgiving Mountain Rd @ Tiger Creek Tributary,Thanksgiving Mountain Rd East of Range Rider,30.542349,-98.334618,
9005,1425,Dew Drop @ Tiger Creek (W),Dew Drop South of Pinkerton Loop,30.538282,-98.340546,
9005,1426,Mountain Dew Rd @ Tiger Creek,3705 Mountain Dew Rd,30.534346,-98.329834,
9005,1427,Pronghorn @ Tiger Creek,Pronghorn @ 11th St.,30.532995,-98.330391,
9006,405,1400 Blk Nature Heights Dr,"Between US-281 & Commerce St., Marble Falls,",30.599077,-98.268562,
9006,406,1200 Blk Mission Hill Dr.,"Between Bluebonnet Dr & Ave K, Marble Falls, T",30.582359,-98.275215,
9006,407,1700 Blk Broadway St Bridge,"Between Ave. S & Ave. Q, Marble Falls, TX",30.581682,-98.284653,
9006,408,2100 Blk Broadway St,"Between Ave. U & Industrial Blvd., Marble Fall",30.583336,-98.288109,
9006,409,1300 Blk Broadway St,"Between Ave L & Ave N, Marble Falls, TX",30.57856,-98.278419,
9006,410,800 Blk Ave J,"Between Broadway St., & Ninth St., Marble Fall",30.577234,-98.275375,
9006,411,800 Blk Main St.,"Between Broadway St. & Ninth St., Marble Falls",30.576857,-98.274132,
9006,412,1500 Blk 2nd St,"Between Ave. P & Ave. N., Marble Falls, TX",30.574352,-98.284576,
9006,413,800 Blk Lake Shore Dr.,"Between Edyth St. & Trinity St., Marble Falls,",30.562025,-98.283867,
9006,414,1100 Blk Yett St.,"Between Ave. J & Ave. L, Marble Falls, TX",30.570227,-98.281143,
9006,416,800 Blk Ave L,"Between Broadway St. & Ninth St., Marble Falls",30.578644,-98.277336,
9006,417,100 Blk S Avenue S Bridge,Between Johnson St. & Granite Mountain Trl.,30.573744,-98.290871,
9006,418,100 Blk S Ave N (Huber),"Between Backbone St. & 1st St., Marble Falls, ",30.570494,-98.286026,
9006,419,300 Blk Avenue S,Between 3rd St. & 4th St.,30.577681,-98.288307,
9006,420,1100 Blk 3rd St Bridge,Between Ave. L & Ave. K,30.572729,-98.27932,
9006,421,1700 Blk US Highway 281 Bridge,Between Marble Hts. & Latana Dr.,30.588221,-98.273964,
9006,422,1300 Blk RM - 1431 Bridge,Between Bluebonnet Dr. & Ave. K,30.580851,-98.278038,
9006,423,800 Blk Hwy 281 Bridge,Between Broadway St. & 9th St.,30.576721,-98.27343,
9006,424,900 Blk RM - 1431 Bridge,Between Main St. & Ave. H,30.578403,-98.272041,
9006,425,700 Blk 12th St Bridge,Between Ave. G & Main St.,30.579365,-98.270065,
9006,426,1200 Blk Arbor Ln.,Between Arbor Ln. & Lacy Dr.,30.587086,-98.282784,Not a Public Road
9006,427,Johnson Park Bridge,Between S Yett St. & Johnson St.,30.568752,-98.280884,
9006,428,1100 Blk 2nd St Bridge,Between Ave. J & Ave. L,30.572062,-98.279953,
9006,429,1100 Blk 4th St Bridge,Between Ave. K & Ave. M,30.57453,-98.280518,
9006,430,900 Blk Avenue H,Between Broadway St. & RM -1431,30.577091,-98.272057,
9006,431,1500 Blk Resource Pkwy,Between US Highway 281 & W Innovation Loop,30.616772,-98.264015,
9006,432,1900 Blk RM - 1431 Bridge,Between Ave.Q & Ave. U,30.584019,-98.284515,
9006,433,2000 Blk 4th St,Between Ave. T & Ave. S,30.578768,-98.289345,
9006,434,2000 Blk 5th St,Between Ave. S & Ave. T,30.579531,-98.287811,
9006,435,400 - 700 Blk Avenue T,Between 4th St. & 7th St.,30.580151,-98.288147,
9006,436,2000 Blk 7th St.,Between Ave. U & Ave. T,30.581942,-98.287689,
9006,437,800 Blk Ave U,Between 7th St. & Broadway St.,30.582624,-98.288437,
9006,668,2600 Blk Commerce St,Commerce St & Trade St,30.597076,-98.26857,
9006,670,900 Blk Colorado St,"Colorado St & S Ave J, Marble Falls, TX",30.565212,-98.283218,
9006,676,100 Blk Ave L,Between 1st St & 2nd St,30.572124,-98.282089,
9006,677,3700 Blk Mormon Mill Rd,Mormon Mill Rd & Cedar Ridge Rd,30.601788,-98.2519,
9006,679,Bluebonnet Dr & Lantana Dr,Bluebonnet Dr & Lantana Dr,30.588169,-98.274773,
9006,681,281 & 2nd St,"Hwy 281 & 2nd St, Marble Falls, TX",30.570263,-98.276291,
9006,716,Barton Springs Road,2000 W Barton Springs Road ,30.264969,-97.764992,
9006,920,Ramp from NB 183 to MoPac,Ramp from NB 183 to MoPac,30.378557,-97.738068,
9006,1097,Old San Antonio @ 1626,Old San Antonio @ 1626,30.142878,-97.801559,
9006,1107,1800 Blk 2nd St,Between Ave R & Ave S,30.576242,-98.288528,
9006,1143,River Rd at Loma Vista,River Rd at Loma Vista,29.993029,-98.100533,
9006,1169,Convict Hill near Latta,Convict Hill near Latta,30.217197,-97.850754,
9006,1780,Ave G & 11th St,"AVE G & 11TH ST; MARBLE FALLS, TX 78654",30.578327,-98.270241,
9007,113,Lone Oak Trail at Sunset Valley Trib,"Sunset Valley, TX",30.226772,-97.810463,
9007,114,Pillow Road at Sunset Valley Trib,"Sunset Valley, TX",30.225208,-97.809402,
9007,116,Reese Drive at Sunset Valley Trib,"Sunset Valley, TX",30.224424,-97.80732,
9007,275,Sunset Trail at Sunset Valley Trib,"Sunset Valley, TX",30.224474,-97.806259,
9008,2340,1000 blk Hutto Rd,"1000 Old Austin Hutto Rd, Pflugerville, TX 78660",30.444635,-97.606705,
9008,2341,1000 blk Immanuel Rd,"1000 Immanuel Rd, Pflugerville, TX, 78660",30.424711,-97.617149,
9008,2342,Mammoth Cave Blvd & N Cascades Ave,"N Cascades Ave & Mammoth Cave Blvd, Pflugerville, TX 78660",30.460487,-97.615211,
9008,2344,2200 blk Kelly Ln,"2200 Kelly Ln, Pflugerville, TX 78660",30.467777,-97.585007,
9008,2346,1700 blk E Pecan St,"4200 E Pecan St, Pflugerville, TX 78660",30.431669,-97.603508,
9008,2347,3600 blk E Pflugerville Pkwy,"5000 E Pflugerville Pkwy, Pflugerville, TX 78660",30.442114,-97.578987,
9008,2348,2500 blk E Pecan St,"2500 E Pecan St, Pflugerville, TX 78660",30.424891,-97.590706,
9008,2349,Immanuel Rd & E Pecan St,"Immanuel Rd & E Pecan St, Pflugerville, TX 78660",30.434956,-97.610466,
9008,2350,E Pecan St & Plumbago Dr,"E Pecan St & Plumbago Dr, Pflugerville, TX 78660",30.432678,-97.605682,
9008,2351,FM 685 & E Pflugerville Pkwy,"FM 685 & E Pflugerville Pkwy, Pflugerville, TX 78660",30.455914,-97.602081,
9008,2352,700 blk N Railroad Ave,"700 N Railroad Ave, Pflugerville, TX 78660",30.445145,-97.618156,
9008,2353,1400 blk Grand Avenue Pkwy,"1400 Grand Avenue Pkwy, Pflugerville, TX 78660",30.459835,-97.649223,
9008,2354,Kelly Ln & Vilamoura St,"Kelly Ln & Vilamoura St, Pflugerville, TX 78660",30.462919,-97.574684,
9008,2355,FM 685 & Pfennig Ln,"FM 685 & Pfennig Ln, Pflugerville, TX 78660",30.450813,-97.60495,
9008,2356,E Pfennig Ln & E Black Locust Dr,"Pfennig Ln & E Black Locust Dr, Pflugerville, TX 78660",30.454319,-97.622551,
9009,1,"Low Water Crossing #1, ","6019 Spicewood Springs, Austin, TX 78759",30.390406,-97.774994,
9009,2,Low Water Crossing #2,"6020 Spicewood Springs Rd, Austin, TX 78759",30.391405,-97.77845,
9009,3,Low Water Crossing #3,"6650 Spicewood Springs Rd, Austin, TX 78759",30.397104,-97.7789,
9009,4,Low Water Crossing #4,"6836 Spicewood Springs Rd, Austin, TX 78759",30.399363,-97.783081,
9009,5,Low Water Crossing #5,"7003 Spicewood Springs Rd Austin, TX 78759",30.404879,-97.788383,
9009,6,Low Water Crossing #6,"7748 Spicewood Springs Rd, Austin, TX 78759",30.416759,-97.795227,
9009,7,Low Water Crossing #7,"7882 Spicewood Springs Rd, Austin, TX 78759",30.420071,-97.793816,
9009,8,Low Water Crossing #10,"6700 Lakewood Dr, Austin, TX 78731",30.366344,-97.787018,
9009,9,Low Water Crossing #11,"5328 Old Spicewood Springs Rd Austin, TX 78731",30.383081,-97.768349,
9009,10,Low Water Crossing #12,"5352 Old Spicewood Springs Rd, Austin, TX 78731",30.382622,-97.76973,
9009,11,Low Water Crossing #13,"5450 Old Spicewood Springs Road, Austin TX 78731",30.382612,-97.77037,
9009,12,Low Water Crossing #20,"6765 Old Bee Caves Rd, Austin, TX 78735",30.235039,-97.871414,
9009,13,Low Water Crossing #21,"6334 Joe Tanner Ln, Austin, TX 78749",30.234055,-97.857742,
9009,14,Low Water Crossing #22,"5003 Wasson Rd, Austin, TX 78745",30.210482,-97.771172,
9009,15,Low Water Crossing #30,"3523 McNeil Dr, Austin, TX 78727",30.433285,-97.701256,
9009,16,Low Water Crossing #31,"12400 Waters Park Rd, Austin, TX 78759",30.418852,-97.707306,
9009,17,Low Water Crossing #32,"3144 Adelphi Ln, Austin, TX 78727",30.419043,-97.710564,
9009,18,Low Water Crossing #33,"12218 Waters Park Rd, Austin, TX 78758",30.415836,-97.709892,
9009,19,Low Water Crossing #34,"2809 Oneal Lane, Austin, TX 78759",30.418734,-97.706612,
9009,20,Low Water Crossing #40,"10131 Old San Antonio Rd, Austin, TX 78748",30.153522,-97.795372,
9009,21,Low Water Crossing #41,"10131 David Moore Dr, Austin, TX 78748",30.164919,-97.813972,
9009,22,Low Water Crossing #50,"12784 Cameron Rd, Austin, TX 78754",30.36647,-97.615974,
9009,23,Low Water Crossing #51,"12275 Cameron Rd, Austin, TX 78754",30.365187,-97.620033,
9009,24,Low Water Crossing #60,"2326 River Hills Rd, Austin, TX 78733",30.340532,-97.850266,
9009,25,Low Water Crossing #61,"2219 River Hills Road, Austin, TX 78733",30.339327,-97.84993,
9009,26,Low Water Crossing #70,"3101 Delwau, Austin, TX 78725",30.262674,-97.66848,
9009,27,Low Water Crossing #80,"2573 Hoeke Ln, Austin, TX 78744",30.213947,-97.68866,
9009,28,Low Water Crossing #81,"7819 Posten Ln, Austin, TX 78744",30.214373,-97.687706,
9009,29,Low Water Crossing #82,"7001 Colton-Bluff Springs Road, Austin, TX 78744",30.159782,-97.736015,
9009,30,Woodview Mobile Home Park,"1301 W Oltorf St, Austin, TX 78704",30.244511,-97.769783,
9009,31,Circle C Park,"6301 W Slaughter Ln, Austin, TX 78739",30.201567,-97.886627,
9009,32,Jimmy Clay Golf Course,"5400 Jimmy Clay Dr, Austin, TX 78744",30.189495,-97.73278,
9009,33,Bull Creek Park,"7900 N Capital of Texas Hwy, Austin, TX 78750",30.378298,-97.778931,
9009,34,Brodie Lane and Graybuck Road,"10076 Brodie Lane, Austin, TX 78748",30.18185,-97.850922,
9009,35,Johnny Morris & MLK Blvd,"5802-5100 Johnny Morris Rd, Austin, TX 78724",30.284103,-97.652611,
9009,36,Hemphill at W 32nd,"301 W 32nd St, Austin, TX 78705",30.297943,-97.738976,
9009,37,Williamson Creek at Jones Road,"2400 Jones Rd, Austin TX 78745",30.223421,-97.799438,
9009,38,Williamson Creek (Kincheon Branch) at Latta Dr,"7000 Latta Dr, Austin, TX 78749",30.216385,-97.846275,near MoPac frontage road
9009,39,South Boggy Creek at Dittmar,"W Dittmar Rd, Austin, TX 78748",30.183256,-97.783516,West of South Congress Ave
9009,40,Shoal Creek at Lamar,"910 N Lamar Blvd, Austin, TX 78703",30.274645,-97.752441,"Downtown, near Shoal Creek Saloon"
9009,41,Waller at 8th Street,"715 E 8th St, Austin, TX 78701",30.268042,-97.735733,
9009,120,Slaughter Creek Trail,"9925 FM 1826, Austin, TX 78737",30.209352,-97.903442,
9009,666,Loyola at 183,"5470 Loyola Ln, Austin, TX 78723",30.30271,-97.661308,
9009,667,3700-4500 block of Manor Rd.,"3918 Manor Rd, Austin, TX 78723",30.289951,-97.693581,
9009,669,1124 Rutland Drive,"1124 Rutland Drive, Austin, TX 78758",30.369398,-97.703384,
9009,671,W 9th St and N Lamar Blvd,"998 W 9th St, Austin, TX 78703",30.273918,-97.752777,
9009,672,805 Payton Gin Rd,"805 Payton Gin Rd, Austin, TX 78753",30.358139,-97.701157,
9009,673,Mopac at Steck,"7500 N Mopac Expy, Austin, TX 78757",30.367212,-97.742874,
9009,674,6600 Silvermine Drive,"6600 Silvermine Drive, Austin, TX 78735",30.247019,-97.888397,
9009,680,Westgate Blvd @ Williamson Creek,"5407 West Gate Blvd, Austin, TX 78745",30.221277,-97.804886,
9009,682,Old San Antonio Rd @ I-35,"9900 S IH 35 Frontage Rd, Austin, TX 78748",30.154083,-97.79261,
9009,692,Manchaca Rd & Jones Rd,"Manchaca Rd & Jones Rd Austin, TX 78745 ",30.220797,-97.794067,
9009,693,11900 Brodie Lane,"11900 Brodie Lane, Austin, TX 78748",30.169113,-97.859795,
9009,695,Frate Barker & Brodie,"2746 Frate Barker Road, Austin, TX 78748",30.148464,-97.854881,at Brodie Ln
9009,698,9100 W State Highway 71,"9100 W State Highway 71, Austin, TX 78736",30.257412,-97.90461,
9009,699,Pedernales Canyon Trail,"25008 Pedernales Canyon Trail, Spicewood, TX 78669",30.369465,-98.086914,Low water crossing at Canyon Ranch Trail S
9009,700,Convict Hill & Brush Country,"7211-7191 Brush Country Rd. Austin, TX 78749",30.216908,-97.845901,near Mopac underpass
9009,702,3700 Wyldwood Road,"3700 Wyldwood Road, Austin TX 78739",30.175661,-97.85804,
9009,711,6900 Pleasant Valley,"6900 Pleasant Valley, Austin, TX 78744",30.176132,-97.749519,
9009,716,Barton Springs Road,"2000 W Barton Springs Road, Austin, TX 78704",30.264969,-97.764992,
9009,920,Ramp from NB 183 to MoPac,"MoPac Expy & US-183 & N Mopac Expy, Austin, TX 78759",30.378557,-97.738068,Ramp from NB 183 to MoPac
9009,1097,Old San Antonio @ 1626,"11198 Old San Antonio Rd., Austin, TX 78748",30.142878,-97.801559,
9009,1143,River Rd at Loma Vista,"600 River Rd, Wimberley, TX 78676",29.993029,-98.100533,
9009,1169,Convict Hill near Latta,"4900 Convict Hill Rd, Austin, TX 78749",30.217197,-97.850754,
9009,1359,MLK @ Clifford,"2915 Martin Luther King Jr Blvd, Austin, TX 78702",30.281923,-97.707939,
9009,1360,Berkman @ 290,"6700 Berkman Dr, Austin, TX 78723",30.320995,-97.688995,
9009,1361,Red River @ 12th,"500 E 12th St, Austin, TX 78701",30.272472,-97.735596,
9009,1362,10291 FM 969,"10291 FM 969, Austin, TX 78724",30.264412,-97.623116,
9009,1363,Cameron Rd & Corona Dr,"5515 Cameron Rd, Austin TX 78723",30.313068,-97.705025,
9009,1370,Rosewood @ Hargrave,"2365 Rosewood Ave, Austin TX 78702",30.27099,-97.711288,
9009,1632,East William Cannon & Pleasant Valley,"6450 S Pleasant Valley Rd, Austin, TX 78744",30.181608,-97.746414,
9009,1633,Pleasant Valley & Quicksilver Dr,"7298 S Pleasant Valley Rd, Austin, TX 78744",30.172297,-97.752357,
9010,42,Bitting School Rd. @ Wilbarger Creek,"Travis County, TX",30.309078,-97.452927,
9010,43,Cameron Rd @ Schmidt Ln / Wilbarger Creek,"Travis County, TX",30.404383,-97.54335,
9010,44,Jesse Bohls Rd @ Tributary to Wilbarger Creek,"Travis County, TX",30.433605,-97.558022,
9010,45,Cadillac Dr near FM 969,"Travis County, TX",30.248285,-97.579292,
9010,46,County Line Rd @ South of 290E,"Travis County, TX",30.34866,-97.414215,
9010,47,Lockwood Rd East of Parsons Rd,"Travis County, TX",30.308081,-97.514938,
9010,48,Felder Ln @ Cottonwood Creek,"Travis County, TX",30.444187,-97.465218,
9010,49,Brita Olson Rd @ Tributary to Cottonwood Creek,"Travis County, TX",30.417759,-97.482452,
9010,50,Jacobson Rd @ Cottonwood Creek,"Travis County, TX",30.391279,-97.480118,
9010,51,Johnson Rd west of Bois D,"Travis County, TX",30.380987,-97.510139,
9010,52,Old Kimbro Rd @ Cottonwood Creek,"Travis County, TX",30.356644,-97.487617,
9010,53,Littig Rd @ Cottonwood Creek,"Travis County, TX",30.323795,-97.471222,
9010,54,Hogeye Rd East of Blake-Manor Rd,"Travis County, TX",30.293049,-97.513618,
9010,55,Albert Voelker Rd @ Dry Creek,"Travis County, TX",30.335573,-97.440056,
9010,56,Littig Rd @ Dry Creek,"Travis County, TX",30.321613,-97.456795,
9010,57,Gregg Ln @ Wilbarger Creek,"Travis County, TX",30.381243,-97.540504,
9010,58,Jones Rd @Wilbarger Creek,"Travis County, TX",30.320063,-97.479576,
9010,59,Springdale Rd @ Walnut Creek,"Travis County, TX",30.33741,-97.650215,
9010,60,Springdale Rd @ Ferguson Branch (Creek),"Travis County, TX",30.331684,-97.653687,
9010,62,Littig Rd @ Willow Creek,"Travis County, TX",30.323267,-97.462334,
9010,63,Carlson Rd @ Dry Creek,"Travis County, TX",30.390736,-97.41053,
9010,64,Crystal Bend @ Harris Branch (Creek),"Travis County, TX",30.40691,-97.634727,
9010,65,Taylor Ln near Decker Lake Rd,"Travis County, TX",30.262096,-97.551872,
9010,66,Killingsworth Rd east of Immanuel Rd,"Travis County, TX",30.417175,-97.615417,
9010,67,Immanuel Rd north of Killingsworth Rd,"Travis County, TX",30.420252,-97.619942,
9010,68,Old San Antonio Rd @ Onion Creek,"Travis County, TX",30.133249,-97.810425,
9010,69,Bee Creek Rd @ Bee Creek,"Travis County, TX",30.354773,-98.040054,
9010,70,Crumley Ranch Rd @ Rocky Creek,"Travis County, TX",30.266903,-98.021423,
9010,71,Great Divide @ Little Barton Creek,"Travis County, TX",30.30521,-97.957802,
9010,72,Tumbleweed Trl @ Tributary to Lake Austin,"Travis County, TX",30.324345,-97.871216,
9010,73,Westlake Dr b/w Woodcutter,"Travis County, TX",30.327383,-97.782799,
9010,74,Wild Basin Ledge @ Tributary to Bee Creek,"Travis County, TX",30.308975,-97.806282,
9010,75,Lime Creek Rd @ Fisher Hollow (Creek),"Travis County, TX",30.481779,-97.894073,
9010,76,Fitzhugh Rd @ Barton Creek,"Travis County, TX",30.242487,-98.011162,
9010,77,Fall Creek Rd @ Tributary to Fall Creek,"Travis County, TX",30.419184,-98.127342,
9010,78,Flint Rock Rd @ Tributary to Hurst Creek,"Travis County, TX",30.3307,-97.997841,
9010,79,Pedernales Canyon Trl @ Lick Creek,"Travis County, TX",30.36941,-98.088783,
9010,80,Hamilton Pool @ Pedernales River,"Travis County, TX",30.34001,-98.138939,
9010,81,Ledgestone Terr @ Tributary to Pen Creek,"Travis County, TX",30.223341,-97.92926,
9010,82,Flintrock Circle @ Tributary to Pen Creek,"Travis County, TX",30.223345,-97.92411,
9010,85,Williamson Creek Dr @ Williamson Creek,"Travis County, TX",30.246428,-97.915123,
9010,86,Pitter Pat Ln @ Williamson Creek,"Travis County, TX",30.245514,-97.91362,
9010,87,Mowinkle Dr @ Williamson Creek,"Travis County, TX",30.242262,-97.90667,
9010,88,Big Sandy Dr @ Long Hollow,"Travis County, TX",30.570286,-97.948364,
9010,89,Juniper Trl @ Long Hollow (Creek),"Travis County, TX",30.581793,-97.967262,
9010,90,Cottonwood Dr @ Long Hollow (Creek),"Travis County, TX",30.58387,-97.971863,
9010,91,Live Oak Dr @ Long Hollow (Creek),"Travis County, TX",30.585136,-97.967941,
9010,92,Nameless Rd @ Nameless Hollow (Creek),"Travis County, TX",30.526802,-97.928017,
9010,93,Round Mountain Rd @ Bingham Creek,"Travis County, TX",30.580051,-97.945068,
9010,94,Slaughter Creek Dr @ Tributary to Slaughter Creek,"Travis County, TX",30.166294,-97.82132,
9010,95,Jacobson Rd b/w Alpine Dr & Linden Rd,"Travis County, TX",30.132555,-97.609001,
9010,96,Linden Rd @ Maha Creek,"Travis County, TX",30.133886,-97.58886,
9010,97,Citation Dr (Thoroughbred Farms subdiv) between Man-O-War Ave and Ponder Ln,"Travis County, TX",30.135599,-97.676346,
9010,98,Pearce Ln near FM 973,"Travis County, TX",30.177479,-97.640076,
9010,99,Turnersville Rd @ Maha Creek,"Travis County, TX",30.076216,-97.737938,
9010,100,9500-blk Blocker Ln ,"Travis County, TX",30.11253,-97.671249,
9010,101,Rodriguez Rd @ Dry Creek,"Travis County, TX",30.118946,-97.710732,
9010,102,Doyle-Overton Rd @ Eilers Rd,"Travis County, TX",30.078949,-97.640572,
9010,103,Peterson Rd @ Tributary to Maha Creek,"Travis County, TX",30.105795,-97.627808,
9010,104,Navarro Creek Rd @ Navarro Creek,"Travis County, TX",30.167467,-97.592514,
9010,105,14500-blk Plover Pl,"Travis County, TX",30.127525,-97.617798,
9010,106,Wright Rd @ Tributary to Maha Creek,"Travis County, TX",30.080608,-97.754387,
9010,107,Colton Rd @ Cottonmouth Creek,"Travis County, TX",30.173513,-97.689194,
9010,108,Williamson Rd NW of Elm Grove Rd,"Travis County, TX",30.048407,-97.723503,
9010,109,Williamson Rd SE of Elm Grove Rd,"Travis County, TX",30.027739,-97.701485,
9010,110,Laws Rd b/w US 183 & Evelyn Rd,"Travis County, TX",30.062107,-97.681305,
9010,111,Tom Sassman Rd @ Maha Creek,"Travis County, TX",30.084892,-97.701904,
9010,112,Doyle Rd @ Tributary to Maha Creek,"Travis County, TX",30.094563,-97.620811,
9010,675,3400 Fritz Hughes Park Rd @ Hummingbird Ln,"Travis County, TX",30.382242,-97.912277,
9010,689,4500 Steiner Ranch Blvd,"Travis County,TX",30.383169,-97.879669,
9010,715,Von Quintus Rd @ Sunflower Rd,"Travis County, TX",30.104755,-97.676826,
9010,716,Barton Springs Road,2000 W Barton Springs Road ,30.264969,-97.764992,
9010,717,Wells School Rd @ Wells Ln,"Travis County, TX",30.392813,-97.453362,
9010,885,20700 Cameron Rd,"Travis County, TX",30.457598,-97.492355,
9010,920,Ramp from NB 183 to MoPac,Ramp from NB 183 to MoPac,30.378557,-97.738068,
9010,921,2900-blk Bee Caves Rd,"Travis County, TX",30.270645,-97.791901,
9010,922,5400-blk Steiner Ranch Blvd,"Travis County, TX",30.393028,-97.87027,
9010,923,12500-blk FM 812 @ COTA,"Travis County, TX",30.132597,-97.648224,
9010,924,9000-blk FM 973 @ Gilleland Creek,"Travis County, TX",30.294378,-97.570221,
9010,932,Lund Carlson Rd @ Werchan Ln,"Travis County, TX",30.419123,-97.427597,
9010,934,Shadowglen Blvd @ Shadow Glen Trce,"Travis County, TX",30.35758,-97.547478,
9010,949,Melody Ln @ Belafonte Blvd,"Travis County, TX",30.256123,-97.57164,
9010,962,Tower Rd @ Suncrest Rd,"Travis County, TX",30.368069,-97.528809,
9010,963,7000-blk Blake Manor Rd,"Travis County, TX",30.282986,-97.516068,
9010,1011,Manda Carlson Rd @ New Sweden Church Rd,"Travis County, TX",30.39826,-97.471161,
9010,1013,Hogeye Rd @ Bitting School Rd,"Travis County, TX",30.291861,-97.465523,
9010,1019,15900-blk Fuchs Grove Rd @ Cameron Rd,"Travis County, TX",30.400818,-97.545616,
9010,1025,6800-blk Wolf Ln,"Travis County, TX",30.158638,-97.55629,
9010,1036,Burleson Manor Rd @ FM 969,"Travis County, TX",30.254326,-97.532005,
9010,1038,16600-blk Decker Lake Rd,"Travis County, TX",30.259037,-97.559418,
9010,1039,Jacobson Rd @ Elroy Rd,"Travis County, TX",30.137329,-97.618683,
9010,1042,Slaughter Creek Trail @ Fm 1826,"Travis County, Tx ",30.209475,-97.903458,
9010,1097,Old San Antonio @ 1626,Old San Antonio @ 1626,30.142878,-97.801559,
9010,1112,Camp Craft Rd at West bank Dr ," Travis County, TX ",30.276579,-97.815819,
9010,1127,11900-Blk Old San Antonio Rd,"Travis County, TX ",30.134632,-97.809334,
9010,1129,3700-Blk Wyldwood Rd,"Travis County, TX ",32.62265,-94.835587,
9010,1130,5700-Blk Jesse Bohls Dr,"Travis County, TX",30.43634,-97.563698,
9010,1131,Cameron Rd @ Fuchs Grove Ln,"Travis County, TX",30.400906,-97.545593,
9010,1132,Cameron Rd @ Schmidt Ln,"Travis County, TX",30.407438,-97.541405,
9010,1133,7300-Blk Taylor Ln,"Travis County, TX",30.264381,-97.550438,
9010,1134,Taylor Ln @ Decker Lake Rd,"Travis County, TX",30.256798,-97.554733,
9010,1135,14400-Blk Kimbro West,"Travis County, TX",30.376925,-97.482803,
9010,1136,14900-Blk E US 290 HWY EB,"Travis County, TX",30.351034,-97.47982,
9010,1138,E US 290 EB @ Abrahamson Rd,"Travis County, TX",30.351313,-97.467377,
9010,1140,16300-Blk Littig Rd,"Travis County, TX",30.324608,-97.477806,
9010,1143,River Rd at Loma Vista,River Rd at Loma Vista,29.993029,-98.100533,
9010,1144,11800-Blk Jones Rd,"Travis County, TX",30.32259,-97.477959,
9010,1147,15300-Blk Bois D Arc Rd,"Travis County, TX",30.391319,-97.481369,
9010,1148,17300-Blk FM 969,"Travis County, TX",30.254087,-97.541321,
9010,1149,15300-blk Jacobson Rd,"Travis County, TX ",30.132109,-97.606773,
9010,1150,16600-blk Decker Lake Rd,"Travis County, TX ",30.258297,-97.556908,
9010,1151,8300-blk Linden Rd,"Travis County, TX",30.134829,-97.588615,
9010,1167,8500-blk FM 1826,"Travis County, TX ",30.210152,-97.902122,
9010,1169,Convict Hill near Latta,Convict Hill near Latta,30.217197,-97.850754,
9010,1356,7000-blk Daffan Ln,"Travis County, TX",30.320177,-97.627022,
9010,1357,7900-blk Daffan Ln,"Travis County, TX",30.31455,-97.620514,
9010,1358,8900-blk Decker Ln,"Travis County, TX",30.320089,-97.60939,
9010,1364,10600-blk Gregg Ln,"Travis County, TX",30.381409,-97.606178,
9010,1365,6900-blk N FM 973,"Travis County, TX",30.283392,-97.595169,
9010,1366,Blue Bluff @ Catherine,"Travis County, TX",30.2694,-97.616997,
9010,1367,Blue Bluff @ FM 969,"Travis County, TX",30.262726,-97.621246,
9010,1368,10200-blk FM 969,"Travis County, TX",30.264671,-97.623459,
9010,1371,10300-blk N FM 973,"Travis County, TX",30.301477,-97.565536,
9010,1372,N FM 973 @ Murchinson,"Travis County, TX",30.332191,-97.559921,
9010,1373,N FM 973 @ SH 130,"Travis County, TX",30.288204,-97.576569,
9010,1376,Fuchs Grove Rd @ Gregg Ln,"Travis County, TX",30.387609,-97.553474,
9010,1428,Edgegrove @ Bee Caves,"Travis County, TX",30.271288,-97.788307,
9010,1429,13400-blk FM 2769,"Travis County, TX",30.445993,-97.861382,
9010,1441,13200-blk FM 2769,"Travis County, TX",30.452543,-97.850914,
9010,1475,7400-blk Elroy Rd,"Travis County, TX",30.149193,-97.629898,
9010,1477,9200-blk N FM 973,"Travis County, TX",30.298935,-97.5672,
9010,1479,12800-blk Lexington,"Travis County, TX",30.34934,-97.555908,
9010,1488,R O Dr @ Bee Creek Rd,"Travis County, TX",30.368221,-98.038773,
9010,1501,2600-blk Frate Barker,"Travis County, TX ",30.14942,-97.85218,
9010,1514,6700-blk fm 1327,"Travis county,TX",30.090246,-97.724808,
9010,1517,6800-blk mc kinney Falls Pkwy,"Travis County, TX ",30.172237,-97.722099,
9010,1533,7800-blk Burleson rd,"Travis County, TX ",30.18886,-97.695152,
9010,1540,Us 183/SH 130,"Travis County, TX",30.056627,-97.690643,
9010,1544,10200-blk N 973,"Travis County, TX ",30.309437,-97.564491,
9010,1546,8700-blk Lockwood,"Travis County, TX",30.304361,-97.522331,
9010,1547,7100-blk Ross rd ,"Travis County, TX",30.169382,-97.633141,
9010,1562,Caldwell Ln @ River Timber Dr,"Travis County, TX",30.219641,-97.5354,
9010,1599,Brandt Rd @ Bluff Springs Rd,"Travis County, TX",30.171251,-97.768532,
9010,1606,Twin Creeks @ Arroyo Doble,"Travis County, TX",30.127005,-97.821754,
9010,1610,Dee Gabriel Collins Rd @ Cottonmouth School rd,"Travis County, TX",30.172562,-97.701195,
9010,1611,9800 S US 183,"Travis County, TX",30.107519,-97.694687,
9010,1612,11100-11500 Cow Creek,"Travis County, TX",30.589186,-98.062798,
9010,1613,fallwell @ sh 130,"Travis County, TX",30.209429,-97.621841,
9010,1614,SH 130 @ Pearce,"Travis County, TX",30.176794,-97.636894,
9010,1616,3000-blk Bee Cave Rd,"Travis County, TX",30.271036,-97.793686,
9010,1620,Wells Branch Pkwy @ Killingsworth Ln,"Travis County, TX",30.417486,-97.612885,
9010,1625,Old San Antonio Rd (South of Puryear),"Travis County, TX",30.111149,-97.811577,
9010,1626,Bluff Springs Rd @ Onion Creek,"Travis County, TX",30.159344,-97.769737,
9010,1643,12900-blk Wright Rd,"Travis County, TX",30.091007,-97.756691,
9010,1770,Gregg @ fm 973,"Travis County, TX ",30.375914,-97.529198,
9010,1790,Henry Marx @ Barton Creek ,"Travis County, TX ",30.27062,-97.887207,
9010,1791,Big Sandy @ Round Mountain ,"Travis County, TX ",30.571045,-97.947975,
9010,1793,FM 1826 @ Zyle ,"Travis County, TX ",30.198986,-97.92115,
9010,1804,FM 1826 @ Lewis Mountain ,"Travis County, TX",30.206848,-97.911179,
9010,1825,US 290 @ Red Elm Pkwy ,"Travis County, TX ",30.352812,-97.433807,
9010,1881,Low Water Crossing Rd @ Mansfield Dam,"Travis County, TX",30.388172,-97.913353,
9010,1897,Medina Vista Ln @ Big Sandy Creek,"Travis County, TX",30.504423,-97.911362,
9010,1901,Cameron Rd @ Cele Rd,"Travis County, TX",30.440065,-97.523453,
9010,1904,Ralph Ritchie Rd @ Low Water Xing,"Travis County, TX",30.361917,-97.530006,
9010,1907,Navarro Creek Rd @ SH 71,"Travis County, TX",30.189955,-97.58287,
9010,1920,Bois D'arc Rd @ Kimbro West Rd,"Travis County, TX",30.380096,-97.487968,
9010,1931,9400-blk FM 1625 Rd,"Travis County, TX ",30.125433,-97.712379,
9010,1933,FM 1625 @ Maha Creek,"Travis County, TX",30.085224,-97.735039,
9010,1934,US 183 @ South Dry Creek,"Travis County, TX",30.131126,-97.695877,
9010,1939, Elroy Rd @ Mcangus ,"Travis County, TX",30.167299,-97.659248,
9010,1940,Pearce Ln/Kellam Rd,"Travis County, TX",30.1637,-97.61113,
9010,1941,8000-Blk Elroy Rd,"Travis County, TX",30.141956,-97.616264,
9010,1942,Von Quintus Rd/Maha Loop Rd,"Travis County, TX",30.097244,-97.684654,
9010,1943,Tom Sassman Rd/ US 183,"Travis County, TX",30.088797,-97.69381,
9010,1944,Maha Rd/Schriber Rd,"Travis County, TX",30.082067,-97.666214,
9010,1955,Sh 71 @ Wolf Ln,"Travis County, TX ",30.182739,-97.541183,
9010,1959,11200 Maha Loop,"Travis County, TX",30.086826,-97.661751,
9010,1960,Coulver RD @ FM 1625,"Travis County, TX ",30.114235,-97.711555,
9010,1961,Burklund Farms Rd @ Moore RD,"Travis County, TX ",30.11388,-97.649673,
9010,1963,Coulver Rd @ Coulver Cove Crt,"Travis County, TX",30.117739,-97.727333,
9010,1966,Chalet Dr @ Swiss Dr,"Travis County, TX",30.132038,-97.611244,
9010,2035,FM 1826 @ Slaughter,"Travis County, TX",30.218309,-97.894333,
9010,2037,21200-blk Windmill Ranch Ave @ Steeds Xing,"Travis County, TX",30.490625,-97.571884,
9010,2047,17300-blk Carlson Ln,"Travis County, TX",30.383812,-97.419281,
9010,2051,7600blk Colton-Bluff Springs Rd,"Travis County, TX",30.155169,-97.720787,
9010,2058,Colton Bluff Springs Rd at S-curves,"Travis County, TX ",30.152683,-97.71347,
9010,2059,Yaupon Dr/Spicewood Springs Rd,"Travis County, TX ",30.3971,-97.7789,
9010,2060,Bee Creek Rd @ Ridgepole ,"Travis County, TX ",30.35696,-98.04052,
9010,2061,Briarcliff Dr @ Cargill Dr ,"Travis County, TX ",30.404793,-98.054512,
9010,2062,11500-blk W Sh 71,"Travis County, TX ",30.293596,-97.921837,
9010,2067,11500-blk FM 1826,"Travis County, TX",30.196056,-97.922485,
9010,2068,3400-blk Fritz Hughes Park Rd,"Travis County, TX ",30.382471,-97.912163,
9010,2069,12300-BLK HEWITT LN,"Travis County, TX ",30.143377,-97.846893,
9010,2071,4700-BLK WOLF LN,"Travis County, TX ",30.181479,-97.541977,
9010,2072,15600-BLK FM 969 RD,"Travis County, TX ",30.249035,-97.571014,
9010,2073,9700-BLK FM 969 RD,"Travis County, TX ",30.267378,-97.625854,
9010,2076,13340-blk Old Kimbro,"Travis County, TX ",30.353769,-97.498825,
9010,2106,Eanes Creek @ Camp Craft,"Travis County, TX ",30.280056,-97.811928,
9010,2164,200 S Lampasas,"Travis County, TX ",30.340311,-97.552498,
9010,2166,16000-blk Wells School,"Travis County, TX ",30.386951,-97.441307,
9010,2186,5400-blk Williamson Rd,"Travis County, TX",30.058571,-97.746819,
9010,2194,Eiler @ Maha Loop Rd,"Travis County, TX",30.091406,-97.655663,
9010,2210,Edgegrove Dr @ S Crest Dr,"Travis County, TX",30.272312,-97.789154,
9010,2222,Hokanson Rd @ Burklund Farms Rd,"Travis County, TX",30.11067,-97.650467,
9010,2318,13000-blk Ballerstedt,"Travis County, TX",30.349457,-97.460091,
9010,2319,12000-blk Felder Ln,"Travis County,TX",30.447392,-97.473145,
9011,706,Borchert Loop,"29.8694083,-97.73108611111111",29.869385,-97.731071,Clear Fork of Plum Creek
9011,707,Black Ankle,"29.8607278,-97.74115277777778",29.859383,-97.743263,
9011,708,Black Ankle ,"29.8479472,-97.743933333333333",29.852467,-97.750496,
9011,709,Old Kelly Road,"29.8820083,-97.63033055555555",29.882029,-97.630348,Plum Creek
9011,710,Cattlemans Row,"29.8566417,-97.58190833333333",29.855028,-97.578911,
9011,714,Railroad Street,"Railroad Street, Maxwell TX",29.879816,-97.788902,
9011,716,Barton Springs Road,2000 W Barton Springs Road ,30.264969,-97.764992,
9011,721,Southeast River Road,4100 Bk of Southeast River Road Martindale TX,29.822613,-97.821182,
9011,722,County Line Road,"1000 Bk County Line Road, Dale TX",30.016884,-97.600433,
9011,723,Long Road,"700 Bk Long Road, Lockhart, TX",29.829351,-97.740051,
9011,724,Oak Grove Road,"400 Bk Oak Grove Road, Luling, TX",29.756502,-97.649612,between South 183 & little Lane
9011,725,Salt Flat ,"Salt Flat Road, Luling, TX",29.756298,-97.600983,between FM Pumper & Soda Springs
9011,726,Salt Flat Road,"4000 Bk Salt Flat Road, Luling, TX",29.7239,-97.616135,between FM 1322 and Soda Springs
9011,727,Misty Lane,"Misty Lane, Maxwell TX",29.900843,-97.765717,
9011,729,Jolley Road,"1800 Bk Jolly Road, Lockhart, TX",29.897476,-97.758484,
9011,730,Polonia Road,"1000 Bk Polonia Road, Lockhart, TX",29.937742,-97.725182,Plum Creek
9011,731,Plant Road,"1200 Bk Plant Road, Luling, TX",29.740314,-97.72229,
9011,732,Plant Road,"Plant Road, Kingsbury, TX",29.716928,-97.753273,San Marcos River
9011,733,Holz Road,"2300 Bk Holtz Road, Lockhart, TX",29.969942,-97.727432,
9011,734,Tomahawk Trail,"1500 Bk Tomahawk Trail, Dale TX",30.034851,-97.644073,
9011,735,Tomahawk Trail,Off Hwy 1854,30.021996,-97.658257,
9011,736,Crooked Road,Off County Line Rd,30.002169,-97.577446,Near County Line
9011,739,Pettytown Road,"500 Bk Pettytown Road, Lockhart, TX Caldwell Count",29.903242,-97.546074,entire road
9011,740,Pettytown Road,"800 Bk Pettytown Road, Caldwell County",29.906052,-97.461082,entire road
9011,741,Pettytown Road,"2200 Bk Pettytown Road, Dale - Caldwell County",29.891262,-97.53479,entire road
9011,744,Rocky Road,"1500 Bk Rocky Road, Caldwell County",29.960852,-97.749817,at creek
9011,745,Creekside Drive,"Creekside Drive, Caldwell County",29.776285,-97.576118,
9011,746,Soda Springs Road,"Soda Springs Road, Caldwell County",29.718494,-97.613235,between Salt Flat and FM 1322
9011,887,Reavis Road,Near FM1322,29.82971,-97.662216,entire road
9011,889,Bugtussle Lane (CR115),Caldwell County,29.769598,-97.730354,
9011,890,Boggy Creek,"800 Bk Boggy Creek, Caldwell County",29.863838,-97.71611,
9011,892,Cistern Road,"Cistern Road, Caldwell County",29.882763,-97.764145,
9011,893,Clark Loop,"Clark Loop, Caldwell County",29.885496,-97.740112,
9011,898,Westwood Road (600 Bk),"Westwood Road, Caldwell County",29.814329,-97.694626,From Pin Oak road to pavement
9011,900,Political Road,"100 Bk Political Road, Caldwell County",29.796789,-97.746895,between Seals Creek & San Marcos Highway
9011,901,Austin Road,"1600 BK Austin Road, Caldwell County, TX",29.691584,-97.67971,at River Park intersection
9011,902,Seals Creek Road,"100 BK Seals Creek Road, Caldwell County TX",29.792377,-97.741592,between west FM 20 & political road
9011,903,Buck Branch Road,Buck Branch Rd,29.768726,-97.418816,Highway 304 to Bastrop County
9011,919,Kirk Corner,Low water bridge,29.724924,-97.45359,
9011,920,Ramp from NB 183 to MoPac,Ramp from NB 183 to MoPac,30.378557,-97.738068,
9011,1033,William Pettus Road,William Pettus near Tracks,29.87999,-97.827408,Off 1966
9011,1043,Old Colony Line Road,Old Colony Line Road,29.855839,-97.535477,between Thompson & Tumble weed
9011,1044,Bobwhite,Bobwhite,29.926085,-97.743202,
9011,1045,Mineral Springs Rd,Mineral Springs Rd,29.77664,-97.687584,S. Hwy 183 @ bridge
9011,1046,Washburn Rd,Washburn Rd,29.728392,-97.686104,
9011,1047,Longhollow Dr,Longhollow Dr,30.063047,-97.643532,400 Block
9011,1048,Dickerson Road,Dickerson Road,29.815166,-97.800499,between San Marcos Highway & Blackankle
9011,1049,Acorn Rd,Acorn Rd,29.785095,-97.730522,between west FM 20 & Sierra Drive
9011,1050,Cherryville Parkway,Cherryville Parkway,29.832033,-97.740112,
9011,1051,Rogers Ranch Road,Rogers Ranch Road,29.978737,-97.722588,between Schuelke & Holtz road
9011,1052,Taylorsville Road,Taylorsville Road,29.863132,-97.45385,
9011,1053,Payne Ln,Payne Ln,29.898817,-97.730827,
9011,1055,Barth Rd,Barth Rd,29.962645,-97.640068,
9011,1056,Scull Crossing,Scull Crossing,29.849546,-97.856781,
9011,1057,Sandy Fork Rd,Sandy Fork Rd,29.784872,-97.444473,
9011,1059,Young Lane,Wells Rd and Four Corners,29.821814,-97.58429,Young Ln at Plum Creek
9011,1060,Austin St ,Austin (CR 122),29.693615,-97.686813,Closed to Yellowstone
9011,1061,Fifth Street,Fifth Street,29.891319,-97.784233,from pavement to low water crosing
9011,1062,Lay Road,Lay Road,29.858965,-97.657928,entire road
9011,1063,Old McMahan Rd,Old McMahan @ Star Road,29.862389,-97.59523,
9011,1064,Rolling Ridge Rd,Rolling Ridge Rd,29.953789,-97.706573,At Polonia Intersection
9011,1065,Farmers Road,Farmers Road,29.918646,-97.7976,off FM 2720 at low water crossing
9011,1066,Valley Way Dr,Valley Way Dr,29.878147,-97.807579,Valley Way Dr from Church to RR Tracks
9011,1067,Biggs Road,Biggs Road,29.699467,-97.603905,FM 1322 & Salt Flat Road
9011,1068,FM 1322,FM 1322 near Plum Creek,29.677752,-97.602592,
9011,1069,FM 1322,FM 1322 at Rolling Oaks,29.748737,-97.592827,
9011,1070,Hwy 86,Hwy 86 at Plum Creek,29.791092,-97.578583,
9011,1071,FM 672,FM 672 at Plum Creek,29.896231,-97.65493,@ FM 1854
9011,1073,Ebbon Rd,Ebbon Rd at FM1322,29.739906,-97.588692,
9011,1079,Dale Lane,of FM 672,29.948521,-97.557838,to address 1748
9011,1080,Cottonwood Trail,228A,29.939159,-97.775963,entire road
9011,1081,Old Luling Road,CR 213,29.832401,-97.66375,at the low water crossing
9011,1082,Chalk Road,CR 152,29.750856,-97.439323,betwen Sandy Fork Road and Kirk Corners
9011,1083,River Park Road,CR 105,29.680948,-97.69194,Railroad Tracks / 90
9011,1090,McNeil Creek Road,CR 138,29.708897,-97.572426,
9011,1091,Hommannville Trail,CR 179,29.985748,-97.664207,
9011,1093,Fox Lane,CR 198,29.83283,-97.567802,at Lake Road
9011,1094,St Joseph Street,CR 247,29.728031,-97.753754,at San Marcos River
9011,1095,Stairtown Road,CR 119,29.714302,-97.732597,at San Marcos River
9011,1097,Old San Antonio @ 1626,Old San Antonio @ 1626,30.142878,-97.801559,
9011,1143,River Rd at Loma Vista,River Rd at Loma Vista,29.993029,-98.100533,
9011,1169,Convict Hill near Latta,Convict Hill near Latta,30.217197,-97.850754,
9011,1474,Dry Creek Road,Dry Creek Road,29.919506,-97.653114,Caldwell County
9011,1796,Oriole Loop,Caldwell County,29.798838,-97.406296,
9011,1798,Buck Branch,Caldwell County,29.756336,-97.406151,at Creek
9011,1799,Sandy Fork Rd,Caldwell County,29.769947,-97.421875,
9011,1853,Stueve Lane,City of Lockhart,29.891153,-97.690659,
9011,1854,Witter Road,Caldwell County,29.902445,-97.623901,at the tracks
9011,1855,Johnson Street,Martindale,29.839888,-97.845451,San Marcos River Crossing
9011,1856,North Pecos,City of Lockhart,29.891785,-97.679214,at Tank Street
9011,1857,Reed Creek Drive,Caldwell County,29.737156,-97.412186,entire road
9011,1882,Trinity Street near Hackberry,"1140 Hackberry, Luling",29.690315,-97.652695,
9011,1883,Hackberry Street (700 bk),Hackberry St. Luling,29.687967,-97.653038,
9011,1884,"Goliad Street, Luling","500 Bk Goliad Street, Luling",29.685747,-97.648643,
9011,1885,"Elm/Davis, Luling",Elm & Davis St. Luling,29.679951,-97.639435,
9011,1886,"Davis Street (FM1322) at City Limit, Luling",FM1322 - Luling city limit,29.676464,-97.625168,
9011,1887,"Davis at Mimosa St, Luling",Luling,29.682615,-97.662674,
9011,1888,"Laurel Street at Zedler Mill, Luling",Luling,29.667702,-97.65094,
9011,1889,"Club St at Bellaire St, Luling",Luling,29.666491,-97.647781,
9011,1890,"CR 105 near Hwy 90, Luling",Luling,29.670853,-97.698509,
9011,1891,Whisper Street at Plum Creek,Luling,29.657335,-97.601845,
9011,1892,"500 Bk Southern Way, Luling",Luling,29.653362,-97.604286,
9011,1893,"Trinity Street and Laurel, Luling",Luling,29.688078,-97.648315,
9011,1894,"E Fannin near Poppy, Luling",Luling,29.681723,-97.64122,
9011,1895,"HWY 183 at I-10, Luling",Luling,29.652784,-97.593147,
9011,1898,Medina Street,Lockhart,29.871357,-97.678406,Between Bowie and State Park Road
9011,1906,Guadalupe Street,Lockhart,29.872948,-97.673073,between Ross Circle and State Park Road
9011,1909,Pecos Street,Lockhart,29.891338,-97.679153,at Wasa
9011,1912,State Park Road at Main St,Lockhart,29.872213,-97.6698,
9011,1913,Sandholler Road (between Taylorsville Rd and Sandy Creek Rd,Caldwell County,29.929747,-97.558258,
9011,1935,FM1854 at Williamson Rd,Caldwell County,30.016268,-97.657799,
9011,1936,FM1854 at Hwy 21,Caldwell County,30.030464,-97.674385,
9011,1947,Bois D'Arc,400 Bois D'Arc,29.886465,-97.677353,at Nueces
9011,1948,Pancho/Blackjack,Pancho/Blackjack,29.87199,-97.661598,
9011,1950,Track Road,Track Road @ FM 20,29.928129,-97.524681,
9011,1952,12000 Old Lytton springs Road,12000 Old Lytton Springs Road,29.946407,-97.66098,
9011,1957,Rolling Ridge,Rolling Ridge @ Polonia,29.941591,-97.699348,
9011,1958,13700 Camino Real (FM21),13700 Camino Real (FM21),30.007318,-97.730713,
9011,1967,FM 713,FM 713 between Cattleman,29.856291,-97.574066,WEST BOUND LANE HAS WATER
9011,1971,FM3158,BTWN Old Colony Line Road and Tinney Creek,29.809471,-97.559753,
9011,2013,Old Fentress (Clear Fork),Old Fentress/SH130,29.857735,-97.708794,
9011,2030,FM 713/FM 3158,FM 713/FM 3158,29.852539,-97.519432,
9011,2031,HWY 304/Oriole Loop,HWY 304/Oriole Loop,29.800175,-97.402443,
9011,2033,FM 713/HWY 304,FM 713/HWY 304,29.827599,-97.395493,
9011,2036,Payne Lane/FM 2720,Payne Lane/FM 2720,29.899137,-97.727036,
9011,2038,Chalk Road/Sandy Fork,Chalk Road/Sandy Fork,29.761007,-97.422211,
9011,2039,William Pettus Rd,William Pettus/FM 1984,29.889111,-97.836472,
9011,2040,William Pettus,William Pettus/HWY 20,29.910315,-97.857544,From HWY 20 to FM 1984
9011,2043,Star Road,Caldwell County,29.864157,-97.60038,between Plum Creek and Old McMahan
9011,2045,Tenney Creek Road,Between Clear Creek Rd and Creekside Drive,29.800514,-97.561928,
9011,2046,Sparrow Trail,Caldwell County,29.795643,-97.561707,at Tenney Creek
9011,2084,Borchert Drive near SH130,Lockhart,29.879524,-97.711166,
9011,2085,Clearfork St (SH130),Lockhart,29.867617,-97.699493,
9011,2086,Sandy Pine Road,Between Turkey Hollow & Ivy Switch,29.666265,-97.567635,
9011,2096,Old Bastrop Hwy Bridge ,San Marcos River Crossing,29.857563,-97.897598,
9011,2117,Seawillow/FM1322,Seawillow/FM 1322,29.856279,-97.658287,
9011,2118,Highland Ranch/Seminole,Highland Ranch/Seminole,29.982824,-97.603363,
9011,2119,FM 1854/Highland Ranch Way,FM 1854/Highland Ranch Way,29.988958,-97.594673,
9011,2121,Barth Rd/FM 672,Barth Rd/FM 672,29.927589,-97.595444,
9011,2122,3810 Barth Rd,3810 Barth Rd,29.951242,-97.623451,
9011,2123,4623 Barth Rd,4623 Barth Rd,29.959068,-97.632721,
9011,2124,2920 Barth Rd,2920 Barth Rd,29.942057,-97.612572,
9011,2125,Birch St/Pecos St,Birch St/Pecos St,29.891497,-97.679192,
9011,2126,Crooked Rd/FM 1854,Crooked Rd/FM 1854,29.997915,-97.605148,
9011,2127,Birch St/FM 1984,Birch St/FM 1984,29.879375,-97.847015,
9011,2128,Birch St/Mill Rd,Birch St/Mill Rd,29.879452,-97.849808,
9011,2130,Carter Road,Carter Road @ St Johns Road ,29.972546,-97.559654,
9011,2132,Political Rd/HWY 80,Political Rd/HWY 80,29.770611,-97.781769,
9011,2133,St Johns Road,1000 Block St Johns Road,29.975542,-97.566338,1000 Block St Johns Road
9011,2134,Holz Rd - Dead End Section,Holz Rd,29.965618,-97.72699,
9011,2135,Sandholler Road ,Sandholler Road at Sandy Creek Road,29.941694,-97.527969,Sandholler Road at Sandy Creek Road 
9011,2136,Homann Road,Homann Road at Homannville Trail,29.986946,-97.665466,Homann Road at Homannville Trail
9011,2137,Homann Road,Homann Road at FM 1854,30.007574,-97.643227,Homann Road at FM 1854
9011,2138,800 Blk Chamberlin Rd,800 Chamberlin Rd,29.96269,-97.545647,
9011,2139,Fox Lane,Fox Lane off of FM 713,29.855801,-97.571159,Fox Lane off of FM 713
9011,2140,Long Rd/Spoke Hollow Rd,Long Rd/Spoke Hollow Rd,29.822056,-97.749535,
9011,2141,Long Rd/Black Ankle,Long Rd/Black Ankle,29.83511,-97.731094,
9011,2142,Lake Road/Fox Lane,Lake Road/Fox Lane,29.830133,-97.567726,
9011,2143,Plant Road at Bugtussle,100 blk Plant Rd,29.748299,-97.707298,
9011,2145,FM 2001 at Countyview,1000 Countyview Rd,29.910358,-97.725494,
9011,2146,Wells Rd - All of Roadway,Wells Rd,29.833914,-97.567871,
9011,2147,Taylorsville Rd at Turnback Trl,100 Turnback Trl,29.908163,-97.524178,
9011,2148,Wells Rd @ YOUNG LANE,Wells Rd/Young Ln,29.823265,-97.57637,
9011,2149,2300 Westwood Rd,2300 Westwood Rd,29.839497,-97.711815,
9011,2150,1300 Westwood Rd,1300 Westwood Rd,29.835905,-97.709343,
9011,2153,Old Colony Line Rd/Tumbleweed Trail,Old Colony Line Rd/Tumbleweed Trail,29.910875,-97.576111,
9011,2154,Black Ankle/Borchert Loop,Black Ankle/Borchert Loop,29.866226,-97.737404,
9011,2155,Black Ankle/Dickerson,Black Ankle/Dickerson,29.852432,-97.748184,
9011,2157,Sandy Fork Rd/FM 304,Sandy Fork Rd/FM 304,29.759251,-97.409401,
9011,2158,Bugtussle at 671,100 Bugtussle,29.747042,-97.705688,
9011,2159,Bugtussle at Acorn Rd,Bugtussle Rd,29.775755,-97.721375,
9011,2160,Sandy Fork Rd/Sandy Ranch Rd,Sandy Fork Rd/Sandy Ranch Rd,29.78838,-97.454163,
9011,2190,10450 State Park Rd,10450 State Park Rd,29.785631,-97.736984,
9011,2243,Ivy Switch/FM 1322,Ivy Switch/FM 1322,29.6824,-97.598999,
9011,2245,Whisper Rd at Arrow,Whisper Rd at Arrow,29.661961,-97.589333,
9011,2246,Whisper Rd at Plum Creek,Whisper Rd at Plum Creek,29.657522,-97.601776,
9011,2247,Ivy Switch Rd - 300 Blk,Ivy Switch Rd - 300 Blk,29.678841,-97.591194,
9011,2248,Cattlemans Row @ Dead End,Cattlmans Row,29.887192,-97.599716,
9011,2251,Turkey Hollow Rd/Mule Creek Rd,Turkey Hollow Rd/Mule Creek Rd,29.658323,-97.56311,
9011,2253,Turkey Hollow Rd/Sandy Pine Rd,Turkey Hollow Rd/Sandy Pine Rd,29.662779,-97.57225,
9011,2255,Old McMahan Rd at Dead End,Old McMahan Rd,29.868996,-97.57122,
9011,2257,Old Kelley at City Limits,Old Kelley Rd,29.880407,-97.639168,
9011,2258,Old Kelley Westbound,Old Kelley at Creek,29.88599,-97.626808,
9011,2259,2396 Farmers Rd,2396 Farmers,29.912657,-97.805496,Farmers to Misty
9011,2260,Farmers @ Misty,Farmers @ Misty,29.917139,-97.79966,
9011,2261,Old McMahan at Plum Creek,Old McMahan at Plum Creek,29.865311,-97.615211,
9011,2264,Rolling Ridge at Schuelke,Rolling Ridge,29.963121,-97.708359,
9011,2265,1469 Rolling Ridge,to Schuelke Rd,29.935474,-97.695312,
9011,2268,Williamson Rd. and TX-21,Williamson Rd. and TX-21,30.025198,-97.700058,
9011,2269,Ivy Switch at County Line,Ivy Switch at County Line,29.664328,-97.536613,
9011,2270,Ivy Switch/Mule Creek Rd,Ivy Switch/Mule Creek Rd,29.668261,-97.552811,
9011,2273,Rocky Rd. (off of FM 2001),Rocky Rd. off of FM 2001,29.962292,-97.740181,
9011,2274,Mule Creek Rd at County Line,Mule Creek Rd at County Line,29.675482,-97.517517,
9011,2275,Fox Hollow Rd/Schuelke Rd,Fox Hollow Rd/Schuelke Rd,30.001804,-97.715981,
9011,2276,Williamson @ Old Lockhart,Williamson @ Old Lockhart,30.011267,-97.683716,
9011,2277,4027 Dry Creek Rd,4027 Dry Creek Rd,29.947021,-97.644218,
9011,2278,Southern Way (Off E. Pierce St.),Southern Way and E. Pierce St.,29.656261,-97.602547,
9011,2279,1322 @ 1386,FM 1322 @ FM 1386,29.700302,-97.586739,
9011,2281,3345 Tenney Creek Rd,3345 Tenney Crk Rd,29.764776,-97.556992,
9011,2286,Hwy 21/Hwy 150,Hwy 21/Hwy 150,29.934612,-97.818062,
9011,2288,Old Colony Line off FM20,1 mi. off FM 20 toward 713,29.896334,-97.55909,
9011,2290,Hwy 21/FM 2720,Hwy 21/FM 2720,29.947702,-97.796432,
9011,2291,3563 SE River Rd,to low water crossing,29.827511,-97.826012,
9011,2295,CR 227 (Old Spanish Trail) and Short St.,CR 227 (Old Spanish Trail) and Short St.,29.95879,-97.783607,Plum Creek over bridge
9011,2296,CR 227 at St Michael,CR 227 at St Michael,29.947802,-97.790367,Plum creek over bridge
9011,2297,Creekside @ Highway 86,Creekside @ 86,29.775803,-97.591949,
9011,2298,Pettytown @ FM 20,Pettytown and FM 20,29.911251,-97.550316,
9011,2299,CR105/River Park Rd.,CR105/River Park Rd.,29.692616,-97.684486,
9011,2300,Mineral Springs and FM 671,114 and FM 671,29.775585,-97.681557,
9011,2301,Hwy 142/Greenhouse Rd,Hwy 142/Greenhouse Rd,29.850887,-97.833694,
9011,2338,HWY 86 @ Camelback Area,HWY 86 @ Camelback Area,29.793978,-97.576241,
9011,2339,Young La @ 2600 Blk,Young La @ 2600 Blk,29.825319,-97.595177,
9011,2360,Pettytown Rd @ FM 86,Pettytown Rd @ FM 86,29.87887,-97.509796,
9011,2362,FM 672 near Walnut Ct,FM 672 near Walnut Ct,29.944307,-97.585533,
9011,2363,2226 Jolley Rd,2226 Jolley Rd,29.899748,-97.755501,
9011,2364,Schuelke Rd (4000 Blk),Schuelke Rd (4000 Blk),29.981167,-97.712067,
9011,2365,County View Rd/FM 2720,County View Rd/FM 2720,29.906406,-97.734688,
9011,2366,Burdette Wells Rd near 183,Burdette Wells Rd near 183,29.781574,-97.659737,
9011,2367,Homannville Rd/FM 1185,Homannville Rd/FM 1185,29.966579,-97.641495,
9011,2368,Williamson Rd/Elm Grove Rd,Williamson Rd/Elm Grove Rd,30.036215,-97.708977,
9011,2369,FM 672/FM 1854,FM 672/FM 1854,29.942125,-97.5868,
9011,2370,FM 713 13000 blk,FM 713 13000 blk,29.838287,-97.416656,
9011,2371,Pebblestone Rd 1200 Blk,Pebblestone Rd 1200 Blk,29.904268,-97.505363,
9011,2372,FM 713 11000 Blk,FM 713 11000 Blk,29.844151,-97.433914,
9011,2373,Harwood Rd,Harwood Rd,29.696865,-97.516251,BTWN FM 1386 and County Line
9011,2374,Tenney Creek Rd/Hall Rd,Tenney Creek Rd/Hall Rd,29.742758,-97.542747,
9011,2375,Seneca Loop,Seneca Loop,29.748589,-97.765327,
9011,2376,Tumbleweed Trail between 1600 and 1900,Tumbleweed Trail between 1600 and 1900,29.915222,-97.596581,
9011,2377,Bugtussle 300 Blk,Bugtussle 300 Blk,29.766582,-97.734512,
9011,2380,FM 20 at Bee Creek Rd,FM 20 at Bee Creek Rd,29.941742,-97.501335,
9011,2381,Homannville Trail 700 Blk,Homannville Trail 700 Blk,29.979443,-97.658012,
9012,747,P1001 - Johnson Rd just off 1209,"115 Co Rd 246, Bastrop, TX 78602",30.13537,-97.429787,
9012,748,P1002 - E Riverside Dr/Tahitian Dr,"3000 Riverside Dr, Bastrop, TX 78602",30.072571,-97.283447,
9012,749,P1003 - Riverwood Dr ,"217 Riverwood Dr, Bastrop, TX 78602",30.12042,-97.329033,Low water crossing COB1001
9012,750,P1004 - Green Valley Dr,"419 Green Valley Dr, Bastrop, TX 78602",30.17705,-97.293823,
9012,751,P1005 - 712 Shilo Road,"712 Shiloah Rd, Bastrop, TX 78602",30.097076,-97.403717,.2 West of N Gaines
9012,752,P1006 - Lovers Ln,"1275 Lovers Ln, Bastrop, TX 78602",30.09199,-97.327667,
9012,753,P1007 - Keanahalululu Ln/ Haiimaile,"469 Keanahalululu Ln, Bastrop, TX 78602",30.09164,-97.326958,
9012,754,P1008 - Woodlands Dr,"373 Woodlands Dr, Bastrop, TX 78602",30.11804,-97.402878,
9012,755,P1009 - Tucker Hill Ln,"5000 Tucker Hill Ln, Cedar Creek, TX 78612",30.18111,-97.523064,
9012,756,P1010 - 236 Over Hill Rd,"236 Overhill Rd, Bastrop, TX 78602",30.18976,-97.301392,near Creekside Dr
9012,757,P1011 - 170 Tiger Woods Dr,"170 Tiger Woods Dr, Bastrop, TX 78602",30.179899,-97.280937,
9012,758,P1012 - Manawianui Dr ,"100 Manawianui Dr, Bastrop, TX 78602",30.08757,-97.276688,just off Kaanapali ln
9012,759,P1013 - Kaanapali,"366 Kaanapali Ln, Bastrop, TX 78602",30.088461,-97.277298,"Low water crossing, between Manawianui Dr and Koali Dr"
9012,760,P1014 - Old McDade Rd ,"377 Old McDade Rd, Bastrop, TX 78602",30.14341,-97.309441,Low water crossing
9012,761,P1015 - Greenfields Dr,"111 Greenfields Dr, Bastrop, TX 78602",30.126659,-97.427696,
9012,762,P1016 - E Riverside Dr,"548 Riverside Dr, Bastrop, TX 78602",30.069189,-97.298019,from Akaloa Dr to Kahana Ln
9012,763,P2001 - Friendship Rd. (East),"387 Friendship Cemetery Rd, Paige, TX 78659",30.187429,-97.086777,FM 151
9012,764,P2002 - Friendship Rd. (West),"200Friendship Cemetery Rd, Paige, TX 78659",30.18733,-97.103958,
9012,765,P2003 - Saint Delight Rd,"400 St Delight Rd, Paige, TX 78659",30.184549,-97.112297,
9012,766,P2004 - Gotier Trace Rd,"1600 Gotier Trace Rd, Paige, TX 78659",30.131001,-97.132156,
9012,767,P2005 - Gotier Trace Rd.,"1250 Gotier Trace Rd, Paige, TX 78659",30.123619,-97.157066,
9012,768,P2006 - Bowie Dr.,"126 Bowie Dr, Paige, TX 78659",30.17696,-97.201424,
9012,769,P2007 - Cardinal Dr.,"718 Cardinal Dr, Paige, TX 78659",30.19125,-97.202263,
9012,770,P2008 - Cardinal Dr.,"700 Cardinal Dr, Paige, TX 78659",30.190281,-97.204323,
9012,772,P2010 - 250 Blk League line Rd,"250 League Line Rd, Smithville, TX 78957",30.07605,-97.068138,
9012,773,P2011 - Zack Rd,"292 Zack Ln, Smithville, TX 78957",30.056141,-97.042831,
9012,774,P2012 - Center Union Rd.,"200 Center Union Rd, Smithville, TX 78957",30.040739,-97.060402,
9012,775,P2013 - Krchnak Rd.,"459 Krchnak Rd, Smithville, TX 78957",30.0508,-97.07489,
9012,776,P2014 - Barton Oak Rd.,"210 Barton Oaks Dr, Smithville, TX 78957",29.95023,-97.138802,
9012,777,P2015 - Vyvjala Rd.,"300 Vyvjala Rd., Smithville, TX 78957",29.94005,-97.200989,
9012,778,P2016 - Patterson Rd.,"300 Patterson Rd., Smithville, TX 78957",29.921841,-97.23922,
9012,779,P2017 - Patterson Rd.,"500 Patterson Rd., Smithville, TX 78957",29.90966,-97.239449,at Hickory Creek
9012,780,P2018 - Patterson Rd.,"1600 Patterson Rd., Smithville, TX 78957",29.862989,-97.269234,
9012,781,P2019 - Henry Ln.,"200 Henry Ln, Rosanky, TX 78953",29.844379,-97.315308,
9012,782,P2020 - McReynolds Rd.,"450 McReynolds Rd., Rosanky, TX 78953",29.927019,-97.356071,
9012,783,P2021 - McReynolds Rd.,"300 McReynolds Rd., Rosanky, TX 78953",29.91769,-97.349197,
9012,784,Johns Rd,"280 John's Rd, Smithville, TX 78957",29.98064,-97.284241,County Rd 284
9012,785,P2023 - Hidden Shore Loop,"205 Hidden Shores Loop, Smithville, TX 78957",30.04944,-97.20118,
9012,786,P2024 - O Grady Rd,"255 O'Grady Rd, Smithville, TX 78957",30.07065,-97.199753,
9012,787,P3001 - Wilhelm Way ,"300 Wilhelm Way, Red Rock, TX 78662",29.970921,-97.368439,
9012,788,P3002 - Watterson Rd.,"1250 Watterson Rd, Red Rock, TX 78662",29.97965,-97.37867,near intersection w/ Wilhelm Way
9012,789,P3003 - Watterson Rd. /Possum Way,"900 Watterson Rd, Red Rock, TX 78602",29.9998,-97.365471,at Possum Way
9012,790,P3004 - Watterson Rd.,"674 Watterson Rd, Red Rock, TX 78602",30.014771,-97.355232,near intersection w/ Willy Rd
9012,791,P3005 - Watterson Rd.,"350 Watterson Rd, Red Rock, TX 78602",30.028339,-97.340431,@ Cedar Creek
9012,792,P3006 - Glass Ln,"317 Glass Lane, Bastrop, TX 78602",30.0208,-97.329071,
9012,793,P3007 - Lee Rd.,"613 Lee Rd, Bastrop, TX 78602",29.99102,-97.383202,
9012,794,P3008 - Watterson School Rd.,"362 Watterson School Rd, Red Rock, TX 78662",29.98814,-97.403709,
9012,795,P3009 - Lee Rd.,"525 Lee Rd, Bastrop, TX 78602",29.995131,-97.386101,
9012,796,P3010 - Lower Red Rock Rd.,"919 Lower Red Rock Rd., Bastrop, TX 78602",30.02825,-97.378906,
9012,797,P3011 - Lower Red Rock Rd.,"500 Lower Red Rock Rd., Bastrop, TX 78602",30.057091,-97.371429,
9012,798,Lone Star Rd,"400 Lone Star Rd, Bastrop, TX 78602",30.042351,-97.402077,
9012,799,P3013 - Lower Red Rock Rd.,"110 Lower Red Rock Rd., Bastrop, TX 78602",30.02284,-97.384911,
9012,800,P3014 - Lower Red Rock Rd.,"1110 Lower Red Rock Rd., Bastrop, TX 78602",30.02429,-97.389847,
9012,801,P3015 - Lower Red Rock Rd.,"1300 Lower Red Rock Rd., Bastrop, TX 78602",30.017309,-97.401161,
9012,802,P3016 - Lower Red Rock Rd.,"1550 Lower Red Rock Rd., Bastrop, TX 78602",30.00198,-97.412987,
9012,803,P3017 - Lehman Ln,"300 Lehman Ln, Bastrop, TX 78602",30.009251,-97.420563,
9012,804,P3018 - Pleasant Chapel Rd,"270 Pleasant Chapel Rd, Cedar Creek, TX 78612",30.03093,-97.431862,
9012,805,P3019 - Earl Callahan Rd,"400 Earl Callahan Rd, Cedar Creek, TX 78612",30.065701,-97.438698,
9012,806,P3020 - N Cedar Creek Dr.,"100 N Cedar Creek Dr, Cedar Creek, TX 78612",30.065929,-97.483467,
9012,807,P3021 - Mt. Pleasant Rd.,"600 Mt Pleasant Rd, Cedar Creek, TX 78612",30.032209,-97.503822,
9012,808,P3022 - John Craft Rd.,"200 John Craft Rd, Red Rock, TX 78662",29.95764,-97.38443,
9012,809,P3023 - Watterson Rd,"1750 Watterson Rd, Red Rock, TX 78662",29.95488,-97.398422,at Bridge
9012,810,P3024 - Goertz Rd. / Watterson Rd,"400 Goertz Rd., Red Rock, TX 78662",29.970671,-97.42926,at Watterson Rd
9012,811,P3025 - Goertz Rd ,"300 Goertz Rd., Red Rock, TX 78662",29.97324,-97.433632,
9012,812,P3026 - Sand Hills Rd.,"100 Sand Hills Rd, Red Rock, TX 78662",29.956791,-97.443336,
9012,813,P3027 - Sand Hills Rd.,"600 Sand Hills Rd, Red Rock, TX 78662",29.939159,-97.408028,
9012,814,P3028 - Klaus Ln,"200 Klaus Ln, Red Rock, TX 78662",29.929939,-97.432663,@ Lower Elm Creek
9012,815,P3029 - Pettytown Rd.,"500 Pettytown Rd, Lockhart, TX 78644",29.93409,-97.44381,
9012,816,P3030 - Pettytown Rd.,"825 Pettytown Rd, Lockhart, TX 78644",29.912729,-97.456734,
9012,817,P3031 - Bateman Rd.,"300 Bateman Rd., Red Rock, TX 78662",29.946751,-97.466217,
9012,818,P3032 - Alexander Rd.,"100 Alexander Rd, Red Rock, TX 78662",29.960199,-97.474892,
9012,819,P3033 - Wilson Rd.,"200 Wilson Rd, Red Rock, TX 78662",29.9618,-97.473328,
9012,820,P3034 - Boyd Rd.,"100 Boyd Rd, Red Rock, TX 78662",29.985609,-97.49675,
9012,821,P3035 - Boyd Rd.,"400 Boyd Rd, Red Rock, TX 78662",29.97143,-97.512878,
9012,822,P3036 - Hollow Rd.,"200 Hollow Rd, Red Rock, TX 78662",29.991619,-97.49221,
9012,823,P3037 - High Grove Rd.,"575 High Grove Rd, Cedar Creek, TX 78612",30.0103,-97.478378,
9012,824,P3038 - High Grove Rd.,"300 High Grove Rd, Cedar Creek, TX 78612",30.02281,-97.468384,
9012,825,P3039 - Artesian Rd.,"100 Artesian Rd, Cedar Creek, TX 78612",30.0163,-97.533348,
9012,826,P3040 - Rianna Woods Dr.,"150 Rianna Woods Dr, Dale, TX 78616",30.00519,-97.570396,
9012,827,P3041 - Blue Jay Rd.,"200 Blue Jay Rd, Dale, TX 78616",30.003019,-97.559219,
9012,828,P3042 - Watts Ln.,"1600 Watts Ln, Cedar Creek, TX 78612",30.08292,-97.53553,
9012,829,P3043 - Legend Oaks Dr.,"200 Legend Oaks Dr, Dale, TX 78616",30.06827,-97.59903,
9012,830,P3044 - Caldwell Rd.,"150 Caldwell Rd, Dale, TX 78616",30.054649,-97.618813,
9012,831,P3045 - McDowell Rd.,"140 McDowell Rd, Del Valle, TX 78617",30.097561,-97.578369,
9012,832,P3046 - Jacobson Rd.,"197 Jacobson Rd, Del Valle, TX 78617",30.11647,-97.590134,
9012,833,P3047 - Privada Rd,"134 Privada Rd, Del Valle, TX 78617",30.108709,-97.570686,
9012,834,P3048 - Reeves Ln,"158 Reeves Ln, Cedar Creek, TX 78617",30.112391,-97.54113,
9012,835,P3049 - Shady Oaks Loop,"215 Shady Oaks Loop, Cedar Creek, TX 78612",30.099409,-97.530983,
9012,836,P3050 - Thousand Oaks Dr,"100 Thousand Oaks Dr, Cedar Creek, TX 78612",30.106079,-97.511833,
9012,837,P3051 - Jenkins Rd,"300 Jenkins Rd, Cedar Creek, TX 78612",30.107201,-97.494537,
9012,838,P3052 - Pope Bend South,"400 Pope Bend South, Cedar Creek, TX 78612",30.12546,-97.478432,
9012,839,P3053 - Simpson Ave.,"170 Simpson Ave, Cedar Creek, TX 78612",30.12892,-97.480377,
9012,840,P3054 - Cedar Ln,"323 Cedar Ln, Cedar Creek, TX 78612",30.127621,-97.46994,
9012,841,P3055 - Tuck St,"171 Tuck St, Cedar Creek, TX 78612",30.12088,-97.470108,
9012,842,P3056 - Lake View Dr,"248 Lake View Dr, Cedar Creek, TX 78612",30.11911,-97.469452,
9012,843,P3057 - Marjess Dr.,"150 Marjess Dr, Cedar Creek, TX 78612",30.11125,-97.462334,
9012,844,P3058 - Leisure Ln,"639 Leisure Ln, Cedar Creek, TX 78612",30.13228,-97.466087,
9012,845,P3059 - Stoney Brook,"139 Stoney Brook, Cedar Creek, TX 78612",30.128151,-97.449188,
9012,846,P3060 - Leisure Ln.,"363 Leisure Ln, Cedar Creek, TX 78612",30.123039,-97.44606,
9012,847,P3061 - Shiloh Rd.,"1150 Shiloh Rd, Cedar Creek, TX 78612",30.095131,-97.439507,
9012,848,P3062 - Mt. Olive Rd.,"398 Mt Olive Rd, Cedar Creek, TX 78612",30.100849,-97.441528,
9012,849,P4001 - Monkey Rd,"576 Monkey Rd, Elgin, TX 78621",30.326191,-97.417313,
9012,850,P4002 - North Gates on Upper Elgin River Road @ Willbarger,"1134 Upper Elgin River Rd, Elgin, TX 78621",30.28779,-97.438942,
9012,851,P4003 - 1685 Upper Elgin River Rd,"1685 Upper Elgin River Rd, Elgin, TX 78621",30.25691,-97.441978,
9012,852,P4004 - 1831 Upper Elgin River Rd,"1831 Upper Elgin River Rd, Elgin, TX 78621",30.248369,-97.447441,
9012,853,P4005 - Dry Willow Rd / Elbow Bend Rd.,"192 Dry Willow Rd, Elgin, TX 78621",30.246441,-97.44429,
9012,854,P4006 - Watersedge Terrace Dr.,"123 Watersedge Terrace Dr., Elgin, TX 78621",30.21368,-97.481857,
9012,855,P4007 - 209 Old Sayers Rd,"209 Old Sayers Rd, Elgin, TX 78621",30.32074,-97.365662,
9012,856,P4008 - Beaver Rd,"197 Beaver Rd, Elgin, TX 78621",30.30175,-97.37719,
9012,857,P4009 - Arbuckle Rd,"175 Arbuckle Rd, Elgin, TX 78621",30.287029,97.380966,
9012,858,P4010 - 1333 Old Sayers Rd,"1333 Old Sayers Rd, Elgin, TX 78621",30.252769,-97.350853,
9012,859,P4011 - 1800 Old Sayers Rd,"1800 Old Sayers Rd, Elgin, TX 78621",30.233141,-97.329559,
9012,860,P4012 -  Marlin Rd. / Paint Creek,"299 Marlin Rd, McDade, TX 78650",30.29125,-97.223778,
9012,861,Marlin St,"755 Marlin St, McDade, TX 78650",30.297279,-97.197731,
9012,862,P4014 - Paint Creek Rd,"1084 Paint Creek Rd, Paige, TX 78659",30.280331,-97.161926,
9012,863,Stockade Ranch Rd,"1300 Stockade Ranch Rd, Paige, TX 78659",30.287149,-97.15789,
9012,864,P4016 - 270 Stockade Ranch Rd,"270 Stockade Ranch Rd, Paige, TX 78659",30.22871,-97.119392,
9012,865,P4017 - Longhorn Trail,"181 Longhorn Trail, Paige, TX 78659",30.259159,-97.114113,
9012,866,P4018 - Longhorn Trail ,"292 Longhorn Trail, Paige, TX 78659",30.26951,-97.11808,
9012,867,P4019 - Lee County Rd.,"214 Lee County Rd, Paige, TX 78659",30.270861,-97.107979,
9012,868,P4020 - Edgewood Trail,"290 Edgewood Trail, Paige, TX 78659",30.246771,-97.099297,
9012,869,P4021 - Lincoln Lake Rd,"209 Lincoln Lake Rd, Paige, TX 78659",30.23698,-97.08577,
9012,870,COB1001 - Riverwood Drive,"217 Riverwood Drive, Bastrop, TX 78602",30.120541,-97.32901,0.2 Miles West of Carter
9012,871,COB1002 - Fishermans Park Willow St,"1473 Willow St, Bastrop, TX 78602",30.11484,-97.325172,Willow and Cedar going to Fishermans Park
9012,872,COB1003 - Fishermans Park Farm Street,"500 Farm St, Bastrop, TX 78602",30.11261,-97.321907,Farm St near Wilson going to Fishermans Park
9012,873,COB1004 - Fishermans Park Boat Ramp Area,"1200 Willow St, Bastrop, TX 78602",30.111919,-97.325073,Fishermans Park Boat Ramp Area
9012,874,COE1001 - Hwy 290 and 1880 County Line Road,"18800 Highway 290 E, Elgin, TX 78621",30.352619,-97.411682,
9012,875,COE1002 - Hwy 290 at 800 Martin Luther King Blvd,"800 Martin Luther King Blvd, Elgin, TX 78621",30.33559,-97.362091,
9012,876,COE1003 - \Q.S. Goins Ln.,"100 Q.S. Goins Ln, Elgin, TX 78621",30.3528,-97.361588,
9012,877,COE1004 - N Avenue C,"907 N Avenue C, Elgin, TX 78621",30.352461,-97.37722,
9012,878,COE1005 - West Brenham St in the 600 block,"600 West Brenham St, Elgin, TX 78621",30.342939,-97.376389,
9012,879,COS1001 - Old Upton Rd & Uptown Dr,"1501 Pecan Shores Dr, Smithville, TX 78957",30.01469,-97.170128,
9012,880,COS1002 - Loop 230 River Bridge Boat Ramp,"569 TX-230 TX Loop, Smithville, TX 78957",30.01755,-97.160187,
9012,881,COS1003 - The drive at Riverbend Park,"107 TX-71, Smithville, TX 78957",30.01865,-97.145233,
9012,882,COS1004 - Loop Around at Riverbend Park Under 71,"Riverbend Park @ TX-71, Smithville, TX 78957",30.017929,-97.148682,
9012,886,P4022 Arbuckle at the Bridge,"145 Arbuckle Rd, Elgin, TX 78621",30.287445,-97.381363,
9012,888,TX1001 Park Road 1C at Alum Creek,"Park Road 1C at Alum Creek, Smithville, TX 78957",30.096329,-97.220116,Buescher State Park
9012,891,P4023 - Raccoon Rd Crossing,"130 Raccoon Rd, Elgin, TX 78621",30.366083,-97.307426,100 Yard of Old Lexington Rd
9012,894,COB1005 Jasper and MLK,"300 Martin Luther King Dr, Bastrop, TX 78602",30.103134,-97.311081,
9012,895,WCID1001 - Kokomo,"100 Kokomo, Bastrop, TX 78602",30.090548,-97.327065,
9012,899,TX1003 - FM 535 / AJ Rod Road,"100 AJ Rod Road, Smithville, TX 78957",29.972275,-97.197372,
9012,905,TX1004 - FM 153 @ Park Rd 1C,"187 Park Rd 1C, Smithville, TC 78957",30.038132,-97.15831,Buescher State Park
9012,906,P2026 - Kovar Rd," 400 Kovar Rd, Smithville, TX 78957",29.936741,-97.220016,South of Vyvjalla
9012,907,TX1005 - 1600 FM 2104,"1600 FM 2104, Paige, TX 78659",30.14747,-97.078934,
9012,908,P2027 - Hector Rd / Gravelly Creek,"300 Hector Rd, Smithville, TX 78957",30.057676,-97.090775,
9012,909,P2028 - 400 Old Lake Rd,"400 Old Lake Rd, Smithville, TX 78957",29.98201,-97.134331,
9012,910,Farris Ln,"300 Farris Ln, Smithville, TX 78957",29.988424,-97.283272,
9012,911,P2030 - Pine Valley Loop ,"789 Pine Valley Loop, Smithville, TX 78957",29.960033,-97.315735,at Foster Lake Overflow
9012,914,P2033 - Serbin Rd,"400 Serbin Rd, Smithville, TX 78957",30.064812,-97.03701, at Long Prarie Branch Creek
9012,915,COS1005 - Woodress St,"1900 Woodress St, Smithville, TX 78757",29.995094,-97.134933,
9012,916,TX1019 - FM 535 @ Watterson Road,"3299 FM 535, Red Rock, TX 78662",29.97106,-97.384438,
9012,917,P2034 - Barton Creek at Zapalac Rd,"500 Zapalac Rd, Smithville, TX 78957",29.945227,-97.14534,
9012,918,P2035 - Karisch Rd at Pin Oak Creek,"100 Karisch Rd, Smithville, TX 78957",30.028528,-97.068565,
9012,927,P4024 - Pleasant Grove RV Park & Camp,"568 Pleasant Grove Rd, Elgin, TX 78621",30.383915,-97.327621,
9012,928,COE1006 - Kennedy,"200 Kennedy St, Elgin, TX 78621",30.343157,-97.375458,
9012,929,COE1007 - East 1st @ Avenue G,"408 E 1st St, Elgin, TX 78621",30.349821,-97.366875,
9012,930,TX1006 - FM 3000,"100 Mundine Rd, Elgin, TX 78621",30.362949,-97.32119,
9012,931,P4025 - Mundine Road,"124 Mundine Rd, Elgin, TX 78621",30.361727,-97.320808,
9012,933,P4026 - Pleasant Grove Loop off FM 3000,"Pleasant Grove Loop at FM 3000, Elgin, TX 78621",30.363451,-97.32061,
9012,935,TX1007 - FM 696 @ Big Sandy Creek,"300 FM 696 Elgin, TX 78621",30.321651,-97.290596,
9012,938,P4027 - McDade Road @ Big Sandy Creek,"138 McDade Rd, Elgin, TX 78621",30.312466,-97.291664,
9012,941,P4028 - Lower Elgin Rd @ Wilbarger Creek,"1100 Lower Elgin Rd, Elgin, TX 78621",30.222675,-97.409508,
9012,942,P4029 - Upper Elgin River Rd @ Willbarger Creek,"2000 Upper Elgin River Rd, Elgin, TX 78621",30.281666,-97.441185,South gates
9012,944,P2036 -Gonzales St @ Hwy 21 W,"200 Gonzales St, Paige, TX 78659",30.217197,-97.113991,
9012,945,P2037 - N Main @ Hwy 21 W,"200 Main St, Paige, TX 78659",30.217411,-97.112526,
9012,946,TX1008 - RR Bridge @ Hwy 21 W,"2600 TX-21, Paige, TX 78659",30.216251,-97.12513,
9012,948,TX1009 - Hwy 21 near Orts Lane,"Orts Lane & TX-21, Paige, TX 78659",30.22744,-97.084602,
9012,950,P2039 - August-Anna Rd @ Hwy 21,"158 August-Anna Rd, Paige, TX 78659",30.227921,-97.074516,
9012,951,TX1010 - FM 2104 @ Turner Creek,"300 FM 2104, Paige, TX 78659",30.189865,-97.098907,
9012,952,P2040 - Old Pin Oak @ Long Branch,"843 Old Pin Oak Rd, Paige, TX 78659",30.165682,-97.131683,
9012,953,P2041 - 200 Lois Ln,"200 Lois Ln, Paige, TX 78659",30.164679,-97.139793,
9012,954,P2042 - 200 Kinsey,"200 Kinsey, Paige, TX 78659",30.161934,-97.191849,
9012,956,P4030 - Littig near Central Ave,"101 LIttig Rd, Elgin, TX 78621",30.342543,-97.390938,
9012,957,P4031 - Pleasant Grove at Roemer Rd,"600 Roemer Rd, Elgin, TX 78621",30.373798,-97.334602,
9012,958,P4032- Old McDade at Pistol Hill Ln,"914 Old McDade Rd, Elgin, TX 78621",30.343025,-97.356964,
9012,959,COE1008 - Old McDade at East Alamo,"601 Old McDade Rd, Elgin, TX 78621",30.345583,-97.362442,
9012,960,TX1011 - US 290 @ FM 1704,"800 FM 1704, Elgin, TX 78621",30.33629,-97.366959,
9012,961,COE1009 - Monterrey @ Monterrey Cove,"200 Monterrey Cove, Elgin, TX 78621",30.335878,-97.370682,
9012,964,P2043 - 200 Blk Frerich Rd near Nink Rd,"200 Frerich Rd, Smithville, TX 78957",30.133135,-97.098808,
9012,965,P2044 - 200 Mustang Dr,"200 Mustang Dr, Paige, TX 78659",30.151155,-97.203239,at Alum Creek
9012,967,P4033 - 500 Mundine Road,"500 Mundine Rd, Elgin, TX 78621",30.346506,-97.291496,
9012,968,P2045 - Antioch @ Rabbs Creek,"1300 Co Rd 153, Paige, TX 78659",30.174931,-97.139549,
9012,969,TX1012 - 2104 @ Old Pin Oak Creek,"FM2104 and Circle Rd, Smithville, TX 78957",30.081264,-97.087181,
9012,1020,TX1013 - FM 812 @ County Line,"16112 FM812, Del Valle, TX 78617",30.102629,-97.60965,
9012,1023,P4034 - 2100 Blk Upper Elgin River Rd," 2100 Upper Elgin River Rd, Elgin, TX 78621",30.227066,-97.461067,
9012,1026,TX1018 - FM 1704 @ Youngs Prairie,"1856 FM 1704, Elgin, TX 78621",30.289129,-97.396027,
9012,1034,P4035 - 30070 N. County Line Rd.,"30070 County Line Rd, Elgin, TX, 78621",30.418858,-97.369957,
9012,1054,P2055 - 200 blk Hofferek Rd,"200 Hofferek Rd, Rosanky, TX 78953",29.91787,-97.313454,
9012,1072,P2047 - 500 Blk St. Delight Rd,"500 St. Delight Rd, Paige, TX 78659",30.178963,-97.110825,
9012,1087,TX1014 - Hwy 535 East of Meduna,"FM 535 East and Meduna Rd, Smithville, TX 78957",29.934404,-97.258881,East of Meduna
9012,1099,P2048 - 300 Block of Pine Valley,"300 Pine Valley Loop, Smithville, TX 78957",29.949093,-97.308968,FM 270
9012,1100,P4036 - Comanche Trl @ FM 969,"171 Co Rd 127, Elgin, TX 78621",30.226383,-97.464035,just N of FM 969
9012,1102,P2049 - 100 Blk Kellar Rd,"100 Kellar Rd, Smithville, TX 78957",30.051336,-97.188866,
9012,1153,TX1015 - 1704 Bridge at Wilbarger Creek,"2900 FM 1704, Elgin, TX 78621",30.232073,-97.432655,
9012,1165,TX1017 - FM 2571 @ Wolf Creek,"FM 2571 and Rutherford Ln, Smithville, TX 78957",30.020525,-97.220116,just W of Rutherford Ln
9012,1168,Easley Rd @ Little Piney Creek ,"300 Easley Rd, Smithville, TX 78957",29.963112,-97.279053,
9012,1170,P2050 100 Blk Peace Haven Ln,"100 Peace Haven Ln, Bastrop, TX, 78602",30.096045,-97.257645,
9012,1172,P2052 - 480 Blk Kelley Rd E,"480 Kelley Rd E, Bastrop, TX 78602",30.150024,-97.235573,
9012,1173,P4037 - Paint Creek and Railroad Track Rd,"Paint Creek S Rd and Railroad Track Rd, Paige, TX 78659",30.218374,-97.142967,
9012,1174,P4038 - Lincoln Lake Subdivision,"300 Lincoln Lake Rd, Paige, TX 78659",30.249611,-97.091125,
9012,1177,P1017 - Shiloh Rd at S Fitzwilliams Ln,"Shiloh Rd & S Fitzwilliams Ln, Bastrop, TX 78602",30.092052,-97.358566,
9012,1188,P2054 - KLBJ Rd 65-278 Blk ,"65 KLBJ Rd, Smithville, TX 78957",30.038326,-97.158798,Buescher State Park entrance
9012,1189,P2055 - KLBJ Rd 65-278 Blk,"240 KLBJ Rd, Smithville, TX 78957",30.041939,-97.16803,
9012,1190,P2056 - Alum Creek Rd @ Gotier Trace,"560 Alum Creek Rd, Smithville, TX 78957",30.099607,-97.220306,
9012,1191,P2059 - Meduna Rd North of High Crossing Rd,"142 Co Rd 306, Smithville, TX 78957",29.927925,-97.25,
9012,1197,900 Blk of Nink Road,"900 Nink Road, Smithville, TX 78957",30.120358,-97.100548,
9012,1200,P2060 - 1000 Blk Saint Delight Rd,"1020 St Delight Rd, Paige, TX 78659",30.145144,-97.113388,
9012,1339,P3063 Sand Hills @ Sandy Creek,"1117 Co Rd 245, Rosanky, TX 78953",29.93049,-97.3787,
9012,1476,TX1018 Park Road 1A @ Copperas Creek,"Park Road 1A, Bastrop, TX 78602",30.100201,-97.272743,Bastrop State Park
9012,1556,TX1020 Hwy 71 at Berdoll,"2600 Hwy 71 W, Cedar Creek, TX 78612",30.166477,-97.511711,
9012,1561,TX1021 1704 at 969,"FM 969 & FM 1704, Elgin, TX 78621",30.211784,-97.445938,
9012,1563,TX1022 1704 @ VFW,"800 FM 1704 Elgin, TX 78621",30.335829,-97.367043,
9012,1565,COE1010 Williams St,"400 Williams St, Elgin, TX 78621",30.343109,-97.374283,
9012,1569,TX1023 200 Blk Hwy 95,"115 TX-95, Elgin, TX 78621",30.333887,-97.361771,
9012,1570,P4040 Lower Elgin @ 969,"1527 Co Rd 55, Elgin, TX 78621",30.196119,-97.42704,
9012,1571,P3064 S Pope Bend @ Lois Ln,"103 Lois Ln, Cedar Creek, TX 78612",30.135187,-97.478523,
9012,1574,TX1024 1209 @ Bluebonnet Elem,"458 FM1209, Bastrop, TX 78602",30.133759,-97.428055,
9012,1576,TX1025 812 @ Hwy 21,"15000 FM812, Del Valle, TX 78617",30.071671,-97.572433,
9012,1577,TX1026 Hwy 21 @ Mt. Olive,"141 TX-21, Bastrop, TX 78602",30.110399,-97.418625,
9012,1580,P4041 Hillcrest off 969,"126 Hillcrest Dr, Elgin, TX 78621",30.233458,-97.470131,
9012,1582,TX1027 FM 535 at Maha Creek,"5484 FM535, Cedar Creek, TX, 78612",30.079931,-97.498329,
9012,1587,TX1028 812 @ Old San Antonio,"1891 FM812, Dale, TX 78616",30.049198,-97.545784,
9012,1594,P4042 Upper Elgin River Rd @ Old Austin Trl,"100 Old Austin Trail, Elgin, TX 78621",30.242487,-97.45118,
9012,1597,TX1029 290 @ Big Sandy Creek,"US-290 Elgin, TX 78621",30.304695,-97.297005,
9012,1607,TX1030 Hwy 21 West @ Maha,"1219 TX-21 Cedar Creek, TX 78612",30.086143,-97.505463,
9012,1619,TX1031 FM 969 @ Colorado River,"1115 FM 969, Bastrop, TX 78602",30.16853,-97.403946,
9012,1634,P1018 300 Block Reids Bend,"300 Reids Bend, Bastrop, TX 78602",30.127987,-97.33046,
9012,1636,P1019 Al Jones St,"100 Al Jones St, Bastrop, TX 78602",30.120579,-97.332298,
9012,1637,P1020 Lower Wood Ln,"198 Lower Wood Ln, Bastrop, TX 78602",30.123716,-97.340408,
9012,1638,P1021 Shoreline Drive,"133 Shoreline Drive, Bastrop, TX 78602",30.11878,-97.335197,
9012,1639,Fagerquest/Wolf,"8316 Wolf Ln, Del Valle, TX 78617",30.1322,-97.572929,
9012,1787,P2051 170 Blk Cassel Way,"170 Cassel Way, Bastrop, TX 78602",30.155321,-97.237305,
9012,1794,Oak Hill Cemetery Rd West of Herron Tr,"312 Oak Hill Cemetery Rd, Bastrop, TX 78602",30.222258,-97.263367,West of Herron Tr
9012,1795,Herron Trail,"616 Herron Trail, McDade, TX 78650",30.223463,-97.258026,
9012,1797,391 Porter Road,"391 Porter Road, Bastrop, TX 78602",30.158215,-97.259186,
9012,1806,1100 Blk Lower Elgin Rd,"1100 Lower Elgin Rd, Elgin, TX 78621",30.222834,-97.409477,
9012,1807,Pine Valley Loop,"192 Pine Valley Loop, Smithville, TX 78957",29.953863,-97.303185,
9012,1808,East side of Tahitian Dr at Kaanapali,"281 Kaanapali Ln, Bastrop, TX 78602",30.08843,-97.284248,
9012,1809,500 Blk Lower Elgin Rd,"500 Lower Elgin Rd, Elgin, TX 78621",30.277292,-97.398445,
9012,1810,304 South of 535,"3110 TX-304, Rosanky, TX 78953",29.931849,-97.310127,South of 535
9012,1812,200 Blk FM 2571 ,"200 FM 2571, Smithville, TX 78957",30.013432,-97.171227,
9012,1814,800 Blk Stockade Ranch Rd,"800 Stockade Ranch Rd, Paige, TX 78659",30.26141,-97.147392,
9012,1815,Turkey Ridge Rd Riddle Rd,"Turkey Ridge Rd & Riddle Rd, Cedar Creek, TX 78612",30.015995,-97.539978,
9012,1817,1200 Blk Old McDade Rd,"1200 Old McDade Rd, Elgin, TX 78621",30.334721,-97.329803,
9012,1818,Old Pin Oak,"650 Old Pin Oak Rd, Paige, TX 78659",30.176414,-97.131813,near Antioch Rd
9012,1821,100 Blk Winfield Thicket,"100 Winfield Thicket Rd, Bastrop, TX 78602",30.053019,-97.242683,
9012,1822,Paint Creek Bridge on Paint Creek Rd,"679 Paint Creek Rd, McDade, TX 78650",30.277124,-97.187004,
9012,1823,300 Community Center Road,"300 Community Center Road, Rosanky, TX 78953",29.898951,-97.379982,
9012,1834,Stockade Ranch Rd,1300-1400 Stockade Ranch Rd,30.270452,-97.151466,
9012,1835,P1028 Kolekokle Ln,"1507 Kolekokle Ln, Bastrop, TX 78602",30.074764,-97.298325,Low water crossing
9012,1844,P1029 Koele Ct,"100 Koele Ct, Bastrop, TX 78602",30.087278,-97.322655,
9012,1846,200 Blk Littig Rd,"200 Littig Rd, Elgin, TX 78621",30.341646,-97.402588,
9012,1847,P1030 Kamakoa Ln ,"174 Kamakoa Ln, Bastrop, TX 78602",30.093925,-97.293259,
9012,1848,200 Blk Lone Star Rd,"200 Lone Star Rd, Bastrop, TX 78602",30.043024,-97.411018,
9012,1849,100 Blk Big Bow,"100 Big Bow, Smithville, TX 78957",30.044622,-97.092758,
9012,1851,Gotier Trace at Alum Creek,"455 Gotier Trace Rd, Smithville, TX 78957",30.104731,-97.213692,
9012,1864,190 Pine Canyon Dr,"190 Pine Canyon Dr, Smithville, TX 78957",29.956299,-97.31929,
9012,1865,Wilbarger Creek Dr,"203 Wilbarger Creek Dr, Elgin, TX 78621",30.227524,-97.416107,
9012,1875,Longhorn Dr Culvert,"140 Longhorn Dr, Bastrop, TX 78602",30.156879,-97.226059,
9012,1877,Raven Rd,"Raven Rd & Park Rd 1C, Smithville, TX 78957",30.074966,-97.182098,just outside NW corner of Buescher State Park
9012,1878,Agget Rd,"145 Agget Rd, Smithville, TX 78957",30.078941,-97.177376,
9012,1921,200 Blk The Forest Rd,"200 The Forest Rd, Dale, TX 78616",30.036097,-97.568375,
9012,1932,200 Block FM 2239,"200 FM2239 Smithville, TX 78957",30.137945,-97.067429,
9012,1937,774 Old Sayers,"774 Old Sayers Rd, Elgin, TX 78621",30.285519,-97.36776,
9012,1945,FM 153 @ Karisch Rd,"1371 FM 153, Smithville, TX 78957",30.028387,-97.071083,
9012,1949,1300 Park Road 1C,"1300 Park Road 1C, Smithville, TX 78957",30.083752,-97.182175,
9012,1956,Woodland Ct.,"101 Woodland Ct, Bastrop, TX 78602",30.079109,-97.268494,
9012,1964,1060 FM 1441,"1060 FM 1441, Bastrop, TX 78602",30.168653,-97.245819,
9012,1970,Dry Willow at Old Austin Trail,"Dry Willow Rd & Old Austin Trail, Elgin, TX 78621",30.240887,-97.447853,
9012,1973,Pine Shadows Rd,"100 Pine Shadows Ln, Bastrop, TX 78602",30.087967,-97.263367,
9012,1980,160 Lakeside Drive ,"160 Lakeside Drive, Bastrop, TX 78602",30.082396,-97.260963,
9012,1981,Cattlemens between Shorthorn and Herford,"224 Cattlemens Dr, Bastrop, TX 78602",30.163534,-97.232414,
9012,1985,P1020 Aloha Ln,"151 Aloha Ln, Bastrop, TX 78602",30.099625,-97.278473,
9012,1986,P1021 Kahalulu Dr,"200 Kahalulu Dr, Bastrop, TX 78602",30.079685,-97.276222,
9012,1987,P1022 Upolu Ct,"1500 Upolu Ct, Bastrop, TX 78602",30.090881,-97.282806,
9012,1988,P1023 Koae Ct,"108 Koae Ct, Bastrop, TX 78602",30.083399,-97.292572,
9012,1989,P1024 Alele Dr,"103 Alele Dr, Bastrop, TX 78602",30.087898,-97.280731,
9012,1991,P1026 - Pahalawe Ln,"129 Pahalawe Ln, Bastrop, TX 78602",30.088188,-97.281349,
9012,1992,P1026 East Keamuku Ct,"800 Keamuku Ct, Bastrop, TX 78602",30.092957,-97.28418,
9012,1993,P1027 Honopu Dr,"150 Honopu Dr, Bastrop, TX 78602",30.095243,-97.279228,
9012,1994,Forest Ln,"162 Forest Ln, Bastrop, TX 78602",30.093979,-97.257881,
9012,1995,Pine Hill Loop,"190 Pine Hill Loop, Bastrop, TX 78602",30.09848,-97.260101,
9012,1996,Lisa Ln,"180 Lisa Ln, Bastrop, TX 78602",30.144388,-97.252975,
9012,1998,FM 1441 Betw Daisy Ln and Old Firetower TD,"884 FM1441, Bastrop, TX 78602",30.174446,-97.260147,
9012,1999,Park Road 1C Near Wilderness Ridge,"855 Park Rd 1C, Smithville, TX 78957",30.094656,-97.211525,
9012,2001,Riverside just East of Keanehalululu Ln,"130 Riverside Dr, Bastrop, TX 78602",30.082581,-97.327705,just East of Keanehalululu Ln
9012,2002,Kaanapali at Tall Forest,"454 Kaanapali Ln, Bastrop, TX 78602",30.086445,-97.270645,
9012,2003,300 Blk Sayers Rd,"300 Sayers Rd, Bastrop, TX 78602",30.156507,-97.336166,
9012,2004,650 Sayers Road,"300 Sayers Rd, Bastrop, TX 78602",30.168179,-97.348183,
9012,2009,Riverside West of Kaala,"348 Riverside Dr, Bastrop, TX 78602",30.076395,-97.312096,
9012,2028,260 Block of Joe Cole Ln,"260 Joe Cole Ln, Smithville, TX 78957",29.964888,-97.145363,
9012,2064,200 Blk Jacobson Rd,"200 Jacobson Rd, Del Valle, TX 78617",30.111088,-97.584259,
9012,2081,290 @ County Line Rd,"18800 US-290, Elgin, TX 78621",30.352276,-97.411942,
9012,2082,East Austin @ RR Tracks,"205 E Austin St, Elgin, TX 78621",30.346672,-97.368919,
9012,2098,TX1032 - Park Rd 1C @ Harmon Rd,"300 Park Rd 1C, Smithville, TX 78957",30.109261,-97.249626,Buescher State Park entrance
9012,2099,TX1033 Park Rd 1A @ Park Rd 1C,"100 Park Rd 1A, Bastrop, TX, 78602",30.1129,-97.26786,Bastrop State Park
9012,2101,TX1034 Park Rd 1C @ Park Rd 1E,"2100 Park Rd 1C, Smithville, TX 78957",30.049189,-97.162743,Buescher State Park
9012,2102,TX1035 Park Rd 1A @ refectory,"100 Park Rd 1A, Bastrop, TX 78602",30.109131,-97.283119,Bastrop State Park entrance
9012,2104,P3070 - Old San Antonio Rd @ Tributary in the 600 Blk,"600 Old San Antonio Rd, Dale, TX 78616",30.027033,-97.584282,
9012,2107,P2063 - Mark Young Rd @ Tributary,"100 Mark Young Rd, Smithville, TX 78957",29.959169,-97.159309,
9012,2108,P2064 - Mark Young Rd @ Tributary,"200 Mark Young Rd, Smithville, TX 78957",29.9527,-97.159142,
9012,2109,P2065 - Mark Young Rd,"300 Mark Young Rd, Smithville, TX 78957",29.948175,-97.159027,
9012,2110,P3071 - 3800 FM 535,"3800 FM535, Cedar Creek, TX 78612",29.984707,-97.422379,
9012,2113,COS1006 - SE Martin Luther King Dr,"1000 SE Martin Luther King Dr, Smithville, TX 78957",30.000147,-97.152786,
9012,2114,P2068 - Crafts Prairie Rd @ Mesa Pinto Dr,"250 Crafts Prairie Rd, Bastrop, TX 78602",30.052687,-97.250786,
9012,2115,P3072 - 300 FM 672,"300 FM672 Dale, TX 78616",29.989796,-97.527908,
9012,2116,P3073 - 500 FM 672,"500 FM672 Dale, TX 78616",29.976933,-97.539192,
9012,2131,P4045 - 2500 FM 1704 south of Woody Ln,"2500 FM1704 Elgin, TX 78621",30.247625,-97.422241,
9012,2144,P2069 - Powell Rd @ Tribuary West of Kellar Rd,"5001 Powell Rd, Elgin, TX 78621",30.060041,-97.191025,
9012,2151,P2074 - Big Bow (spillway) @ Indian Lake,"300 Big Bow, Smithville, TX 78957",30.044922,-97.086548,
9012,2152,P2075 - Circle Rd @ Pin Oak Creek,"200 Circle Rd, Smithville, TX 78957",30.071442,-97.08223,
9012,2156,Stockade Ranch Rd,"2800 TX-21, Paige, TX 78659",30.217712,-97.114967,SH 21 to End of Road
9012,2161,Lehman Ln,"410 Lehman Ln, Bastrop, TX, 78602",30.012465,-97.415581,South of Humble Ln
9012,2162,Lower Red Rock Rd,"452 Humble Ln, Bastrop, TX 78602",30.007839,-97.406937,South of Humble Ln
9012,2168,Post Oak Trl,"203 Post Oak Trail, Cedar Creek, TX, 78612",30.104044,-97.550423,
9012,2169,Turkey Ridge Rd,"200 Turkey Ridge Rd, Cedar Creek, TX, 78612",30.015539,-97.537231,
9012,2170,FM 812,"100 Cam Del Sol, Del Valle, TX, 78617",30.093203,-97.597824,At Camino Del Sol
9012,2172,Ponderosa Rd,"120 Ponderosa Rd, Bastrop, TX, 78602",30.070633,-97.231033,
9012,2173,Brody Ln,"Brody Ln & Ponderosa Rd, Bastrop, TX, 78602",30.047083,-97.23764,
9012,2174,Arbuckle Rd,"145 Arbuckle Rd, Elgin, TX, 78621",30.286285,-97.379517,
9012,2175,Whitehead St,"144 Whitehead St, Smithville, TX 78957",30.002733,-97.148468,at NE 2nd St
9012,2178,NE 1st St @ Marburger St,"Marburger & NE 1st St, Smithville, TX 78957",30.001461,-97.147995,
9012,2179,NE 6th St,"Wilkes Cir & NE 6th St, Smithville, TX 78957",30.006235,-97.147057,Between Wilkes St and Whitehead St
9012,2180,Faulkner Rd,"1232 Faulkner Rd, Smithville, TX 78957",30.001434,-97.13916,At Oak Meadows Dr
9012,2182,St Hwy 71,"271 FM1209, Cedar Creek, TX, 78612",30.12224,-97.43293,East bound lane
9012,2184,Sand Hiils Rd,"300 Sand Hiils Rd, Red Rock, TX 78662",29.951818,-97.433235,
9012,2185,Red Rock Ranch Rd,"300 Red Rock Ranch Rd, Red Rock, TX 78662",29.917456,-97.406647,
9012,2187,NE 8th St,"800 Mills St, Smithville, TX 78957",30.010195,-97.151398,at Mills St
9012,2188,FM 2104,"369 FM 2104, Smithville, TX 78957",30.061934,-97.101898,
9012,2189,Bateman Rd,"Co Rd 265, Red Rock,TX 78662",29.934719,-97.458839,
9012,2191,Jacobson Rd,"16100 Jacobson Rd, Del Valle, TX 78617",30.123293,-97.598267,Maha Creek
9012,2192,Cardinal Dr,"627 Cardinal Dr, Paige, TX, 78659",30.187729,-97.208893,
9012,2193,Pine St,"1570 Pine St, Bastrop, TX 78602",30.10952,-97.309715,
9012,2195,Hill St aka Dorothy Nichols Ln,"1800 TX-230 Loop, Smithville, TX 78957",29.997864,-97.134712,at NE Loop 230
9012,2196,Lamaloa Ln,"380 Lamaloa Ln, Bastrop, TX 78602",30.090956,-97.318756,West of Rail Road
9012,2197,Cleveland St,"100 Cleveland St, Smithville, TX 78957",30.008085,-97.162231,Between 1st St and 2nd St
9012,2198,NW 1st St,"100 Gazley St, Smithville, TX 78957",30.00868,-97.16468,at Gazley St
9012,2199,FM 969,"1704 FM 969, Bastrop, TX 78602",30.200489,-97.434471,
9012,2200,St Hwy 21,"TX-21 & Co Rd 158, Paige, TX 78659",30.182495,-97.170166,West bound lanes
9012,2201,FM 1704,"2709 FM 1704, Elgin, TX, 78621",30.238482,-97.428207,
9012,2202,S St Hwy 95,"290 TX-95, Elgin, TX 78621",30.321922,-97.35791,Northbound Lane
9012,2203,FM 535,"2400 FM 535, Del Valle, TX 78617",29.93886,-97.321266,
9012,2204,Shiloh Rd,"250 Shiloh Rd, Bastrop, TX, 78602",30.092615,-97.367714,Between St Hwy 304 and FM 20
9012,2205,Lone Star Rd,"600 Lone Star Rd, Bastrop, TX, 78602",30.045609,-97.379707,
9012,2206,McAllister Rd,"339 McAllister Rd, Bastrop, TX 78602",30.076195,-97.262566,
9012,2207,St Hwy 71,"1981 Co Rd 427, Smithville, TX 78957",30.049154,-97.188927,West bound lanes at Kellar Rd
9012,2208,FM 812,"2200 FM812, Cedar Creek, TX 78612",30.069399,-97.569672,
9012,2209,N Main St,"2600 Main St, Bastrop, TX, 78602",30.131464,-97.320747,Bridge at Main St
9012,2211,Old Sayers Rd,"Old Sayers Rd & Smith Rd, Bastrop, TX 78602",30.152042,-97.329903,
9012,2212,B J Mayes Rd,"244 B J Mayes Rd, Bastrop, TX 78602",30.15362,-97.321091,
9012,2213,FM 20,"136 FM 20, Bastrop, TX 78602",30.109968,-97.373215,at TX-71
9012,2214,FM 20,"FM 20 & FM 535, Cedar Creek, TX 78612",30.004057,-97.43325,
9012,2217,FM 20,"1381 FM 20, Cedar Creek, TX 78612",30.028053,-97.426445,
9012,2220,Jenkins Rd,"200 Jenkins Rd, Cedar Creek, TX 78612",30.103542,-97.498566,
9012,2223,Gotier Trace Rd,"700 Gotier Trace Rd, Smithville, TX 78957",30.110912,-97.195282,
9012,2224,Lower Red Rock Bridge @ SH-304 ,"100 Lower Red Rock Rd, Bastrop, TX 78602",30.076603,-97.357605,
9012,2225,462 Kelley Rd,"462 Kelley Rd, Bastrop, TX 78602",30.150255,-97.235603,
9012,2226,Jones St,"900 Jones St, Smithville, TX 78957",29.996708,-97.160217,
9012,2227,Prim Rd,"692 Old Lake Rd, Smithville, TX 78957",29.968996,-97.124237,"100 ft, from Old Lake Rd"
9012,2228,Hillcrest Dr,"115 Hillcrest Dr, Bastrop, TX 78602",30.13723,-97.252853,
9012,2231,Cardinal Dr,"600 Cardinal Dr, Paige, TX 78659",30.178679,-97.218605,
9012,2232,Riverwood Dr,"111 Riverwood Dr, Bastrop, TX 78602",30.120583,-97.329819,
9012,2233,FM 20,"1300 FM-20, Cedar Creek, TX 78612",30.035187,-97.423286,
9012,2236,Park Road 1C,"Park Road 1C, Smithville, TX 78957",30.089668,-97.192421,"Bridge at Park Road 1C, TXDOT"
9012,2239,NE 7th St,"NE 7th St & Whitehead St, Smithville, TX 78957",30.006868,-97.146088,
9012,2266,Woodress St.,"1500 Woodress St, Smithville, TX 78957",30.000746,-97.148308,
9012,2271,Community Center Rd,"200 Community Center Rd, Rosanky, TX 78953",29.886925,-97.35675,
9012,2285,County Line Rd,"300 Co Rd 299, Smithville, TX 78957",30.091393,-97.058067,
9012,2289,Alum Creek East,"135 Alum Creek E, Smithville, TX 78957",30.069551,-97.222382,Off SH 71
9012,2293,FM 20 & Humble Ln,"FM 20 & Humble Ln, Bastrop, TX 78602",30.021744,-97.428169,
9012,2294,Pine Valley Loop,"600 Pine Valley Loop, Smithville, TX 78957",29.959761,-97.322014,
9012,2302,Norma Jean Blvd,"200 Norma Jean Blvd, Smithville, TX 78957",30.045273,-97.18644,
9012,2305,Old Sayers Rd,"1750 Old Sayers Rd, Elgin, TX 78621",30.238274,-97.339493,
9012,2306,Wolf Rd & Marlin St,"100 Wolf Rd, McDade, TX 78650",30.297363,-97.205132,
9012,2307,Wolf Rd & Knobbs Rd,"400 Wolf Rd, McDade, TX 78650",30.31596,-97.224083,
9012,2312,Easley Rd,"500 Easley Rd, Smithville, TX 78957",29.952106,-97.291084,
9012,2313,Easley Rd,"200 Easley Rd, Smithville, TX 78957",29.983295,-97.275032,
9012,2316,Maunalua Dr,"100 Maunalua Dr, Bastrop, TX 78602",30.089396,-97.315506,
9012,2317,Bateman Rd,"800 Bateman Rd, Red Rock, TX 78662",29.923016,-97.441055,
9012,2320,Martin Luther King @ Bunte St,"MLK @ Bunte St, Smithville, TX 78957",29.99795,-97.147629,
9012,2321,SE 2nd St @ Bunte,"SE 2nd @ Bunte St, Smithville, TX 78957",29.998795,-97.147171,
9012,2322,SE 1st St @ Bunte St,"SE 1st St @ Bunte St, Smithville, TX 78957",29.999577,-97.146683,
9012,2323,Martin Luther King @ Miller St,"Martin Luther King Dr @ Miller St, Smithville, TX 78957",29.998751,-97.149483,
9012,2324,2nd Ave @ Hickory St,"102 2nd Ave, Smithville, TX, 78957",30.011484,-97.171509,
9012,2325,TX1002 - FM 535 @ Watterson School Rd,"3672 FM 535, Red Rock, TX 78662",29.97855,-97.414001,
9012,2326,Marburger St between 5th & 6th,"500 Marburger St, Smithville, TX, 78957",30.005213,-97.145821,
9012,2327,Turney St @ 4th St,"NE 4th St & Turney St, Smithville, TX 78957",30.005539,-97.150436,
9012,2328,Byrne St @ 4th St,"398 Byrne St, Smithville, TX, 78957",30.005022,-97.149529,
9012,2329,Hill Rd @ SH 71,"400 Hill Rd, Smithville, TX, 78957",30.005501,-97.134911,
9012,2330,Crafts Prairie Rd,"200 Crafts Prairie Rd, Smithville, TX 78957",30.052462,-97.247444,
9012,2331,Akaloa Dr,Akaloa Dr at Wahane Ln,30.08073,-97.290314,
9012,2332,Blue Jay Rd,100 blk Blue Jay Rd,30.006632,-97.563454,
9012,2333,Karisch Rd,300 blk Karish Rd,30.042641,-97.069099,
9012,2334,Ponderosa Rd,700 blk Ponderosa Rd,30.034109,-97.220215,
9012,2335,Hidden Shores Rd,"100 Hidden Shores Rd, Bastrop, TX 78602",30.025503,-97.198914,
9012,2336,Hidden Shores Loop,"100 Hidden Shores Loop, Smithville, TX 78957",30.043644,-97.200676,
9012,2337,Post Oak Trl,"109 Post Oak Trail, Cedar Creek, TX 78612",30.10821,-97.54258,Entire Road
9012,2345,FM 2571,"1200 FM 2571, Smithville, TX 78957",30.009134,-97.246002,TXDOT; Bend in Colorado River Area
9012,2357,SH 71 Eastbound,"300 TX-71, Smithville, TX 78957",29.997698,-97.129143,Eastbound
9012,2358,E SH 71,"300 TX-71, Smithville, TX 78957",29.994781,-97.128181,
9012,2359,Lower Red Rock Rd,"400 Lower Red Rock Rd, Bastrop, TX 78602",30.024183,-97.380119,
9012,2361,Ott Lane,"300-400 Ott Lane, Elgin, TX 78621",29.862024,-97.393967,
9012,2378,Circle Rd,"Pin Oak Circle & Pin Oak Circle, Elgin, TX 78621",30.073074,-97.08194,
9012,2379,West Ridge Dr,"100 West Ridge Dr, Cedar Creek, TX 78612",30.100183,-97.437729,
9012,2382,FM 2571,"FM 2571 Smithville, TX 78957",30.020102,-97.215591,"3.5 miles west of St Hwy 95, just east of Rutherford Ln"
9012,2384,Reids Bend @ Sink Hole,"180-350 Reids Bend, Bastrop, TX 78602",30.128698,-97.335648,
9012,2385,Foothill Rd,"202-261 Foothill Rd, Bastrop, TX 78602",30.187031,-97.294701,
9013,716,Barton Springs Road,2000 W Barton Springs Road ,30.264969,-97.764992,
9013,920,Ramp from NB 183 to MoPac,Ramp from NB 183 to MoPac,30.378557,-97.738068,
9013,1097,Old San Antonio @ 1626,Old San Antonio @ 1626,30.142878,-97.801559,
9013,1143,River Rd at Loma Vista,River Rd at Loma Vista,29.993029,-98.100533,
9013,1169,Convict Hill near Latta,Convict Hill near Latta,30.217197,-97.850754,
9013,1644,CR 103 @ Elm Creek,Lee County,30.21109,-97.050545,
9013,1645,CR 104 @ Dead Mans Hole Creek,Lee County,30.219378,-97.021927,
9013,1646,CR 104 @ Elm Creek,Lee County,30.202868,-97.019073,
9013,1648,CR 108 @ Bluff Creek,Lee County,30.288042,-97.059273,
9013,1649,CR 108 @ West Yegua Creek,Lee County,30.305321,-97.083405,
9013,1651,CR 109 @ Mier Branch,Lee County,30.260092,-97.012245,
9013,1652,CR 109 @ Schilling Branch,Lee County,30.24205,-97.029968,
9013,1653,CR 113 @ Elm Creek,Lee County,30.237471,-96.98568,
9013,1654,CR 113 @ Nails Creek,Lee County,30.215399,-96.957947,
9013,1656,CR 114 @ Willy Branch,Lee County,30.239904,-96.929131,
9013,1657,CR 114 @ Nails Creek,Lee County,30.219763,-96.936272,
9013,1658,CR 116 @ Little Hickory Creek,Lee County,30.212481,-96.894165,
9013,1659,CR 116 @ Persimmons Branch,Lee County,30.203848,-96.883797,
9013,1661,CR 117 @ Big Branch,Lee County,30.255596,-96.884056,
9013,1663,CR 117 @ Turkey Creek,Lee County,30.274912,-96.890755,
9013,1664,CR 118 @ Nails Creek,Lee County,30.233433,-96.906158,
9013,1665,CR 118 @ Willow Branch,Lee County,30.244741,-96.901031,
9013,1666,CR 119 @ Nails Creek,Lee County,30.234684,-96.777527,
9013,1668,CR 124 @ Yegua Creek,Lee County,30.319473,-96.741318,
9013,1672,CR 127 @ Flat Rock Creek,Lee County,30.179604,-96.805611,
9013,1674,CR 127 @ Nails Creek,Lee County,30.234751,-96.798683,
9013,1675,CR 127 @ Pin Oak Creek,Lee County,30.220579,-96.805725,
9013,1676,CR 130 @ Hog Branch,Lee County,30.215097,-96.760712,
9013,1677,CR 130 @ Turkey Creek,Lee County,30.169985,-96.781517,
9013,1678,CR 131 @ Cedar Creek,Lee County,30.233255,-96.73719,
9013,1679,CR 133 @ Stuber Creek,Lee County,30.198463,-96.874001,
9013,1680,Cr 133 @ Water Hole Branch,Lee County,30.196384,-96.850182,
9013,1681,CR 203 @ Rabbs Creek,Lee County,30.179405,-97.050476,
9013,1682,CR 205 @ Little Bullfrog Creek,Lee County,30.175426,-96.990295,
9013,1683,CR 205 @ Knobbs Creek,Lee County,30.142265,-97.038078,
9013,1684,CR 205 @ Bullfrog Creek,Lee County,30.170876,-96.998543,
9013,1685,CR 205 @ Rabbs Creek,Lee County,30.156984,-97.016098,
9013,1686,CR 208 @ Bullfrog Creek,Lee County,30.1535,-96.972565,
9013,1687,CR 208 @ Rabbs Creek,Lee County,30.145313,-96.996559,
9013,1688,CR 208 @ Wolf Branch,Lee County,30.163271,-96.961891,
9013,1689,CR 209 @ Knobbs Creek,Lee County,30.101318,-97.020515,
9013,1690,CR 210 @ Knobbs Creek,Lee County,30.089941,-97.018204,
9013,1691,CR 213 @ Knobbs Creek,Lee County,30.066362,-97.006798,
9013,1692,CR 213 @ Little Pin Oak Creek,Lee County,30.072908,-96.999519,
9013,1693,CR 216 @ Rabbs Creek,Lee County,30.11805,-96.940231,
9013,1694,CR 216 @ Sandy Creek,Lee County,30.122393,-96.938278,
9013,1695,CR 217 @ Rabbs Creek,Lee County,30.126257,-96.952034,
9013,1696,CR 217 @ Sandy Creek,Lee County,30.137663,-96.939537,
9013,1697,CR 220 @ Rabbs Creek,Lee County,30.109024,-96.929756,
9013,1698,CR 221 @ Pin Oak Creek,Lee County,30.121639,-96.910652,
9013,1699,CR 223 @ Pin Oak Creek,Lee County,30.14892,-96.914116,
9013,1700,CR 223 @ Rocky Branch,Lee County,30.108444,-96.862648,
9013,1701,CR 223 @ Small Greens Creek,Lee County,30.124683,-96.888893,
9013,1702,CR 226 @ Cummins Creek,Lee County,30.159863,-96.880585,
9013,1703,CR 233 @ Cummins Creek,Lee County,30.156799,-96.856689,
9013,1704,CR 304 @ Middle Yegua Creek,Lee County,30.423727,-97.23671,
9013,1705,CR 304 @ Mine Creek,Lee County,30.360558,-97.213989,
9013,1706,CR 304 @ Willow Creek,Lee County,30.376293,-97.226395,
9013,1707,CR 306 @ Middle Yegua Creek (South),Lee County,30.402718,-97.191315,
9013,1708,CR 306 @ Middle Yegua Creek (North),Lee County,30.413513,-97.222565,
9013,1709,CR 309 @ Burns Branch,Lee County,30.402805,-97.148094,
9013,1710,CR 309 @ Middle Yegua Creek,Lee County,30.410339,-97.156403,
9013,1711,CR 311 @ Blue Branch,Lee County,30.361956,-97.170204,
9013,1712,CR 311 @ Marshy Branch,Lee County,30.361397,-97.185104,
9013,1713,CR 314 @ Cottonwood Creek,Lee County,30.450672,-97.129578,
9013,1714,CR 314 @ Cross Creek,Lee County,30.435314,-97.141655,
9013,1715,CR 314A @ Cross Creek,Lee County,30.454733,-97.149963,
9013,1716,CR 315 @ Camp Branch,Lee County,30.464424,-97.093811,
9013,1717,CR 316 @ Cross Creek,Lee County,30.423174,-97.123238,
9013,1718,CR 317 @ Brushy Creek,Lee County,30.43795,-97.038086,
9013,1719,CR 318 @ Camp Branch,Lee County,30.470179,-97.090744,
9013,1720,CR 320 @ Brushy Creek,Lee County,30.452997,-97.020164,
9013,1721,CR 320 @ Pucker Springs Branch,Lee County,30.475197,-97.037086,
9013,1722,CR 320 @ Rouse Creek,Lee County,30.502571,-97.050606,
9013,1723,CR 322 @ West Rocky Branch,Lee County,30.360727,-97.08226,
9013,1724,CR 323 @ Middle Yegua Creek,Lee County,30.367773,-97.048912,
9013,1725,CR 326 @ West Yegua Creek,Lee County,30.295628,-97.005585,
9013,1726,CR 326 @ Shaw Branch,Lee County,30.395409,-97.012558,
9013,1727,CR 326 @ Middle Yegua Creek,Lee County,30.367445,-97.024666,
9013,1728,CR 329 @ Middle Yegua Creek,Lee County,30.353991,-96.987915,
9013,1729,CR 333 @ Willie Branch,Lee County,30.320852,-97.12928,
9013,1730,CR 337 @ Coupland Branch,Lee County,30.405525,-97.075485,
9013,1731,CR 343 @ Coupland Branch,Lee County,30.354233,-97.102318,
9013,1732,CR 345 @ Allen Creek,Lee County,30.528376,-97.01609,
9013,1733,CR 404 @ Boggy Creek,Lee County,30.38213,-96.865067,
9013,1734,CR 405 @ Indian Camp Branch,Lee County,30.39621,-96.989288,
9013,1735,CR 405 @ Warsaw Branch,Lee County,30.395802,-96.972519,
9013,1736,CR 405 @ Pin Oak Creek,Lee County,30.405678,-96.955132,
9013,1737,CR 413 @ Allen Creek,Lee County,30.525551,-96.933594,
9013,1738,CR 415W @ Spring Branch,Lee County,30.499523,-97.000549,
9013,1739,CR 417 @ Spring Branch,Lee County,30.517321,-96.988731,
9013,1740,CR 418 @ Allen Creek,Lee County,30.526342,-97.000137,
9013,1741,CR 418 @ Spring Branch,Lee County,30.510744,-96.993858,
9013,1742,CR 424 @ Brushy Creek (North),Lee County,30.3708,-96.809837,
9013,1743,JCR 424 @ Brushy Creek (South),Lee County,30.346251,-96.834259,
9013,1744,CR 424 @ East Yegua Creek,Lee County,30.387001,-96.788017,
9013,1745,CR 426 @ Brushy Creek,Lee County,30.370295,-96.801727,
9013,1746,CR 428 @ Boggy Branch,Lee County,30.355844,-96.855919,
9013,1747,CR 428 @ Brushy Creek,Lee County,30.369522,-96.839722,
9013,1748,CR 430 @ East Yegua Creek,Lee County,30.344315,-96.761047,
9013,1749,CR 430 @ Boggy Branch,Lee County,30.354189,-96.856148,
9013,1750,CR 430 @ Brushy Creek,Lee County,30.33824,-96.837189,
9013,1751,CR 436 @ Copperas Creek,Lee County,30.389839,-96.909355,
9013,1752,CR 455 @ Indian Camp Branch,Lee County,30.371523,-96.984497,
9013,1753,CR 455 @ Warsaw Branch,Lee County,30.372948,-96.980118,
9013,1758,Deer Valley Dr. @ Willow Creek,Lee County,30.371374,-97.265465,
9013,1759,Post Oak Dr. @ Tributary to Middle Yegua Creek,Lee County,30.432079,-97.232536,
9013,1760,Post Oak Dr. @ Tributary to Middle Yegua Creek,Lee County,30.430269,-97.226562,
9013,1761,Road B @ Two Mile Branch,Lee County,30.373522,-97.124008,
9013,1762,Road C @ Two Mile Creek,Lee County,30.379416,-97.122643,
9013,1763,Wilson Boyd Ln. @ Red Branch,Lee County,30.389349,-97.029266,
9013,1764,FM 141 @ Middle Yegua Creek,Lee County,30.321545,-96.786461,
9013,1765,FM 1624 @ Middle Yegua Creek,Lee County,30.388115,-97.064156,
9013,1766,FM 1624 @ West Yegua Creek,Lee County,30.303663,-97.05072,
9013,1771,CR 117 @ Persimmon Branch,Lee County,30.235029,-96.861954,
9013,1788,CR 309 @ Pin Oak,Lee County,30.385496,-97.137146,
9013,1811,CR 117 @ Trubitary to Nails Creek,Lee County,30.2358,-96.847595,
9013,1858,CR 401 @ Tributary to East Yegua Creek,Lee County,30.418373,-96.8918,
9013,1862,CR 327w @ Tributary to West Yegua Creek,Lee County,30.296951,-96.969643,
9013,1928,CR 313 @ Cross Creek,Lee County,30.458855,-97.153099,
9013,1968,CR 310 @ Pin Oak,Lee County,30.379391,-97.138046,
9013,1969,CR 143 @ Tributary to West Yegua Creek,Lee County,30.285662,-96.903221,
9013,2078,CR 114 @ West Yegua Creek,Lee County,30.292053,-96.906265,
9013,2079,CR 117 @ Middle Yegua Creek,Lee County,30.326771,-96.858047,
9014,221,2900 Block of Bee Cave Road (RM2244) at the Finish Line Car Wash,"2944 Bee Cave Rd, Rollingwood, TX",30.270664,-97.792221,
9014,222,800 Block of Edgegrove Drive at Bee Cave Road,"860 Edgegrove Drive, Rollingwood, TX",30.272051,-97.788979,
9014,223,Dellana Lane at Bee Cave Road,"2661 Dellana Ln, Rollingwood, TX",30.267593,-97.784874,
9014,716,Barton Springs Road,2000 W Barton Springs Road ,30.264969,-97.764992,
9014,920,Ramp from NB 183 to MoPac,Ramp from NB 183 to MoPac,30.378557,-97.738068,
9014,1097,Old San Antonio @ 1626,Old San Antonio @ 1626,30.142878,-97.801559,
9014,1143,River Rd at Loma Vista,River Rd at Loma Vista,29.993029,-98.100533,
9014,1169,Convict Hill near Latta,Convict Hill near Latta,30.217197,-97.850754,
9015,716,Barton Springs Road,2000 W Barton Springs Road ,30.264969,-97.764992,
9015,920,Ramp from NB 183 to MoPac,Ramp from NB 183 to MoPac,30.378557,-97.738068,
9015,1097,Old San Antonio @ 1626,Old San Antonio @ 1626,30.142878,-97.801559,
9015,1143,River Rd at Loma Vista,River Rd at Loma Vista,29.993029,-98.100533,
9015,1169,Convict Hill near Latta,Convict Hill near Latta,30.217197,-97.850754,
9015,1430,E Morrow St at Chamber Way,City of Georgetown,30.648214,-97.673347,
9015,1431,Lower Park Rd at Chamber Way,City of Georgetown,30.647177,-97.6726,
9015,1432,118 N Austin Ave,City of Georgetown,30.657619,-97.66964,
9015,1433,NE Inner Loop at Pecan Branch,City of Georgetown,30.665009,-97.654427,
9015,1435,Airport Rd at Pecan Branch,City of Georgetown,30.670174,-97.669922,
9015,1436,Lakeway Dr at Pecan Branch E,City of Georgetown,30.669321,-97.678024,
9015,1438,Northwest Blvd at Pecan Branch,City of Georgetown,30.66762,-97.68528,
9015,1439,Country Club Rd at North Fork San Gabriel,City of Georgetown,30.653574,-97.696632,
9015,1440,Golf Cart Path,City of Georgetown,30.653463,-97.696442,Country Club Rd at North Fork San Gabriel
9015,1442,Blue Hole Park Pedestrian Bridge,City of Georgetown,30.642992,-97.679306,
9015,1443,E 21st St at Church St,City of Georgetown,30.624292,-97.672836,
9015,1444,Maple St at West Fork Smith Branch,City of Georgetown,30.624847,-97.665604,
9015,1445,Pine St near San Jose St,City of Georgetown,30.62505,-97.667747,
9015,1446,2100 Pine St,City of Georgetown,30.625511,-97.66906,
9015,1447,Greenbranch Dr at Trails End Dr,City of Georgetown,30.623985,-97.658417,
9015,1448,Greenbranch Dr at Quail Meadow Dr,City of Georgetown,30.624723,-97.658157,
9015,1449,Greenbranch Dr at Hunters Glen Dr,City of Georgetown,30.625563,-97.657806,
9015,1450,Quail Valley Dr at W Fork Smith Branch,City of Georgetown,30.626856,-97.657928,
9015,1451,DB Wood Rd at Mid Fork SG,City of Georgetown,30.647963,-97.716736,
9015,1452,Patriot Way at Mankins Branch,City of Georgetown,30.62919,-97.610146,
9015,1453,Patriot Way at Mankins Branch 2,City of Georgetown,30.625858,-97.612816,
9015,1454,S Austin Ave at Tasus Way,City of Georgetown,30.620138,-97.680878,
9015,1455,N Austin Ave at Pecan Branch,City of Georgetown,30.668755,-97.665314,
9015,1456,Stadium Dr at Pecan Branch,City of Georgetown,30.667238,-97.664528,
9015,1457,Lakeway Dr at Pecan Branch W,City of Georgetown,30.669878,-97.683746,
9015,1458,Northwest Blvd North of Hedgewood Dr,City of Georgetown,30.676853,-97.688141,
9015,1459,Flume at N Fork SG River,City of Georgetown,30.651691,-97.690567,
9015,1460,Pedestrian Bridge at SG Park,City of Georgetown,30.646799,-97.671524,
9015,1462,Golf Cart Path SW of Oak Tree Dr/Berry Creek Dr,City of Georgetown,30.705669,-97.67247,
9015,1463,Luna Trl at Logan Ranch Rd,City of Georgetown,30.694065,-97.686913,
9015,1464,Old Bridge at SG Park,City of Georgetown,30.652023,-97.664444,
9015,1465,E 6th St at Ash St,City of Georgetown,30.638376,-97.673187,
9015,1466,E 5th St at Ash St,City of Georgetown,30.639217,-97.673233,
9015,1467,111 N College St,City of Georgetown,30.643299,-97.672211,
9015,1468,Blue Hole Park Rd East,City of Georgetown,30.642372,-97.679092,
9015,1469,Blue Hole Park Rd West,City of Georgetown,30.642031,-97.682266,
9015,1470,N College St at WL Walden Dr,City of Georgetown,30.650404,-97.665733,
9015,1471,E Morrow St (lower),City of Georgetown,30.653698,-97.663879,
9015,1472,Spring Valley Rd at Starview Dr,City of Georgetown,30.654078,-97.701103,
9015,1775,River Trail Bridge MM3.3,City of Georgetown,30.662779,-97.706497,
9015,1776,River Trail Bridge under IH35,City of Georgetown,30.645309,-97.683403,
9015,1777,Lower Park Rd at Chamber Way,City of Georgetown,30.647072,-97.672668,
9015,1783,610 Shady Hollow Dr - SW side,Wilco,30.665737,-97.682587,
9015,1784,811 Shady Hollow Dr - NW side,Wilco,30.668791,-97.674622,
9015,1785,608 Golden Oaks Rd - SE side,Wilco,30.665003,-97.679573,
9015,1786,709 Golden Oaks Rd,Wilco,30.665386,-97.676056,
9015,1903,St Andrews low area,30401 St. Andrews Dr.,30.714464,-97.668571,
9015,1911,COG - Industrial Ave,300 Industrial Ave,30.62118,-97.677773,
9015,2234,CR 152 @ Lonnie Thomas,City of Georgetown,30.667786,-97.649734,
9016,439,Montell Rd (CR 339) E of Angostura Ln ,Hays County,30.118563,-98.243378,
9016,440,Circle Dr - S of Sandy Point Rd,Hays County,30.046593,-98.216927,
9016,441,PETRAS WAY - BETWEEN MONTZ PT & STEPHANIES TRL,Hays County,30.037531,-97.750755,
9016,442,DACY LN (CR 205) - .5 MI N OF WINDY HILL RD,Hays County,30.038677,-97.828224,
9016,443,RED OAK RD - .25 MI W OF OAK GROVE RD,Hays County,30.113346,-97.911537,
9016,444,BELL SPRINGS RD (SOUTH) - .5 MI N OF HARMON HILLS RD,Hays County,30.228535,-98.121185,
9016,445,MARTIN RD (CR188) - .5 MI W OF PLANT LADY LN,Hays County,30.220041,-98.179192,
9016,446,LONGVIEW RD - .5 MI S OF TWIN CREEK RD,Hays County,30.251295,-98.194405,
9016,447,PAISANO TRL - WEST OF TRAIL DRIVER,Hays County,30.222067,-98.012436,
9016,448,SATTERWHITE RD (CR 107) - .5 E OF FM 2OO1,Hays County,30.061136,-97.794724,
9016,449,SATTERWHITE RD - .66 MI W OF WILLIAMSON RD,Hays County,30.048773,-97.768005,
9016,450,SCHUBERT LN - .5 MI N OF NEIDERWALD STRASSE,Hays County,30.018488,-97.729103,
9016,451,COTTON GIN RD - .66 MI N OF DAIRY RD,Hays County,29.984154,-97.816856,
9016,452,COTTON GIN RD AND DAIRY RD,Hays County,29.97687,-97.808655,
9016,453,REDWOOD RD (CR 232) - S OF OLD BASTROP HWY,Hays County,29.833851,-97.928429,
9016,455,DACY LN (CR 205) - .25 MI N OF KELLEY SMITH LN (CR 149),Hays County,30.043983,-97.828293,
9016,456,WINDY HILL RD (CR 131) - W of Palomino Rd (CR 124),Hays County,30.031456,-97.81086,
9016,457,GOFORTH RD (CR 157) - JUST N OF ROHDE RD (CR 126),Hays County,30.029179,-97.784599,
9016,458,S QUAIL RUN - JUST S OF RED BIRD DR,Hays County,30.040094,-97.792358,
9016,459,WINDY HILL RD (CR 131) - JUST S OF FM 2001,Hays County,30.044287,-97.803452,
9016,460,BLACKBIRD LN - JUST N OF HOWARD LN,Hays County,30.041714,-97.796776,
9016,461,ROLLING HILLS DR - .25 MI W OF FM 2001,Hays County,30.041094,-97.795776,
9016,462,HILLSIDE TERR - .75 MI W OF FM 2001,Hays County,30.058584,-97.816498,
9016,463,MARTIN RD (CR 188) - .10 MI S OF WINDY HILLS RD,Hays County,30.21129,-98.184196,
9016,464,SATTERWHITE RD (CR 107) - .20 MI W OF WILLIAMSON RD (CR 120),Hays County,30.042793,-97.764038,
9016,465,OLD WEST TRAIL - .20 MI S OF FM 2001,Hays County,30.068115,-97.81604,
9016,466,RICH LN - .25 MI E OF TURNERSVILLE RD (CR 212),Hays County,30.066278,-97.777069,
9016,467,TURNERSVILLE RD (CR 212) - .33 MI N OF RICH LN,Hays County,30.072577,-97.781357,
9016,468,HARRIS HILL RD (CR 160) - .75 MI W OF SOUTHPOINT DR,Hays County,29.908024,-97.889542,
9016,469,HARRIS HILL RD (CR 160) - .25 MI W OF HWY 21,Hays County,29.89572,-97.883858,
9016,470,SATTERWHITE RD (CR 107) - .5 MI E OF S TURNERSVILLE RD (CR 212),Hays County,30.056059,-97.770607,
9016,471,S TURNSERSVILLE RD (CR 212) - .5 MI S OF SATTERWHITE RD (CR 107),Hays County,30.055243,-97.780602,
9016,473,SATTERWHITE RD (CR 107) - BETWEEN BOTH S TURNERSVILLE RDS,Hays County,30.060678,-97.779701,
9016,474,SATTERWHITE RD (CR 107) - 1.25 MI E OF FM 2001 (BEFORE S TURNERSVILLE),Hays County,30.061365,-97.783516,
9016,475,PETRAS WAY - BETWEEN PETRAS CV AND PEGGYS TRL,Hays County,30.039825,-97.753822,
9016,476,SCHUBERT LN (CR 211) - .5 MI W OF HWY 21,Hays County,30.02318,-97.721024,
9016,477,"GRIST MILL RD (CR 153) - .5 MI W OF HWY 21, JUST BEFORE S PLUM CREEK RD (CR 156)",Hays County,29.951456,-97.805481,
9016,478,S PLUM CREEK RD (CR 156) - JUST E OF GRIST MILL RD (CR 153),Hays County,29.952936,-97.805038,
9016,479,GRIST MILL RD (CR 153) - .75 MI W OF S PLUM CREEK RD (CR 156),Hays County,29.959692,-97.814911,
9016,480,WINDY HILL RD (CR 131) - .5 MI W OF PALOMINO RD (CR 124),Hays County,30.030495,-97.819214,
9016,481,GATLIN CREEK RD (SOUTH OF MT GAINOR) AT SOUTH ONION CREEK,Hays County,30.142319,-98.13633,
9016,482,PALOMA CIR - S OF DOVE HOLLOW DR,Hays County,30.019053,-97.892113,
9016,483,TURTLEDOVE CIR - S OF DOVE HOLLOW DR,Hays County,30.018843,-97.893333,
9016,484,CYPRESS RD - 1.75 MI W OF OLD STAGECOACH RD,Hays County,29.992199,-97.91713,
9016,485,TALL OAKS TRL - 800 FT N OF LAUREL HILL ST,Hays County,30.215183,-97.98925,
9016,486,LAUREL HILL ST - 800 FT E OF TALL OAKS TRL,Hays County,30.21427,-97.987038,
9016,487,PAULS VALLEY RD - .75 MI SW OF FITZHUGH RD (CR 101),Hays County,30.229668,-98.012878,
9016,488,FITZHUGH RD (CR 101) - .25 MI W OF S OAK FOREST DR,Hays County,30.255049,-98.113197,
9016,489,OAK HOLLOW LN - JUST E OF MOURNING DOVE LN,Hays County,30.106146,-97.896545,
9016,490,FM 1626 - BETWEEN LAKEWOOD DR & EAGLE NEST DR (CITY OF HAYS),Hays County,30.12554,-97.862167,
9016,491,LAKESIDE DR (CR 343) - 1 MI E OF MONTELL RD (CR 339),Hays County,30.113211,-98.226723,
9016,492,E CREEK DR - .25 MI S OF UPPER BRANCH CV,Hays County,30.187426,-98.051674,
9016,493,FRANCIS HARRIS LN (CR 265) - .25 MI S OF VALLEY ACRES DR,Hays County,29.756277,-97.998878,
9016,495,YORK CREEK RD (CR 262) - .25 MI N OF FRANCIS HARRIS LN (CR 265),Hays County,29.762884,-97.994179,
9016,496,YORK CREEK RD (CR 262) - .66 MI N OF FRANCIS HARRIS LN (CR 265),Hays County,29.768808,-97.998238,
9016,497,YORK CREEK RD (CR 262) - .25 MI S OF SOECHTING LN,Hays County,29.77136,-98.002785,
9016,499,OLD MARTINDALE RD (CR 295) AT BLANCO RIVER,Hays County,29.871346,-97.915611,
9016,500,OLD BASTROP HWY (CR 266) - AT MILLERS LAKE,Hays County,29.831358,-97.936684,
9016,501,ROLLING OAKS - BETWEEN CORRIE CT & WILLOW CREEK CIR,Hays County,29.858175,-97.982445,
9016,502,MCCARTY LN (CR233) - .25 MI W OF PHILO ST,Hays County,29.853956,-97.988823,
9016,504,POST RD (CR 140) - AT BLANCO RIVER,Hays County,29.937107,-97.895134,
9016,505,"LIME KILN RD - 1 MI W OF POST RD, JUST S OF WINDMERE RD",Hays County,29.905729,-97.930176,
9016,506,FULTON RANCH RD (CR 213) - 1.25 MI N OF RR 12,Hays County,29.924425,-98.009201,
9016,507,HUGO RD (CR 214) - 1 MI W OF RR 12,Hays County,29.909199,-98.064285,
9016,508,HUGO RD (CR 214) - 1.5 MI W OF RR 12,Hays County,29.908873,-98.06794,
9016,509,HUGO RD (CR 214) - 2 MI W OF RR 12,Hays County,29.906651,-98.073715,
9016,510,CASCADE TRL - .25 MI S OF OZARK DR,Hays County,29.91873,-98.079987,
9016,511,HUGO RD (CR 214) - JUST W OF CASCADE TRL,Hays County,29.905626,-98.09449,
9016,512,HUGO RD (CR 214) - .25 MI W OF CASCADE TRL,Hays County,29.907227,-98.098701,
9016,513,HUGO RD (CR 214) - .5 MI W OF CASCADE TRL,Hays County,29.910919,-98.102379,
9016,514,HUGO RD (CR 214) - .5 MI E OF PURGATORY RD (CR 215),Hays County,29.916311,-98.113235,
9016,515,PURGATORY RD (CR 215) JUST S OF HUGO RD (CR 214),Hays County,29.917351,-98.121399,
9016,516,PURGATORY RD (CR 215) - .25 MI N OF HUGO RD (CR 214),Hays County,29.919334,-98.123192,
9016,517,PURGATORY RD (CR 215) - .5 MI S OF RR 12,Hays County,29.924625,-98.12587,
9016,518,PURGATORY RD (CR 215) - JUST S OF RR 12,Hays County,29.931902,-98.129829,
9016,519,S PLUM CREEK RD (CR 156) - .5 MI W OF COTTON GIN RD (CR 129),Hays County,29.960394,-97.798225,
9016,520,HEIDENREICH LN (CR 152) - 1 MI N OF RR 150,Hays County,29.963371,-97.830627,
9016,521,CR 158 - 1.5 MI N OF YARRINGTON RD AT CLEAR FORK PLUM CREEK,Hays County,29.941181,-97.84668,
9016,522,BUNTON LN (CR 151) - .75 MI S OF GOFORTH RD,City of Kyle,29.985933,-97.834679,
9016,523,BUNTON LN (CR 151) - 1 MI S OF GOFORTH RD,Hays County,29.982611,-97.830818,
9016,524,BUNTON LN (CR 151) - 1.25 MI S OF GOFORTH RD,Hays County,29.981382,-97.829376,
9016,525,HEIDENREICH LN (CR 152) - JUST W OF BUNTON LN (CR 151),Hays County,29.971544,-97.818245,
9016,526,DAIRY RD (CR 151) - .25 MI W OF COTTON GIN RD (CR 129),Hays County,29.973518,-97.812523,
9016,527,COTTON GIN RD (CR 129) - 1 MI E OF GOFORTH RD,Hays County,29.990545,-97.824341,
9016,528,LITTLE ARKANSAS RD (CR 174) - 2.25 MI E OF FULTON RANCH RD (CR 213),Hays County,29.984943,-98.022552,
9016,529,LITTLE ARKANSAS RD (CR 174) - 2 MI E OF FULTON RANCH RD (CR 213),Hays County,29.983168,-98.031418,
9016,530,SPOKE HOLLOW RD (CR 314) - .25 MI W OF HIDDEN VALLEY RD (CR 217),Hays County,29.983879,-98.069832,
9016,531,GREEN ACRES DR (CR 279) - .25 MI N OF WAYSIDE DR (CR 179),Hays County,29.991013,-98.111191,
9016,532,PINION TRL - 1 MI W OF CARNEY LN (CR 278),Hays County,29.998375,-98.125969,
9016,533,WAYSIDE DR (CR 179) - .25 MI E OF THOMPSON RANCH RD,Hays County,29.98221,-98.152466,
9016,534,WAYSIDE DR (CR 179) - BETWEEN THOMPSON RANCH RD AND RIDGE OAK DR,Hays County,29.982187,-98.156998,
9016,535,RIDGE OAK DR - .75 MI S OF WAYSIDE DR (CR 179),Hays County,29.972404,-98.157166,
9016,536,THOMAS OAKS DR - .5 MI W OF RIDGE OAKS DR,Hays County,29.976562,-98.162575,
9016,537,WAYSIDE DR (CR 179) - .5 MI W OF RIDGE OAK DR,Hays County,29.979439,-98.164848,
9016,538,THOMPSON RANCH RD - .20 MI N OF BIG BEND DR,Hays County,29.995731,-98.15052,
9016,539,WAYSIDE DR (CR 179) - AT BLANCO RIVER,Hays County,29.967382,-98.189484,
9016,540,GREEN PASTURES DR - .20 MI W OF LAKELAND DR,Hays County,30.012817,-97.801247,
9016,541,DICKERSON RD - .20 MI W OF LAKELAND DR,Hays County,30.012138,-97.799591,
9016,542,PEACEFUL VALLEY RD - .5 MI W OF GOFORTH RD CR (157),Hays County,30.017204,-97.799232,
9016,543,GOFORTH RD (CR 157) - .25 MI E OF JANZET DR,Hays County,30.020409,-97.805763,
9016,544,ROHDE RD (CR 126) - .25 MI W OF GRAEF RD (CR 302),Hays County,30.013725,-97.769966,
9016,545,GOFORTH RD (CR 157) - .25 MI W OF COTTON GIN RD (CR 129),Hays County,29.997282,-97.837036,
9016,546,DACY LN (CR 205) - .75 MI W OF BEBEE RD (CR 122),Hays County,30.010157,-97.845947,
9016,547,DACY LN (CR 205) - .75 MI S OF WINDY HILL RD (CR 131),Hays County,30.024374,-97.831001,
9016,548,ANDREWS XING - BETWEEN DACY LN (CR 205) AND WINDY HILL RD (CR 131),Hays County,30.030338,-97.826805,
9016,549,WINDY HILL RD (CR 131) - BETWEEN DACY LN (CR 205) AND ANDREWS XING,Hays County,30.031595,-97.82724,
9016,550,KELLY SMITH LN (CR 149) - .75 MI W OF DACY LN (CR 205),Hays County,30.0408,-97.840714,
9016,551,S TURNERSVILLE RD (CR 212) - .25 MI S OF LANES LN,Hays County,30.04493,-97.792198,
9016,552,SATTERWHITE RD (CR 107) - .25 MI E OF FM 2001,Hays County,30.060955,-97.798882,
9016,553,HILLSIDE TERR - 1 MI W OF FM 2001,Hays County,30.058546,-97.818481,
9016,554,DEER LAKE EST (CR 291/292) - .20 MI S OF DEER LAKE RD (CR 317),Hays County,30.028276,-98.044609,
9016,555,DEER LAKE CV - .10 MI S OF DEER LAKE RD (CR 317),Hays County,30.034592,-98.052879,
9016,556,ARROWLAKE RD (CR 304) - .20 MI S OF RR 3237,Hays County,30.010078,-98.060272,
9016,557,JACOBS WELL RD (CR 220) AT CYPRESS CREEK - .25 MI S OF MT SHARP RD (CR 220),Hays County,30.030506,-98.121773,
9016,558,LEDGEROCK RD (CR 244) - .25 MI N OF VALLEY RIDGE RD,Hays County,30.056936,-98.166893,
9016,559,PUMP STATION RD (CR 218) - 1 MI N OF RR 2325,Hays County,30.05887,-98.195297,
9016,560,VALLEY VIEW RD - .75 MI E OF DAYS END RD,Hays County,30.036821,-98.222832,
9016,561,FISCHER STORE RD (CR 181) - 1.75 MI W OF SACHTLEBEN RD (CR 180),Hays County,30.000616,-98.200104,
9016,562,COTTONWOOD RD - 2 MI N OF FISCHER STORE RD (CR 181),Hays County,30.007923,-98.253761,
9016,563,COTTONWOOD RD - 4 MI N OF FISCHER STORE RD (CR 181),Hays County,30.023846,-98.234566,
9016,564,DAYS END RD - .25 MI N OF HUMMINGBIRD LN,Hays County,30.034605,-98.232292,
9016,565,HORTON PREISS RD AT LITTLE BLANCO RIVER,Hays County,30.038141,-98.297043,
9016,566,MAYBROOK DR - .25 MI W OF N FM 1626,Hays County,30.104568,-97.879143,
9016,567,ARBOR TRL - JUST N OF LIVE OAK LOOP,Hays County,30.116627,-97.912941,
9016,568,YORKS XING - .5 MI W OF RR 150,Hays County,30.062155,-98.001205,
9016,569,YORK CREEK RD (CR 376) - .25 MI W OF ROLLING OAKS DR (CR 369),Hays County,30.070133,-98.023201,
9016,570,ELDER HILL RD (CR 170) - .25 MI E OF RR 12,Hays County,30.11014,-98.087723,
9016,571,MT GAINOR RD (CR 220) - .25 MI S OF PURSLEY RD (CR 198),Hays County,30.123949,-98.167938,
9016,572,LAKESIDE DR (CR 343) - BETWEEN ANGOSTURA LN AND MONTELL RD,Hays County,30.113726,-98.242462,
9016,573,CARPENTER LN - .25 MI S OF BLISS SPILLAR RD (CR 224,Hays County,30.135738,-97.87616,
9016,574,CHAPARRAL RD - .25 MI W OF CARPENTER LN,Hays County,30.137985,-97.87706,
9016,575,CHAPARRAL RD - .25 MI W OF QUAIL RD,Hays County,30.137409,-97.894333,
9016,576,BEAR CREEK PASS (CR 367) AT BEAR CREEK - .5 MI S OF RR 1826,Hays County,30.160967,-97.944923,
9016,577,CRYSTAL HILL DR AT SPRING HOLLOW - JUST S OF RR 1826,Hays County,30.151791,-97.972115,
9016,578,DARDEN HILL RD (CR 162) - 1 MI W OF SAWYER RANCH RD (CR 164),Hays County,30.153227,-98.021889,
9016,579,DARDEN HILL RD (CR 162) - .40 MI E OF RR 150,Hays County,30.151417,-98.041893,
9016,580,CROSSCREEK DR - JUST W OF E CREEK DR,Hays County,30.178301,-98.054588,
9016,581,CREEK RD (CR 190) - .5 MI E OF MT GAINOR RD (CR 220),Hays County,30.187622,-98.115501,
9016,582,CREEK RD (CR 190) - JUST W OF MT GAINOR RD (CR 220),Hays County,30.187965,-98.123817,
9016,583,MT GAINOR RD (CR 220) - 1 MI E OF PURSLEY RD (CR 198),Hays County,30.137257,-98.158455,
9016,584,MT GAINOR RD (CR 220) AT SOUTH ONION CREEK - .25 MI W OF GATLIN CREEK RD (CR 191,Hays County,30.143394,-98.140327,
9016,585,LOOP 165 (CR 165) - .5 MI E OF THE S ENTRANCE OFF RR 165,Hays County,30.157591,-98.239594,
9016,586,LOOP 165 (CR 165) - 2 MI E OF S ENTRANCE OFF RR 165,Hays County,30.166075,-98.226524,
9016,587,LOOP 165 (CR 165) - .25 MI E OF N ENTRANCE OFF RR 165,Hays County,30.17622,-98.223969,
9016,588,PURSLEY RD (CR 198) -C 1.75 MI N OF MT GAINOR RD (CR 220),Hays County,30.146482,-98.175346,
9016,589,PURSLEY RD (CR 198) - .5 MI S OF CREEK RD (CR 190),Hays County,30.173611,-98.188622,
9016,590,PURSLEY RD (CR 198) - .30 MI S OF CREEK RD (CR 190),Hays County,30.175333,-98.188667,
9016,591,CREEK RD (CR 190) - .75 MI E OF PURSLEY RD (CR 198),Hays County,30.181561,-98.18116,
9016,592,CANYONWOOD DR - BETWEEN OAKWOOD LN AND ROY CREEK LN,Hays County,30.213938,-98.035835,
9016,593,HIDDEN HILLS DR - BETWEEN COTTONWOOD CREEK DR AND ROY CREEK LN,Hays County,30.210232,-98.025528,
9016,594,OAKWOOD LN - BETWEEN COTTONWOOD CREEK DR AND WEST CREEK DR,Hays County,30.213724,-98.026657,
9016,595,BLUE HILLS DR - BETWEEN WEST CREEK DR AND COTTONWOOD CREEK DR,Hays County,30.219912,-98.02887,
9016,596,FITZHUGH RD (CR 101) - 1.2 MI E OF TRAUTWEIN RD (CR 185) RIGHT AT COUNTY LINE,Hays County,30.242491,-98.011147,
9016,597,TRAUTWEIN RD (CR 185) AT BARTON CREEK,Hays County,30.236509,-98.024834,
9016,598,BELL SPRING RD (CR 169) - 2 MI S OF FITZHUGH RD (CR 101),Hays County,30.234697,-98.12487,
9016,599,BELL SPRINGS RD (CR 169) - 1 MI S OF FITZHUGH RD (CR 101),Hays County,30.244528,-98.122566,
9016,600,MCGREGOR LN (CR 187) - 2 MI N OF US 290,Hays County,30.226864,-98.154556,
9016,601,WINDYS HILL RD - .25 MI S OF GLENN CV,Hays County,30.222597,-98.201553,
9016,602,LOST VALLEY RD - .5 MI N OF EASY ST,Hays County,30.245077,-98.205681,
9016,603,FITZHUGH RD (CR 101) - .5 MI E OF TED BURGER RD,Hays County,30.254898,-98.082695,
9016,604,SYCAMORE CREEK DR - JUST W OF TWIN CREEK RD,Hays County,30.261024,-98.199638,
9016,605,MYERS CREEK RD - 1.5 MI N OF BELL SPRINGS RD (CR 169),Hays County,30.283445,-98.134094,
9016,606,POSEY RD (CR 235) - JUST E OF FM 2439 (HUNTER RD),Hays County,29.823009,-98.004517,
9016,607,POSEY RD (CR 235) - JUST W OF IH 35,Hays County,29.818159,-97.998688,
9016,608,POSEY RD (CR 235) - E OF IH 35,Hays County,29.815346,-97.995407,
9016,609,RIVER RD (CITY OF SM) - .5 MI E OF SH 80,Hays County,29.885052,-97.906982,
9016,610,POST RD (CR 140) .20 MI S OF YARRINGTON RD (CR 159),Hays County,29.948603,-97.885979,
9016,611,S LOOP 4 (BUDA) - .20 MI S OF W GOFORTH RD (CR 228),Hays County,30.074629,-97.84478,
9016,612,FM 2770 (BUDA) - BETWEEN S AUSTIN ST AND BLUFF ST (BUDA),Hays County,30.07902,-97.845909,
9016,613,SCHUBERT LN - JUST E OF NIEDERWALD STRASSE,Hays County,30.014273,-97.733757,
9016,614,COLE SPRINGS RD (CR 148) - 1 1/2 MI E OF FM 2770,Hays County,30.081158,-97.851006,
9016,615,MATHIAS LN (CR 123) - .25 MI E OF WINDY HILL RD (CR 131),Hays County,30.033113,-97.801361,
9016,616,MATHIAS LN (CR 123) - .75 MI E OF WINDY HILL RD (CR131),Hays County,30.028946,-97.796097,
9016,617,CEMENT PLANT RD (CR 132) - .5 MI E OF LOOP 4 (BUDA),Hays County,30.057915,-97.836624,
9016,618,HIDDEN VALLEY RD (CR 217) - .25 MI E OF SPOKE HOLLOW RD (CR 314),Hays County,29.982872,-98.062141,
9016,619,PLEASANT VALLEY RD (WOODCREEK) - BETWEEN LITTLE BEND CT AND WOODACRE DR,Hays County,30.03311,-98.1306,
9016,620,PLEASANT VALLEY RD (WOODCREEK) - BETWEEN VALLEY SPRING RD AND QUIET MEADOW CIR,Hays County,30.032286,-98.133194,
9016,621,VALLEY SPRING RD (WOODCREEK) - BETWEEN GREEN GLADE CT AND TRINKET CT,Hays County,30.034092,-98.134087,
9016,622,WOODACRE DR (WOODCREEK) - BETWEEN ACACIA DR AND CYPRESS FAIRWAY VLG,Hays County,30.034554,-98.129036,
9016,623,FRANCIS HARRIS LN (CR 265) - .25 MI S OF OLD BASTROP HWY (CR 266),Hays County,29.79821,-97.994667,
9016,624,NUTTY BROWN RD (CR 163) - JUST N OF WILDWOOD HILLS LN,Hays County,30.175901,-97.96386,
9016,625,E MCCARTY LN (CR 233) - .5 MI E OF IH 35,Hays County,29.8339,-97.965286,
9016,626,N OLD BASTROP HWY (CR 266) - .20 MI S OF AIRPORT HWY 21 (SH 21),Hays County,29.881516,-97.894524,
9016,627,LIME KILN RD (SAN MARCOS) - .25 MI W OF POST RD (CR 140),Hays County,29.899267,-97.925949,
9016,628,RR 1826 - 1 MI E OF RR 150,Hays County,30.131485,-98.016365,
9016,629,LITTLE ARKANSAS RD (CR 174) - AT BLANCO RIVER,Hays County,29.984037,-98.052963,
9016,630,Hidden Valley Rd @ Low Water Crossing,Hays County,29.98558,-98.065285,
9016,633,CR 1492 AT BLANCO RIVER AND RIVER ROAD (CR 178),Hays County,29.984812,-98.109413,
9016,634,RR 967 - JUST N OF HALEYS WAY DR (BUDA),Hays County,30.099525,-97.84832,
9016,635,N MADRONE TR (BEAR CREEK) - .5 MI W OF CEDAR CV,Hays County,30.18598,-97.938202,
9016,636,BELL SPRINGS RD (CR 169) - JUST N OF US 290,Hays County,30.204742,-98.118294,
9016,637,W FITZHUGH RD (CR 101) - BETWEEN BOTH LEGS OF BELL SPRINGS RD (CR 169) 1 MI E OF,Hays County,30.255873,-98.131348,
9016,638,CREEK RD (CR 190) - .10 MI E OF PURSLEY RD (CR 198),Hays County,30.178694,-98.190826,
9016,639,N BURLESON ST (KYLE) - W OF IH 35,City of Kyle,30.003784,-97.866997,
9016,640,E RR 150 - BETWEEN IH 35 AND LEHMAN RD (CR 204),Hays County,29.981874,-97.870132,
9016,642,CENTERPOINT RD (CR 234) - 1 MI E OF IH 35,Hays County,29.818613,-97.973999,
9016,643,W VALLEY SPRING RD (WOODCREEK N) - BETWEEN RAVINE TRL AND BASSWOOD CIR,Hays County,30.043716,-98.148209,
9016,644,YARRINGTON RD (CR 159) - 0.75 MILE EAST OF IH 35,Hays County,29.939224,-97.877205,
9016,645,YARRINGTON RD (CR 159) - JUST W OF CR 158 INTERSECTION,Hays County,29.927027,-97.862473,
9016,646,HILLIARD RD (CR 222) - JUST E OF VALLEY VIEW WEST DR,Hays County,29.948168,-97.960548,
9016,647,YARRINGTON RD (CR 159) - JUST W OF HARRIS HILL RD (CR 160),Hays County,29.929462,-97.865562,
9016,648,CLIMBING WAY - BETWEEN BLANCO DR AND BRINKLEY DR,Hays County,29.985308,-98.081856,
9016,649,FM 150 @ DRUE LN,Hays County,29.952993,-97.83786,
9016,650,MT SHARP RD BETWEEN LEDGEROCK AND MT OLIVE SCHOOL RD,Hays County,30.074924,-98.159424,
9016,651,MT SHARP RD @ JACOBS WELL RD,Hays County,30.03414,-98.122124,
9016,652,TWIN OAKS TRL JUST S OF MARTIN RD,Hays County,30.226315,-98.164856,
9016,653,E MT GAINOR RD 2 MI W OF RR 12,Hays County,30.146551,-98.121033,
9016,654,COVERED BRIDGE DR .2 MI S OF RANCHERS CLUB LN,Hays County,30.088882,-98.045303,
9016,655,ELM CREEK RD .2 MI W OF COTTONWOOD RD,Hays County,30.016211,-98.248688,
9016,656,OLD OAKS RANCH RD .25 MI W OF BRUNSON LN,Hays County,30.058887,-98.081787,
9016,657,STEPPING STONE XING .1 MI N OF WOLF CREEK PASS,Hays County,30.060617,-98.044113,
9016,658,G W Haschke Ln .8 MI S OF Fischer Store Rd ,Hays County,29.990133,-98.199738,
9016,659,Winn Valley Dr @ CR 1492,Hays County,29.96986,-98.102959,
9016,660,Commanche Waters .1 MI S OF Deer Lake Rd,Hays County,30.034817,-98.055359,
9016,661,Rancho Grande Dr .2 MI W OF FM 3237,Hays County,30.016235,-98.047096,
9016,662,CR 1492 1 MI West OF Winn Wood Rd,Hays County,29.976194,-98.097107,
9016,663,W RR 150 @ Onion Creek (Double Crossings),Hays County,30.083231,-98.008339,
9016,664,W RR 150 @ Onion Creek (Double Crossings),Hays County,30.084974,-98.013268,
9016,665,York Creek RD Near Soechting RD,Hays County,29.774179,-98.004822,
9016,716,Barton Springs Road,2000 W Barton Springs Road ,30.264969,-97.764992,
9016,920,Ramp from NB 183 to MoPac,Ramp from NB 183 to MoPac,30.378557,-97.738068,
9016,1028,200 Blk Lehman Road,City of Kyle,29.984184,-97.865913,
9016,1029,Scott St @ W 3rd St,City of Kyle,29.984274,-97.885918,
9016,1037,E Access S of Brent Blvd ,City of Kyle ,30.002956,-97.86602,
9016,1041,Creek Side Dr @ W Valley Spring Rd,Hays County ,30.034313,-98.146629,
9016,1085,IH 35 SB @ Blanco River,City of San Marcos ,29.911884,-97.898483,
9016,1089,HWY 80 @ Blanco River ,City of San Marcos ,29.879633,-97.910706,
9016,1092,HWY 21 @ CR 266,City of San Marcos,29.882484,-97.895767,
9016,1097,Old San Antonio @ 1626,Old San Antonio @ 1626,30.142878,-97.801559,
9016,1101,IH 35 SB @ San Marcos River,City of San Marcos,29.874996,-97.931763,
9016,1108,RR 12 @ Blanco River ,Hays County ,29.993595,-98.088638,
9016,1113,Darden Hill Rd @ Low Water Crossing,Hays County,30.153233,-98.021858,
9016,1117,Garrison Rd @ Onion Creek,City of Buda ,30.09465,-97.838821,
9016,1119,FM 621 @ HWY 123,City of San Marcos,29.865286,-97.938522,
9016,1120,FM 621 @ Picasso Dr ,Hays County ,29.84473,-97.918701,
9016,1121,Redwood Rd @ Hwy 123,City of San Marcos ,29.845764,-97.940414,
9016,1122,Redwood Rd @ Cottonwood Pkwy,City of San Marcos ,29.837578,-97.93206,
9016,1123,Centerpoint Rd East OF Old Bastrop Hwy (CR 266),Hays County ,29.813601,-97.968132,
9016,1124,Woodcreek Ranch Rd @ Lone Man Creek Dr,Hays County ,30.006845,-98.052094,
9016,1143,River Rd at Loma Vista,River Rd at Loma Vista,29.993029,-98.100533,
9016,1169,Convict Hill near Latta,Convict Hill near Latta,30.217197,-97.850754,
9016,1196,FM 32 S OF FM 473,Blanco County,30.020653,-98.330643,
9016,1378,Wayside Dr @ River Rd,Hays County ,29.985838,-98.107933,
9016,1394,West Access @ Heldenfels Concrete ,Hays County ,29.809183,-98.006706,
9016,1461,River Road Between Leveritts Loop & Rockwood Dr,Hays County ,29.991608,-98.103745,
9016,1483,RR 12 & Sports Park Rd ,Hays County ,30.185272,-98.086433,
9016,1484,RR 12 & Storm Ranch Rd ,Hays County ,30.102058,-98.095993,
9016,1485,W Hwy 290 @ McGregor LN ,Hays County ,30.206472,-98.143745,
9016,1490,Scudder Ln @ RR 12,Hays County ,30.013184,-98.104034,
9016,1491,Cypress Crk @ RR 12,Hays County ,29.996849,-98.097603,
9016,1492,Goforth Rd @ Cotton Gin Rd,Hays County ,29.999376,-97.834625,
9016,1493,300 Block of Mill Race Ln ,Hays County ,29.999655,-98.093407,
9016,1494,Yarrington Rd @ Hwy 21,Hays County,29.915997,-97.849213,
9016,1496,West Access @ Kohlers Xing,Hays County,30.02721,-97.851273,
9016,1497,FM 1626 N OF FM 967,Hays County ,30.099247,-97.875053,
9016,1498,Old Bastrop Hwy @ Hwy 123,City of San Marcos,29.830742,-97.942131,
9016,1499,FM 150 @ Moss Rose ln ,Hays County ,30.057116,-97.989655,
9016,1500,FM 1626 @ Cole Springs Rd,Hays County ,30.080069,-97.874641,
9016,1502,Garlic Creek Dr @ Talley Lp,City of Buda ,30.099506,-97.858871,
9016,1504,FM 2770 @ Buda Fire Station #1,City of Buda ,30.074072,-97.853378,
9016,1505,Whitetail Dr@ Hunter Rd ,Hays County,29.825994,-98.003174,
9016,1506,Windy Hill Rd @ East Access ,City of Kyle,30.035791,-97.844795,
9016,1508,5800 Block FM 2770,Hays County ,30.024014,-97.889923,
9016,1509,Waterleaf Blvd @ FM 150,City of Kyle ,29.961163,-97.845245,
9016,1510,FM 1966 @ Hwy 21,Caldwell County ,29.922729,-97.835999,
9016,1512,Wonder World Dr South of Stagecoach Trl ,City of San Marcos,29.862103,-97.959061,
9016,1513,High Rd @ Hwy 21,Hays County ,29.963634,-97.778,
9016,1515,Hwy 21 @ Cotton Gin Rd ,Hays County ,29.95763,-97.786476,
9016,1516,Aquarena Springs Dr @Sessom Dr ,City of San Marcos,29.888977,-97.934532,
9016,1518,Moore St @ Oscar Smith St ,City of San Marcos,29.885239,-97.949593,
9016,1519,River Rd @ Cape Rd,City of San Marcos,29.869963,-97.927925,
9016,1520,FM 1826 @ Towering Cedar Dr ,Hays County ,30.139467,-98.002426,
9016,1521,Jackman St @ Gravel St,City of San Marcos,29.875898,-97.943306,
9016,1522,300 Block LBJ Dr,City of San Marcos,29.879135,-97.939552,
9016,1523,Post Rd @ Uhland Rd,City of San Marcos,29.899097,-97.918823,
9016,1524,1500 Block IH35 N,City of San Marcos,29.833261,-97.979225,
9016,1525,Hunter Rd @ Foxtail Run,City of San Marcos,29.857412,-97.969528,
9016,1527,Hunter Rd @ McCarty Ln,City of San Marcos ,29.846466,-97.98011,
9016,1528,FM 1826 @ FM 967,Hays County,30.131914,-98.010147,
9016,1529,Thorpe Ln @ Big HEB,City of San Marcos ,29.886112,-97.925415,
9016,1530,High Rd @ GoForth Rd ,Hays County ,29.999285,-97.820251,
9016,1531,Cheatham St @ Rio Vista Park ,City of San Marcos,29.877554,-97.933548,
9016,1532,RR 12 @ Baptist Academy,Hays County ,29.903349,-97.991524,
9016,1534,Hopkins ST @ San Antonio ST,City of San Marcos,29.882484,-97.945457,
9016,1535,HWY 21@ Gary Job CORP,City of San Marcos,29.885975,-97.890671,
9016,1536,FM 2770 @ Cement Plant Rd,Hays County ,30.059864,-97.857071,
9016,1537,FM 2770 @ Meadow Woods Dr,Hays County ,30.020615,-97.889709,
9016,1538,Post Rd @ West Access ,City of Kyle,29.956236,-97.878143,
9016,1542,RR 12 @ Hugo Rd ,Hays County,29.916479,-98.048515,
9016,1545,Palomino Rd @ Foster Pl,Hays County ,30.023178,-97.800377,
9016,1548,HWY 80 @ River Rd ,City of San Marcos,29.880709,-97.91301,
9016,1549,RR 12 @ Wimberley Glass Works ,Hays County,29.916443,-98.048561,
9016,1553,University Dr @ CM Allen Pkwy ,City of San Marcos,29.885935,-97.936935,
9016,1554,River Rd @ Aquarena Springs Rd,City of San Marcos,29.893599,-97.900673,
9016,1555,N LBJ Dr @ W Sessom Dr,City of San Marcos,29.891516,-97.941353,
9016,1557,Old Stagecoach Rd @ Cemetary,Hays County,29.963764,-97.898697,
9016,1558,GoForth Rd N of Mondragon Ln,Hays County ,30.020725,-97.805763,
9016,1559,Green Meadows Ln @ Subdivision Park,City of Buda,30.062613,-97.815659,
9016,1560,RR 12 @ Rightwater Preserve ,Hays County ,30.14521,-98.089737,
9016,1566,RR 12 @ Little Barton Creek ,Hays County ,30.245073,-98.06105,
9016,1567,1116 Block Red Hawk Rd,Hays County ,30.005936,-98.02877,
9016,1568,1000 Block Lime Kiln Rd ,Hays County ,29.916721,-97.933418,
9016,1579,Bebee RD @ Fountain Grove Dr,City of Kyle ,30.01755,-97.847046,
9016,1581,Windy Hill Rd @ Indian Paintbrush Dr,Hays County ,30.031965,-97.837524,
9016,1586,800 Block Petras Way ,Hays County ,30.039286,-97.753281,
9016,1593,Spoke Hollow Rd @ Hidden Valley Rd ,Hays County,29.984119,-98.069054,
9016,1600,RR 12 @ Blanco River,Hays County,29.993856,-98.088623,
9016,1601,Hunter Rd @ Dixon St,City of San Marcos,29.871227,-97.958199,
9016,1602,Knox St @ Patton St.,City of San Marcos,29.870222,-97.94146,
9016,1603,Lime Kiln Rd @ Hillard Rd ,Hays County,29.921242,-97.935608,
9016,1604,S Mitchell St @ Gravel St,City of San Marcos,29.87253,-97.946098,
9016,1605,Cole Springs Rd @ FM 967,Hays County,30.085917,-97.848961,
9016,1608,FM 150 @ Sierra West PHASE 2&3,Hays County,30.059847,-97.989937,
9016,1609,Bliss Spillar Rd @ Chaparral Rd,Hays County ,30.138557,-97.874512,
9016,1617,Apple Blossom St @ Dacy ln,Hays County,30.047428,-97.828583,
9016,1624,Cotton Gin Rd @ Summer Sun Cv,Hays County,29.960678,-97.789948,
9016,1628,CR 158 West of Drue Dr,Hays County,29.94692,-97.845329,
9016,1629,Goforth Rd @ Sunrise Dr,Hays County,30.006929,-97.829376,
9016,1631,Kyle Crossing behind 3rd coast auto,City of Kyle,30.018225,-97.858627,
9016,1640,Uhland Rd @ Low Water Crossing,San Marcos/Hays County,29.894661,-97.900597,
9016,1641,Cape Rd @ San Marcos River,City of San Marcos,29.869444,-97.930176,
9016,1772, Niederwald Strasse Rd @ Camino Real,Hays County ,30.009392,-97.728111,
9016,1781,River Rd @ Loma Vista ,Hays County,29.993076,-98.100525,
9016,1801,WoodCreek Dr @ Cypress Point,Hays County,30.021112,-98.117538,
9016,1819,200 Blk Roland Ln,City of Kyle ,29.960945,-97.878647,
9016,1861,213 S. CM Allen Pkwy (Children,City of San Marcos ,29.880699,-97.936417,
9016,1863,120 Bert Brown St (San Marcos Treatment Center Entrance),City of San Marcos ,29.896421,-97.926392,
9016,1899,Lehman @ Hallie Dr,City Of Kyle ,29.99169,-97.857574,
9016,1900,1200 blk Roland Ln,City Of Kyle,29.968817,-97.888031,
9016,1908,LUCIANO FLORES BLVD @ CAPE RD ,City of San Marcos ,29.868261,-97.935715,
9016,1910,2200BLK RIVER,City of San Marcos ,29.888996,-97.903717,
9016,1919,FM 967 @ BRANGUS RD,Hays County,30.117086,-97.983673,
9016,1925,Old Bastrop Hwy @ Capistrano Dr,Hays County,29.831541,-97.936638,
9016,1938,N Old Stagecoach Rd- S of Rebel Rd,City of Kyle ,30.011984,-97.89209,
9016,1951,HWY 21 BRIDGE N OF ROHDE RD, Hays County ,29.999559,-97.741821,
9016,2007,Goforth Rd @ Bebee Rd,Hays County ,30.00532,-97.827393,
9016,2008,FM 1826 North of Kemp Hills Dr ,Hays County,30.16815,-97.941093,
9016,2016,N OLD BASTROP HWY @ BLIND SALAMANDER TRL,Hays County,29.857264,-97.897003,
9016,2029,FM 2001 @ GRAEF RD,Hays County ,30.026011,-97.76001,
9016,2034,WINDY HILL RD @ MATHIAS LN,Hays County ,30.036617,-97.805237,
9016,2052,FM 150 E @ DRUE DR,Hays County,29.953373,-97.837845,
9016,2054,Bell Springs Rd @ Russell Ln ,Hays County,30.208138,-98.11869,
9016,2056,3800 BLK DACY LN,Kyle PD,30.024515,-97.830933,
9016,2063,RR 150 W @ ONION CREEK,Hays County,30.14357,-98.04879,
9016,2080,Flite Acres Rd @ Spoke Ln,Flite Acres Rd @ Spoke Ln,29.986467,-98.076477,
9016,2083,River Rd @ Leveritts Loop ,Hays County ,29.991392,-98.104233,
9016,2091,Mathias ln @ Running Bull LN ,Hays County ,30.010584,-97.791176,
9016,2093,William Pettus/Low water,william pettus/william pettus ct,29.895781,-97.843056,
9016,2097,Main St @ Campo Del Sol Parkway ,City of Buda ,30.088556,-97.806145,
9016,2120,Read St (between Moore & Academy),Read St (between Moore & Academy),29.888699,-97.951332,
9016,2163,200blk of creek rd,200blk of creek rd,30.190479,-98.094276,
9016,2171,RR 12 at Fulton Ranch Rd,RR 12 at Fulton Ranch Rd,29.908871,-98.00901,
9016,2303,Hwy 21@ Rohde rd ,Hays County ,29.995295,-97.747337,
9016,2304,Hwy 21 @ E FM 150,Hays County ,29.934534,-97.817825,
9017,225,2800 Cedar Hollow,Williamson County,30.645544,-97.770767,
9017,226,495 Coyote Trl,Williamson County,30.718824,-97.727203,
9017,227,2009 Great Oaks Dr,Williamson County,30.531857,-97.738487,
9017,228,2724 Hairy Man,Williamson County,30.522415,-97.715004,
9017,229,30112 Live Oak Trl,Williamson County,30.75666,-97.664383,
9017,230,303 E Oak St,Williamson County,30.722553,-97.439552,
9017,231,2080 Rancho Bueno,Williamson County,30.646746,-97.758873,
9017,232,4553 Sam Bass Rd,Williamson County,30.53838,-97.751137,
9017,233,421 San Gabriel Ranch,Williamson County,30.719286,-97.907944,
9017,234,2235 Walsh Dr,Williamson County,30.535311,-97.748856,
9017,236, FM 1460 / CR 166,Williamson County,30.600025,-97.667328,
9017,237,CR 305,Williamson County,30.82645,-97.639954,
9017,238,930' EAST OF CR 339 / CR 124,Williamson County,30.666122,-97.493324,
9017,239,1250' WEST OF SPARROW RD / COYOTE TRL,Williamson County,30.527435,-97.551743,
9017,240,CR 199,Williamson County,30.54162,-97.536133,
9017,241,CR 428 / FM 1331,Williamson County,30.679565,-97.321938,
9017,242,CR 100 & Little Mankins,Williamson County,30.645424,-97.584511,
9017,243,SW CARLOS G PARKER BLVD / S RIO GRANDE,Williamson County,30.559025,-97.41861,
9017,244,77' WEST OF BULL RUN / MALLARD LN,Williamson County,30.588831,-97.425148,
9017,245,CR 366,Williamson County,30.595577,-97.446129,
9017,246,S RAINBOW BRG / S RAINBOW BRG,Williamson County,30.509405,-97.819885,
9017,247,S KINGS CANYON DR / S KINGS CANYON DR,Williamson County,30.508297,-97.820381,
9017,248,S KINGS CANYON DR / S KINGS CANYON DR,Williamson County,30.508909,-97.820808,
9017,250,482' SOUTH OF LONE STAR DR / BARON LN,Williamson County,30.515364,-97.832993,
9017,251,289' WEST OF ROYAL LN / CEDAR PARK DR,Williamson County,30.511145,-97.835503,
9017,252, DEWBERRY DR / CEDAR PARK DR,Williamson County,30.507669,-97.843376,
9017,255,CR 328,Williamson County,30.716707,-97.5345,
9017,256,CR 328,Williamson County,30.71892,-97.532127,
9017,257,600' SOUTH OF FM 972 / CR 329,Williamson County,30.741217,-97.57048,
9017,258,CR 200 / CR 236,Williamson County,30.769682,-97.957932,
9017,259,CR 200 / CR 236,Williamson County,30.768627,-97.961227,
9017,260, CR 194 / CR 140,Williamson County,30.689175,-97.61026,
9017,261,FM 1105 / CR 149,Williamson County,30.703566,-97.592049,
9017,262,CR258 @ Tejas Park,Williamson County,30.696257,-97.828827,
9017,264,CR 246 / CR 245,Williamson County,30.760435,-97.786789,
9017,265, CR 245 / CR 246,Williamson County,30.759169,-97.698227,
9017,266,CR 251 / CR 250,Williamson County,30.772371,-97.83757,
9017,267,CR 252 / CR 251,Williamson County,30.781549,-97.831665,
9017,268, CR 215,Williamson County,30.786821,-97.859642,
9017,269,CR 220,Williamson County,30.814713,-97.855255,
9017,270,CR 223 @ CR 220,Williamson County,30.835573,-97.851135,
9017,271,CR 388,Williamson County,30.76512,-97.597519,
9017,272,CR 471,Williamson County,30.517832,-97.270447,
9017,273,6530,Williamson County,30.47377,-97.189087,
9017,276, CR 481 / CR 482,Williamson County,30.47377,-97.189087,
9017,277,CR 475 / CR 476,Williamson County,30.465225,-97.237099,
9017,278, CR 474 / CR 476,Williamson County,30.463282,-97.243347,
9017,279,CR 467 / CR 484,Williamson County,30.42527,-97.287018,
9017,280, 484 / CR 491,Williamson County,30.416157,-97.302071,
9017,281, CR 462 / CR 460,Williamson County,30.441532,-97.370033,
9017,282,CR 453 / CR 483,Williamson County,30.509468,-97.375343,
9017,283, CR 134 / CR 132,Williamson County,30.538054,-97.523163,
9017,284, CR 373 / CR 398,Williamson County,30.576965,-97.455391,
9017,285, CR 101,Williamson County,30.60317,-97.505623,
9017,286, CR 130,Williamson County,30.59548,-97.554382,
9017,287, CR 123/ BRUSHY CREEK,Williamson County,30.530931,-97.589828,
9017,288,2932 ft WEST OF CR 175 / CR 179,Williamson County,30.565344,-97.785728,
9017,289, CR 177,Williamson County,30.573837,-97.789879,
9017,290,CR 285 / CR 284,Williamson County,30.641748,-98.009323,
9017,291,2500 ft WEST OF CR 126 / CR 121,Williamson County,30.658648,-97.561203,
9017,292, CR 124,Williamson County,30.677382,-97.540604,
9017,293,CR 327 / CR 336,Williamson County,30.701258,-97.456551,
9017,294,CR 327 / CR 336,Williamson County,30.702188,-97.456909,
9017,295,CR 346 / CR 347,Williamson County,30.702131,-97.434166,
9017,296,CR 327 / CR 380,Williamson County,30.706284,-97.484375,
9017,298, RONALD RD / PATRIOT WAY,Williamson County,30.628939,-97.610481,
9017,299, Big Mankins/ CR 100,Williamson County,30.640711,-97.580414,
9017,300,CR 348 / CR 347,Williamson County,30.714729,-97.426888,
9017,301, CR 353 / CR 350,Williamson County,30.764271,-97.408478,
9017,302,1580 ft NORTH OF FM 971 / CR 335,Williamson County,30.709368,-97.472336,
9017,303, CR 300 / CR 326,Williamson County,30.721638,-97.471275,
9017,304,0.5 MILE WEST OF SH 95 / CR 325,Williamson County,30.73579,-97.447197,
9017,305, CR 321 / CR 382,Williamson County,30.77158,-97.531715,
9017,306, CR 314 / CR 315,Williamson County,30.789936,-97.592148,
9017,307,FM 487 / CR 303,Williamson County,30.820198,-97.556557,
9017,308, WALSH DR / SAM BASS RD,Williamson County,30.538378,-97.751106,
9017,309, CR 234 / CR 143,Williamson County,30.7309,-97.656326,
9017,310,1480 ft NORTH OF CR 147 / CR 234,Williamson County,30.74297,-97.664925,
9017,311,1060 ft SOUTH OF CR 146 / CR 234,Williamson County,30.750736,-97.663589,
9017,312,234 / CR 239,Williamson County,30.773506,-97.680244,
9017,313, CR 234 / LIVE OAK TRLS,Williamson County,30.756662,-97.664352,
9017,314,SPEARS RANCH RD / CR 305,Williamson County,30.828339,-97.642883,
9017,315, FM 487 / CR 232,Williamson County,30.827089,-97.694443,
9017,316,FM 487 / CR 232,Williamson County,30.82814,-97.693382,
9017,317,CR 308 / CR 307,Williamson County,30.859653,-97.617378,
9017,318,FM 487 / CR 232,Williamson County,30.847746,-97.725784,
9017,319, CR 230 / CR 229,Williamson County,30.856525,-97.766731,
9017,320,CR 223 / CR 221,Williamson County,30.84042,-97.868492,
9017,321, CR 241 / CR 245,Williamson County,30.775003,-97.790596,
9017,322, CR 249 / CR 245,Williamson County,30.765099,-97.786469,
9017,323, CR 236 / CR 208,Williamson County,30.816826,-97.930092,
9017,324, CR 204 / CR 200,Williamson County,30.754763,-97.936462,
9017,325,SAN GABRIEL RANCH RD / SAN GABRIEL RANCH RD,Williamson County,30.707323,-97.909195,
9017,326, BRUSHY CREEK RD / BRUSHY BEND DR,Williamson County,30.519209,-97.745033,
9017,327,WEST OF BRUSHY BEND DR / BRUSHY CREEK RD,Williamson County,30.518866,-97.745857,
9017,328,CR 272/BRUSHY CREEK,Williamson County,30.539675,-97.779129,
9017,329, KAUFFMAN LOOP / CR 267,Williamson County,30.617039,-97.845818,
9017,330,CR 281 / CR 279,Williamson County,30.628489,-97.904335,
9017,331, CR 346 / CR 279,Williamson County,30.701603,-97.419357,
9017,332, CR 347 / CR 348,Williamson County,30.708214,-97.422028,
9017,333,840 ft NORTH OF CR 438 / CR 434,Williamson County,30.553251,-97.229271,
9017,334,1390 ft SOUTH OF CR 436 / CR 434,Williamson County,30.555593,-97.231003,
9017,335,250 ft EAST OF CR 436 / CR 434,Williamson County,30.558199,-97.233002,
9017,336,CR 414 / CR 424,Williamson County,30.623293,-97.310989,
9017,337,470 ft WEST OF CR 417 / CR 416,Williamson County,30.652655,-97.365608,
9017,338,CR 493 / CR 361,Williamson County,30.702215,-97.282036,
9017,339,CR 363,Williamson County,30.737436,-97.287689,
9017,340,CR 350 / CR 351,Williamson County,30.775734,-97.396248,
9017,341,SH 95 / CR 351,Williamson County,30.784943,-97.426132,
9017,342, N RED BUD LN / N CR 122,Williamson County,30.553429,-97.609543,
9017,343, LIMMER LOOP / CR 108,Williamson County,30.555363,-97.571274,
9017,344,US 79 / CR 110,Williamson County,30.53639,-97.601257,
9017,345,385 ft CR 160 / CR 101,Williamson County,30.584658,-97.497696,
9017,346,1122 ft WEST OF CR 101 / CR 369,Williamson County,30.582775,-97.493073,
9017,347,2300 ft EAST OF CR 368 / CR 369,Williamson County,30.594105,-97.468796,
9017,348,142 MAIN ST / CR 365,Williamson County,30.612009,-97.425888,
9017,349,1370 ft SOUTH OF FM 972 / CR 301,Williamson County,30.759796,-97.46962,
9017,350,CR 384 / CR 321,Williamson County,30.773142,-97.516914,
9017,351,CR 382 / CR 321,Williamson County,30.773922,-97.523506,
9017,352, CR 302 / CR 343,Williamson County,30.776949,-97.496445,
9017,353, CR 302 / CR 384,Williamson County,30.786507,-97.51107,
9017,354, 487 / CR 384,Williamson County,30.808092,-97.503098,
9017,355,1465 ft NORTH OF FM 487 / CR 303 NORTH OF FM 487,Williamson County,30.835255,-97.562256,
9017,356,CR 140 / CR 149,Williamson County,30.699381,-97.605507,
9017,357, CR 152 @ LONNIE THOMAS,Williamson County,30.667727,-97.649773,
9017,358, CR 202 / CR 200,Williamson County,30.737272,-97.936562,
9017,359,CR 140 / CR 149,Williamson County,30.697081,-97.612869,
9017,360,SH 29 / CR 266,Williamson County,30.617039,-97.845818,
9017,361, FM 1331 / CR 428,Williamson County,30.679565,-97.321938,
9017,362,CR 137 / CR 137,Williamson County,30.50757,-97.548454,
9017,363,CR 105 / CR 105,Williamson County,30.615997,-97.58625,
9017,364,FM 1660 AT COTTONWOOD CREEK / FM 1660,Williamson County,30.51236,-97.527565,
9017,365,FM 685 AT BRUSHY CREEK / FM 685,Williamson County,30.52635,-97.566811,
9017,366,CR 129 AT BRUSHY CREEK / CR 129,Williamson County,30.489567,-97.499069,
9017,694,CR 272,CR 272 @ San Gabriel River,0,0,
9017,716,Barton Springs Road,2000 W Barton Springs Road ,30.264969,-97.764992,
9017,718,CR 473 South of CR 112,CR 473 South of CR 112,30.518572,-97.247803,
9017,719,Patricia @ Deer Draw,Patricia @ Deer Draw,30.588125,-97.766129,
9017,920,Ramp from NB 183 to MoPac,Ramp from NB 183 to MoPac,30.378557,-97.738068,
9017,955,FM 112 & FM 486,15400 FM 112,30.491579,-97.200211,
9017,970,CR 152 West of CR 140,CR152 west of CR140,30.693113,-97.629105,
9017,971,CR 442,CR442,30.504276,-97.187691,
9017,972,CR 464,CR464,30.454397,-97.327324,
9017,973,CR 467,CR467,30.452242,-97.296127,
9017,1015,CR 175 / Vista Isle,CR175/Vista Isle,30.547762,-97.762054,
9017,1035,CR 438 West CR 437,CR438 west of CR437,30.658031,-97.22673,
9017,1040,CR 147 east of CR 234,CR147 east of CR234,30.741179,-97.657639,
9017,1084,CR 201,CR 201,30.734472,-97.978905,
9017,1097,Old San Antonio @ 1626,Old San Antonio @ 1626,30.142878,-97.801559,
9017,1115,FM 1660 / HWY 29,"FM 1660, HWY 29",30.635281,-97.542717,
9017,1118,CR 270,CR 270,30.616421,-97.846596,
9017,1143,River Rd at Loma Vista,River Rd at Loma Vista,29.993029,-98.100533,
9017,1169,Convict Hill near Latta,Convict Hill near Latta,30.217197,-97.850754,
9017,1176,1100 CR 450,1100 CR 450,30.539791,-97.292862,
9017,1178,800 blk CR 139,800 blk CR139,30.489376,-97.537354,
9017,1179,CR 123 @ Twin Ridge Pkwy,CR123 @ Twin Ridge Pkwy,30.528866,-97.604385,
9017,1180,4000 blk CR405,4000 blk CR405,30.471769,-97.437141,
9017,1181,CR406 @ CR407,CR406 @ CR407,30.502846,-97.418816,
9017,1182,CR404,CR404,30.532572,-97.436241,
9017,1183,CR448,CR448,30.548414,-97.320244,
9017,1184,CR421,CR421,30.693382,-97.201279,
9017,1185,CR429,CR429,30.710455,-97.0812,
9017,1186,CR349,CR349,30.714083,-97.401009,
9017,1187,CR 417 @ Turkey Creek,CR 417 @ Turkey Creek,30.653259,-97.357239,
9017,1194,CR 226,CR226,30.83602,-97.814201,
9017,1351,CR 256,CR 256,30.702238,-97.862946,
9017,1374,CR 385,CR 385,30.739199,-97.429527,
9017,1575,1660 West of 95,1660 West of 95,30.476223,-97.43766,
9017,1578,Brushy Crk & Champion Park,3830 Brushy Creek Rd,30.511795,-97.762207,
9017,1584,Indian Creek & Long Knife,Indian Crk & Long Knife,30.637003,-97.634315,
9017,1596,CR 324 & CR 342,CR 324 & CR 342,30.74008,-97.494026,
9017,1767,CR 477,CR 477,31.209778,-97.080772,
9017,1773,CR 337 @ HWY 29,CR 337 @ HWY 29,30.643402,-97.456779,
9017,1774,CR 337 @ CR 124,CR 337 @ CR 124,30.666071,-97.466133,
9017,1778,CR 356,CR 356,30.734707,-97.373032,
9017,1779,CR 230,CR 230,30.871168,-97.750427,
9017,1800,FM 619 & CR 415,FM 619 & CR 415,30.643354,-97.390236,
9017,1802,CR 333 & FM 971,CR 333 & FM 971,30.684809,-97.503838,
9017,1803,CR 314,CR 314,30.794815,-97.601936,
9017,1813,CR 426,CR 426,30.628513,-97.241882,
9017,1816,CR 428,CR 428,30.69486,-97.27887,
9017,1845,CR 494,CR 494,30.700129,-97.259216,
9017,1859,CR 418,CR 418,30.660755,-97.34668,
9017,1860,CR 463,CR 463,30.43812,-97.352257,
9017,1872,CR 255,CR 255,30.751747,-97.853767,
9017,1873,CR 257,CR 257,30.698648,-97.869514,
9017,1874,CR 215,CR 215,30.823446,-97.985001,
9017,1916,CR 358,CR 358,30.74371,-97.347923,
9017,1917,CR 490,CR 490,30.430979,-97.274529,
9017,1918,CR 418,CR 418,30.742809,-97.270882,
9017,1922,CR 340,CR 340,30.689791,-97.478989,
9017,1923,CR 469,CR 469,30.47007,-97.312004,
9017,1924,CR 472,CR 472,30.487789,-97.261452,
9017,2011,CR 493 / CR 428,CR 493 / CR 428,30.706215,-97.267235,
9017,2014,CR 243,CR 243,30.793819,-97.806656,
9017,2017,CR 318,CR 318,30.769127,-97.544739,
9017,2018,CR 331,CR 331,30.749641,-97.548813,
9017,2019,CR 348,CR 348,30.695335,-97.388809,
9017,2020,CR 367,CR 367,30.597361,-97.445572,
9017,2021,CR 347,CR 347,30.651731,-97.428665,
9017,2022,CR 208,CR 208,30.815859,-97.055229,
9017,2023,CR 258,CR 258,30.941959,-96.797569,
9017,2024,CR 340,CR 340,30.687832,-96.843758,
9017,2025,CR 333,CR 333,30.605671,-96.707848,
9017,2026,CR 350,CR 350,30.787683,-96.734222,
9017,2027,CR 351,CR 351,30.76314,-96.646523,
9017,2254,HWY 29 & CR 366,HWY 29 & CR 366,30.635134,-97.476112,
9018,1203,Schulze Rd ,"Schulze Rd at Guettermann Ehler Rd, Schulenburg, TX 78956",29.764311,-96.999619,
9018,1204,Anders Bottom Rd ,"5105 Anders Bottom Rd, La Grange, TX 78945",29.830805,-96.826996,1 1/4 mi S of FM 155
9018,1205,Baumgarten Rd ,"1000 Baumgarten Rd, Schulenburg, TX 78956",29.66787,-96.956383,"at Brushy Creek, near Wolters Rd"
9018,1206,Bilimek Rd ,"399 Billimk Rd, Schulenburg, TX 78956",29.676725,-96.878899,off of Billimek Rd near Oakland Rd
9018,1207,Bohuslav Rd ,"Bohuslav Rd & Anders Bottom Rd, La Grange, TX 78945",29.813789,-96.836906,
9018,1208,Brandt River Bottom Rd ,"9100 Brandt River Bottom Rd, La Grange, TX 78945",29.824234,-96.782684, 3/4 mi NE of FM 155
9018,1209,Bruno Rd ,"2998 Bruno Rd, Schulenburg, TX 78956",29.745979,-96.949646,near FM 956
9018,1210,Bryant Rd ,"1198 Bryant Rd, Schulenberg, TX 78956",29.703325,-96.969498,"at Rocky Creek, 3/4 mi N of IH 10"
9018,1211,Clark Ln ,"100 Clark Ln, Schulenberg, TX 78956",29.664957,-96.919731,near FM 957
9018,1212,Gebert Rd ,"6000 Gebert Rd, Schulenburg, TX 78956",29.7682,-97.011337,between Salem Freyburg Rd & Schulze 
9018,1213,Guenther Rd ,"2000 Guenther Rd, La Grange, TX 78945",29.869698,-96.855621,at Lane Pool Creek
9018,1215,Krischke Rd ,"6000 Krischke Rd, Schulenburg, TX 78956",29.738708,-96.967438,near FM 2238
9018,1216,Lane Pool Rd ,"1010 Lane Pool Rd, La Grange, TX 78945",29.870905,-96.836411,at Lane Pool Creek
9018,1217,Lidiak Rd ,"3000 Lidiak Rd, La Grange, TX 78945",29.814957,-96.863083,1/2 mi E of Radhost School Rd
9018,1218,Loehr Rd ,"9000 Loehr Rd, La Grange, TX 78945",29.852669,-96.80835,near Mullins Prairie Loop
9018,1219,Mensik Rd ,"4800 Mensik Rd, Schulenburg, TX 78956",29.74983,-96.864502,"at East Navidad River, near Middle Creek Rd"
9018,1220,Munke Rd ,"6125 Munke Rd, La Grange, TX 78945 ",29.831059,-96.847633,at Williams Creek
9018,1221,Oakland Rd ,"1840 Oakland Rd, Schulenburg, TX 78956",29.669636,-96.876198,near Bilimek Rd
9018,1222,Oakland Rd ,"3868 Oakland Rd, Schulenburg, TX 78956",29.658689,-96.855209,at East Navidad River
9018,1223,Ohnheiser Kaase Rd ,"8700 Ohnheiser Kaase Rd, Schulenburg, TX 78956",29.795063,-96.952095,near Niesner Rd
9018,1224,Petter Rainosek Loop (south) ,"5299 Petter Rainosek Loop, La Grange, TX 78945",29.848938,-96.895187,near Kruppa Rd
9018,1225,Schilhab Bottom Loop ,"4500 Schilhab Bottom Loop, Schulenburg, TX 78956",29.750624,-96.974731,near FM 2238
9018,1226,Seidel Rd ,"3558 Seidel Rd, Schulenburg, TX 78956",29.70579,-96.955742,at West Navidad Creek
9018,1227,Seydler Rd ,"9700 Seydler Rd, La Grange, TX 78945",29.808804,-96.777687,1 1/4 mi SE of Brandt River Bottom Rd
9018,1228,Piano Bridge Rd ,"3200 Piano Bridge Rd, Schulenburg, TX 78956",29.72386,-96.850853,at East Navidad
9018,1229,Bartons Creek Rd ,"Bartons Creek Rd, Smithville, TX 78957",29.958767,-97.111908,3/4 mi S of S Kirtley Rd
9018,1230,Bell Settlement Rd ,"1500 Bell Settlement Rd, Ledbetter, TX 78946",30.115679,-96.807854,near Wendler Rd
9018,1231,Camelback Rd ,"1950 Camelback Rd, La Grange, TX 78945",30.025095,-97.033607,at Little Pin Oak Creek
9018,1232,Davis Rd ,"3000 Davis Rd, Muldoon, TX 78949",29.877958,-97.060089,at Jack Young Creek
9018,1233,Owl Creek Rd ,"1642 Owl Creek Rd, La Grange, TX 78945",30.049114,-96.893555,at Rabbs Creek
9018,1234,Spring Branch Ln ,"2200 Spring Branch Ln, La Grange, TX 78945",29.987932,-97.017456,at Spring Branch Creek
9018,1235,West Point Loop ,"1098 W Point Loop, West Point, TX 78963",29.950809,-97.028481,at Criswell Creek
9018,1236,Airport Rd ,"3600 Airport Rd, La Grange, TX 78945",29.875782,-96.931297,near FM 609
9018,1237,Burke Rd ,"2600 Burke Rd, Flatonia, TX 78941",29.713629,-97.135796,near FM 2762
9018,1238,Creamer Creek Rd ,"5435 Creamer Creek Rd, La Grange, TX 78945",29.860077,-96.924736,at Creamer Creek
9018,1239,Dozier Rd ,"5400 Dozier Rd, Flatonia, TX 78941",29.723896,-97.195892,at Little Five Mile Creek
9018,1240,Ehler Grasshoff Rd ,"Ehler-Grasshoff Rd, Flatonia, TX 78956",29.742416,-97.043289,at Cold Creek
9018,1241,Elm Creek Rd ,"4154 Elm Creek Rd, Waelder, TX 78959",29.775389,-97.278183,at Elm Creek
9018,1242,Farek Loth Rd ,"4713 Farek-Loth Rd, Schulenburg, TX 78956",29.72043,-97.030907,near Olle Ln
9018,1243,Father Anders Loop ,"300 Father Anders Loop, Waelder, TX 78959",29.754507,-97.255203,near FM 1115
9018,1244,Freyburg Engle Rd ,"1900 Freyburg-Engle Rd, Schulenburg, TX 78956",29.709305,-97.019188,at Cold Creek
9018,1245,Freyburg Engle Rd ,"1500 Freyburg-Engle Rd, Schulenburg, TX 78956",29.703732,-97.021317,at Rocky Creek
9018,1246,Hurlock Rd ,"10599 Hurlok Rd, Muldoon, TX 78949",29.865511,-97.150253,at Buckners Creek
9018,1247,Jeddo Rd ,"6750 Jeddo Rd, Waelder, TX 78959",29.818254,-97.254112,at Peach Creek
9018,1248,Jurica Rd ,"3010 Jurica Rd, Schulenburg, TX 78956",29.651196,-97.021851,at Mulberry Creek
9018,1250,Ladewig Ln ,"Ladewig Ln, Schulenburg, TX 78956",29.701662,-97.039963,at Rocky Creek Rd
9018,1251,Louis Herzik Rd ,"8240 Louis Herzik Rd, Schulenburg, TX 78956",29.680021,-97.026833,at Brushy Creek
9018,1252,Maynard Hallmark Rd ,"5600 Maynard Hallmark Rd, Waelder, TX 78959",29.783844,-97.259644,at Father Anders Loop
9018,1253,Mulberry Creek Rd ,"2600 Mulberry Creek Rd, Flatonia, TX 78941",29.673367,-97.083008,at Mulberry Creek
9018,1254,S Old Smithville Rd ,"3100 S Old Smithville Rd, Texas",29.797997,-97.135643,near Cherry Rd
9018,1255,S Old Smithville Rd ,"S Old Smithville Rd, Flatonia, TX 78941",29.826315,-97.139442,near Holstein Rd
9018,1256,N Old Smithville Rd ,"1200 N Old Smithville Rd, Muldoon, TX 78949",29.851349,-97.133881,near FM 2237
9018,1257,Old Waelder Rd ,"4800 Old Waelder Rd, Flatonia, TX 78941",29.694319,-97.185829,near Webb Ln
9018,1258,E Parker Rd ,"1492 E Parker Rd, Flatonia, TX 78941",29.769745,-97.079895,at Pin Oak Creek
9018,1259,Parkerville Rd ,"1507 Parkerville Rd, Muldoon, TX 78949",29.808664,-97.115257,at Live Oak Creek
9018,1260,Pavlica Rd ,"3086 Pavlica Rd, Flatonia, TX 78941",29.718809,-97.163322,1/2 mi N of FM 2762
9018,1261,Pine Springs Rd ,"2109 Pine Springs Rd, Flatonia, TX 78941",29.709864,-97.05262,at Rocky Creek
9018,1262,Rauder Rd ,"2690 Rauder Rd, Muldoon, TX 78949",29.870218,-97.153214,at Buckners Creek
9018,1263,Salem Freyburg Rd ,"7000 Salem-Freyburg Rd, Schulenburg, TX 78956",29.75013,-97.033913,at Cold Creek
9018,1264,Smith Marek Rd ,"3386 Smith-Marek Rd, Schulenburg, TX 78956",29.637358,-97.001511,"at Mulberry Creek, 1/2 mi N of County Line Rd"
9018,1265,Sparta Field Rd ,"2881 Sparta Field Rd, Waelder, TX 78959",29.723412,-97.23291,at Pin Oak Creek
9018,1267,Zimmermann Ln ,"1046 Zimmermann Ln, La Grange, TX 78945",29.841038,-96.94207,1/4 mi SE of FM 609
9018,1268,Round Top Rd ,"Round Top Rd, Carmine, TX 78932",30.113024,-96.744064,3/4 mi NW of Schoenst Rd
9018,1269,Round Top Rd ,"Round Top Rd, Carmine, TX 78932",30.100958,-96.734428,"at Cedar Creek, 1/4 mi SE of Schoenst Rd"
9018,1271,Albers Rd ,"900 Albers Rd, Round Top, TX 78954",30.059515,-96.785408,NE of Waldeck Cemetery Rd
9018,1272,Hills Rd ,"2330 Hills Rd, Carmine, TX 78932",30.125071,-96.715797,"at Buck Creek & Cedar Creek, near Carmine Cemetery Rd"
9018,1273,Wunderlich Rd ,"3080 Wunderlich Rd, Fayetteville, TX 78940",29.991854,-96.614159,1 mi NW of FM 954
9018,1274,Wunderlich Rd ,"2400 Wunderlich Rd, Fayetteville, TX 78940",29.983192,-96.612572,1/2 mi NW of FM 954
9018,1275,Willow Springs Bridge,"444 Willow Springs Rd, Fayetteville, TX 78940",29.954845,-96.63353,at Cummins Creek
9018,1276,Minarcik Rd ,"Minarcik Rd, New Ulm, TX 78950",29.958265,-96.589134,at Willow Branch
9018,1277,Kovar Rd ,"4026 Kovar Rd, Fayetteville, TX 78940",29.931026,-96.624779,at Cummins Creek
9018,1278,Rek Hill Rd ,"1421 Rek Hill Rd, Fayetteville, TX 78940",29.915571,-96.629501,"at Allen Creek, near Josie Ln"
9018,1279,Brushy Rd ,"2675 Ross Prairie Rd, Fayetteville, TX 78940",29.877438,-96.662354,near FM 2503
9018,1280,Jurekca Rd ,"750 Jurecka Rd, Fayetteville, TX 78940",29.893847,-96.703804,near Vasut Rd
9018,1281,Wolff Rd ,"2024 Wolff Rd, Round Top, TX 78954",30.061186,-96.655464,3/4 mi SW of FM 1457
9018,1282,N Nassau Rd ,"901 N Nassau Rd, Round Top, TX 78954",30.037617,-96.645569,3/4/ mi NE of Noak Rd
9018,1283,Gebhard Rd ,"6300 Gebhard Rd, Fayetteville, TX 78940",30.001312,-96.666145,"at Cummins Creek, 1/2 mi NW of FM 954"
9018,1284,Gebhard Rd ,"8519 Gebhard Rd, Round Top, TX 78954",30.008059,-96.640785,1/2 mi NW of FM 389
9018,1285,Noak Rd ,"3730 Noak Rd, Round Top, TX 78954",30.031691,-96.657608,near Nassau Rd
9018,1286,Kneip Rd ,"923 Kneip Rd, Round Top, TX 78954",30.056654,-96.684494,"at Rocky Creek, NW of Hackemack Rd"
9018,1287,Bauer Rd ,"8615 Bauer Rd, Fayetteville, TX 78940",29.987169,-96.769791,NW of SH 237
9018,1288,Bauer Rd ,"7223 Bauer Rd, Fayetteville, TX 78940",29.980183,-96.750259,1 mi E of SH 237
9018,1289,Biegel Rd ,"Biegel Rd, Fayetteville, TX 78940",29.872675,-96.727882,3/4 mi NW of FM 955
9018,1291,Coufal Rd ,"1060 Coufal Rd, Fayetteville, TX 78940",29.951349,-96.648018,1 mi NW of SH 159
9018,1292,Florida Chapel Rd ,"Florida Chapel Rd, Round Top, TX 78954",30.013075,-96.696213,1/4 mi N of FM 954
9018,1293,Halamicek Loop North,"6050 Halamicek Loop, Fayetteville, TX 78940",29.981316,-96.694817,near FM 1291
9018,1294,Halamicek Loop South,"9198 Halamicek Loop, Fayetteville, TX 78940",29.986668,-96.709984,near FM 1291
9018,1295,Halstedt Rd ,"1362 Halstedt Rd, La Grange, TX 78945",29.911163,-96.77404,at Baylor Creek
9018,1296,Halstedt Rd ,"1242 Halstedt Rd, La Grange, TX 78945",29.913155,-96.776314,near Tietjen Rd
9018,1297,Hattermann Rd ,"751 Hatterman Rd, La Grange, TX 78945",29.905788,-96.796333,1/4 mi W of Baumbach Rd
9018,1298,Haw Creek Rd ,"2726 Haw Creek Rd, Fayetteville, TX 78940",29.962914,-96.679878,near FM 1291
9018,1299,Janssen Ln ,"2709 Janssen Ln, La Grange, TX 78945",29.930933,-96.859009,3/4 mi NW of SH 159
9018,1300,Joiner Rd ,"898 Joiner Rd, La Grange, TX 78945",29.88973,-96.78801,3/4 mi S of SH 71
9018,1301,Jurecka Rd ,"2100 Jurecka Rd, Fayetteville, TX 78940",29.895878,-96.722237,at Ross Creek
9018,1302,Kramr Rd ,"1225 Kramr Rd, Fayetteville, TX 78940",29.880827,-96.673958,near Ross Prairie Church Rd
9018,1303,McCormick Rd ,"900 McCormick Rd, Round Top, TX 78954",29.999363,-96.795174,at Clear Creek
9018,1304,Rocky Creek Rd ,"Rocky Creek Rd & Ruether Rd, La Grange, TX 78945",29.934692,-96.805496,at Ruether Rd
9018,1305,Rocky Creek Rd ,"1627 Rocky Creek Rd, La Grange, TX 78945",29.913063,-96.841522,1/4 mi E of SH 71
9018,1306,Rocky Creek Rd ,"2948 Rocky Creek Rd, La Grange, TX 78945",29.913198,-96.821503,1 1/2 mi E of SH 71
9018,1307,Rocky Creek Rd ,"2300 Rocky Creek Rd, La Grange, TX 78945",29.913774,-96.83107,at High Hill Creek
9018,1308,Rohde Rd ,"3254 Rohde Rd, Round Top, TX 78954",30.051666,-96.739403,SE of Weyand Rd
9018,1309,Roznov Rd ,Roznov Rd - ,29.981155,-96.726379,3/4 mi SW of FM 1291
9018,1310,Sand Rock Rd ,Sand Rock Rd ,29.95727,-96.809959,NW of Wied Rd
9018,1311,Shumacher Rd ,Shumacher Rd,29.861704,-96.715393,near FM 955
9018,1312,Shumacher Rd ,Shumacher Rd ,29.844414,-96.708549,at Ellinger Branch
9018,1313,Schuster Rd ,Schuster Rd near FM 2145,30.043056,-96.821907,
9018,1314,Teitjen Rd ,Teitjen Rd - 1/2 mi N of Halstedt Rd,29.920481,-96.781181,
9018,1315,Tobias Rd ,Tobias Rd - 1/2 mi SE of FM 2503,29.837164,-96.694,
9018,1316,Waldeck Cemetery Rd ,Waldeck Cemetery Rd SE of Albers Rd,30.055632,-96.773354,
9018,1317,Schoenst Rd ,Schoenst Rd - 1/2 mi SW of Round Top Rd,30.099192,-96.741203,
9018,1318,Haw Creek Rd ,Haw Creek Rd at Cummins Creek,29.977539,-96.661728,
9018,1319,W Old Lockhart Rd ,W Old Lockhart Rd west of N Old Smithville Rd,29.891462,-97.158577,
9018,1320,Laird Rd ,Laird Rd NE of Rauch Rd,30.015747,-96.814827,
9018,1321,Falke Heinrich Rd ,Falke Heinrich Rd N of FM 956,29.771662,-96.929237,
9018,1322,Demel Rd ,Demel Rd between FM 615 & Holub Rd,29.711819,-96.88047,
9018,1323,Vivial Rd ,Vivial Rd between Hermis Rd & FM 957,29.644331,-96.947975,
9018,1324,Camelback Rd ,Camelback Rd near Prairie St,30.016361,-97.019402,
9018,1325,Davis Rd ,Davis Rd at FM 154,29.850992,-97.043564,
9018,1326,Fritsch Rd ,Fritsch Rd SE of Ruether Rd,29.93889,-96.786438,
9018,1327,Bittner Rd ,Boehnke Rd,29.777975,-97.052383,
9018,1328,Boulton Creek ,Boulton Creek near FM 154,29.833757,-97.043266,
9018,1329,Branecky Rd ,Branecky Rd - 1/2 mi S of US 90,29.683523,-97.151627,
9018,1330,Brown Rd ,Brown Rd - 1 1/4 mi W of SH 95,29.76082,-97.195679,
9018,1331,Cowan Rd ,Cowan Rd near FM 2762,29.735744,-97.174759,
9018,1332,Farek Loth Rd ,Farek Loth Rd near Ragsdale Rd,29.715862,-97.056183,
9018,1333,Klekar Gin Rd ,Klekar Gin Rd near S Knezek Rd,29.668795,-97.051956,
9018,1334,Klekar Gin Rd ,Klekar Gin Rd near Cook Ln,29.667583,-97.041016,
9018,1335,Mach Rd ,Mach Rd near FM 609,29.813374,-96.988739,
9018,1337,W Old Lockhart Rd ,W Old Lockhart Rd - 1 mi W of Boehnke Rd,29.88727,-97.103561,
9018,1340,Country Club Drive ,Country Club,29.897743,-96.891785,
9018,1341,River Drive ,River Drive at Country Club,29.89612,-96.890381,
9018,1344,"Eilers St, Schulenburg",Eilers at West,29.68446,-96.910873,
9018,1350,CH Allen Rd ,CH Allen SW 1291,29.951544,-96.698143,
9018,1353,Goehring Rd ,Goehring Rd @ Cummins Creek,30.134729,-96.799767,
9018,1354,Kainer Rd ,Kainer Rd near Baumgarten Rd,29.654898,-96.972443,
9018,1383,Baca Loop Fayette County,"Baca Loop at Hwy 90, Flatonia",29.680094,-97.066162,
9018,1768,Huelsebusch Rd ,Huelsebusch Rd SW of Old Plum Hwy,29.922003,-96.932274,
9018,1769,Goehring Rd ,Goehring Rd N of Wendler Rd,30.113573,-96.82444,
9018,1826,Rek Hill Rd,Rek Hill @ SH 159,29.934271,-96.639008,
9018,1827,Hwy 159 @ Darden Loop,159 @ Darden Loop,29.963202,-96.609566,
9018,1829,FM 1291 @ Haw Creek,1291 @ Haw Creek,29.960443,-96.688789,
9018,1830,FM 1291 @ Halamicek Loop,FM 1291 @ Halamicek Loop,29.97591,-96.698441,
9018,1831,Mullins Prairie Loop Southbound,Mullins Prarie Loop Southbound,29.860403,-96.792381,
9018,1832,Mullins Prairie Loop @ Loehr Rd,Mullins Prairie Loop @ Loehr Rd,29.86422,-96.813881,
9018,1841,Kitchen Lane ,Kitchen Lane @ Hwy 71,29.862785,-96.741486,
9018,1842,Zapalac Rd ,Zapalac Rd @ Hwy 71,29.871178,-96.749596,
9018,1866,Copperhead Rd,Copperhead @ Lee Co Line,30.040434,-97.024216,
9018,1867,Plum Church Rd,Plum Church @ Plum Wonderful,29.925411,-96.975609,
9018,1868,Adamcik Rd,Adamcik off 1383,29.749142,-96.834785,
9018,1870,Middle Creek Rd,Middle Creek Rd N Schulenburg,29.759178,-96.885162,
9018,1871,Hermis Rd,Hermis over Mulberry Creek,29.652189,-96.938766,
9018,1896,Hertel Road,Hertel Road @ Foster,29.705248,-96.922974,
9018,1929,Dixieland RV Park ,Dixieland RV Park at Spur 458,30.14493,-96.683205,
9018,1930,Carmine Cemetery Rd,Carmine Cemetery Road at Hauptstrass,30.146284,-96.685997,
9018,1974,Tienert Rd,Tienert Rd @ Rabbs Creek,30.069202,-96.893364,
9018,1975,Race Track Road,Race Track Rd @ Cedar Creek,30.009747,-96.881798,
9018,1976,Anchor Ranch Loop,Anchor Ranch Loop North,29.822645,-97.182938,
9018,1977,Anchor Ranch Loop,Anchor Ranch Loop South,29.765533,-97.169052,
9018,1978,Wallace Road,Wallace Rd,29.833212,-97.105148,
9018,1979,Boehnke Rd,Boehnke Rd,29.86062,-97.082748,
9018,2012,Pin Oak Branch Rd,Pin Oak Branch Rd @ Pin Oak Branch Creek,30.069672,-96.922478,
9018,2103,Clear Creek at Roznov Rd,Clear Creek at Roznov Rd,29.967999,-96.741402,
9018,2111,Krischke Rd ,Krischke Rd North of Gansky Rd,29.728769,-96.952065,
9018,2112,Krischke Rd ,Krischke Rd South of Gansky Rd,29.723021,-96.95134,
9018,2129,Main St @ Mesquite St ,E North Main St @ S Mesquite St,29.687887,-97.100632,
9018,2165,Alex Ln ,Alex Ln near Texas 71 Frontage Rd,29.91831,-96.888374,
9018,2176,FM 1291 @ Ledbetter ,FM 1291 @ Ledbetter,30.14612,-96.792427,
9018,2177,FM 1291 @ Greens Creek Rd ,FM 1291 @ Greens Creek Rd,30.078794,-96.799583,
9018,2181,SH 71 @ St James Church Rd ,SH 71 @ St James Church Rd,29.936951,-96.990501,
9018,2183,W Old Lockhart Rd @ Makinson Rd ,W Old Lockhart Rd @ Makinson Rd,29.901875,-97.054359,
9018,2218,Piney Creek @ Piney Creek Rd ,Piney Creek @ Piney Creek Rd,30.021112,-96.94619,
9018,2219,Weyand Rd @ Cummins Creek ,Weyand Rd @ Cummins Creek,30.068624,-96.719383,
9018,2221,Bordovsky Rd ,Bordovsky Rd,29.902544,-96.937241,
9018,2229,FM 609 @ Buckner,FM 609 @ Buckner,29.866117,-96.932999,
9018,2230,Holub Rd @ Company Field Rd ,Holub Rd @ Company Field Rd,29.703508,-96.861534,
9018,2238,FM 2237 @ Roy Rd ,FM 2237 @ Roy Rd,29.835588,-97.154053,
9018,2240,Freyburg Hall Rd near Bryant RD ,Freyburg Hall Rd near Bryant RD,29.729185,-96.974266,
9018,2241,Freyburg Hall Rd near FM 2238 ,Freyburg Hall Rd near FM 2238,29.734987,-96.992538,
9018,2242,3 Mile Rd off Mockingbird Rd ,3 Mile Rd off Mockingbird Rd,29.774277,-97.217308,
9018,2244,Skillett Rd off Valenta RD ,Skillett Rd off Valenta RD,29.856251,-96.953438,
9018,2249,FM 957 ,FM 957,29.665253,-96.922455,
9018,2256,Herzik Rd off Hwy 77 ,Herzik Rd off Hwy 77,29.741043,-96.90448,
9018,2262,FM 957 near FM 223 ,FM 957 near FM 223,29.633596,-96.931511,
9018,2267,FM 2237 @ Pin Oak Creek ,FM 2237 @ Pin Oak Creek,29.805616,-97.064743,
9018,2272,FM 2237 @ Live Oak Creek ,FM 2237 @ Live Oak Creek,29.823456,-97.083458,
9018,2280,S Knezek Rd @ Mulberry Creek ,S Knezek Rd @ Mulberry Creek,29.668293,-97.061493,
9018,2283,FM 153 @ Bastrop County Line ,FM 153 @ Bastrop County Line,30.015839,-97.061546,
9018,2284,FM 153 @ Pilchick Loop ,FM 153 @ Pilchick Loop,30.010414,-97.037811,
9018,2308,Noak Rd @ Jacks Creek ,Noak Rd @ Jacks Creek ,30.037806,-96.666672,
9018,2309,Krenek Rd @ Pettys Creek ,Krenek Rd @ Pettys Creek,29.844137,-96.725288,
9018,2311,FM 2503 ,FM 2503,29.880667,-96.655914,
9018,2314,W Travis St (Business 71) @ Colorado River ,W Travis St (Business 71) @ Colorado River,29.901161,-96.886971,